<gpx xmlns:ns3="http://www.garmin.com/xmlschemas/TrackPointExtension/v1" xmlns="http://www.topografix.com/GPX/1/1" xmlns:xsi="http://www.w3.org/2001/XMLSchema-instance" xmlns:ns2="http://www.garmin.com/xmlschemas/GpxExtensions/v3" creator="Garmin Connect" version="1.1" xsi:schemaLocation="http://www.topografix.com/GPX/1/1 http://www.topografix.com/GPX/11.xsd">
  <extensions>
<distance>3420.99</distance>
<average_hr></average_hr>
<average_speed>0.5747629854144685</average_speed>
<start_time>2024-10-03T01:49:01+00:00</start_time>
<end_time>2024-10-03T03:28:13+00:00</end_time>
<moving_time>3546.0</moving_time>
<elapsed_time>5952.0</elapsed_time>
</extensions>
<metadata>
    <link href="connect.garmin.com">
      <text>Garmin Connect</text>
    </link>
    <time>2024-10-03T01:49:01.000Z</time>
  </metadata>
  <trk>
    <name>杭州市 其他</name>
    <type>other</type>
    <trkseg>
      <trkpt lat="30.30657998286187648773193359375" lon="119.10204492509365081787109375">
        <ele>996.5999755859375</ele>
        <time>2024-10-03T01:49:01.000Z</time>
        <extensions>
          <ns3:TrackPointExtension/>
        </extensions>
      </trkpt>
      <trkpt lat="30.30657998286187648773193359375" lon="119.10204492509365081787109375">
        <ele>996.5999755859375</ele>
        <time>2024-10-03T01:49:12.000Z</time>
        <extensions>
          <ns3:TrackPointExtension/>
        </extensions>
      </trkpt>
      <trkpt lat="30.30658199451863765716552734375" lon="119.10215799696743488311767578125">
        <ele>1001.5999755859375</ele>
        <time>2024-10-03T01:49:24.000Z</time>
        <extensions>
          <ns3:TrackPointExtension/>
        </extensions>
      </trkpt>
      <trkpt lat="30.3065829165279865264892578125" lon="119.1022829711437225341796875">
        <ele>1007</ele>
        <time>2024-10-03T01:49:42.000Z</time>
        <extensions>
          <ns3:TrackPointExtension/>
        </extensions>
      </trkpt>
      <trkpt lat="30.30665592290461063385009765625" lon="119.10232798196375370025634765625">
        <ele>1012</ele>
        <time>2024-10-03T01:49:58.000Z</time>
        <extensions>
          <ns3:TrackPointExtension/>
        </extensions>
      </trkpt>
      <trkpt lat="30.30672096647322177886962890625" lon="119.102397970855236053466796875">
        <ele>1018.4000244140625</ele>
        <time>2024-10-03T01:50:16.000Z</time>
        <extensions>
          <ns3:TrackPointExtension/>
        </extensions>
      </trkpt>
      <trkpt lat="30.306729935109615325927734375" lon="119.10249997861683368682861328125">
        <ele>1023.20001220703125</ele>
        <time>2024-10-03T01:51:08.000Z</time>
        <extensions>
          <ns3:TrackPointExtension/>
        </extensions>
      </trkpt>
      <trkpt lat="30.30675499700009822845458984375" lon="119.1026019863784313201904296875">
        <ele>1027.5999755859375</ele>
        <time>2024-10-03T01:51:28.000Z</time>
        <extensions>
          <ns3:TrackPointExtension/>
        </extensions>
      </trkpt>
      <trkpt lat="30.30680294148623943328857421875" lon="119.10270097665488719940185546875">
        <ele>1032.5999755859375</ele>
        <time>2024-10-03T01:51:48.000Z</time>
        <extensions>
          <ns3:TrackPointExtension/>
        </extensions>
      </trkpt>
      <trkpt lat="30.30683898366987705230712890625" lon="119.10281295888125896453857421875">
        <ele>1037.800048828125</ele>
        <time>2024-10-03T01:52:06.000Z</time>
        <extensions>
          <ns3:TrackPointExtension/>
        </extensions>
      </trkpt>
      <trkpt lat="30.3068149276077747344970703125" lon="119.102912954986095428466796875">
        <ele>1043.5999755859375</ele>
        <time>2024-10-03T01:52:14.000Z</time>
        <extensions>
          <ns3:TrackPointExtension/>
        </extensions>
      </trkpt>
      <trkpt lat="30.30678399838507175445556640625" lon="119.10301898606121540069580078125">
        <ele>1047.5999755859375</ele>
        <time>2024-10-03T01:52:28.000Z</time>
        <extensions>
          <ns3:TrackPointExtension/>
        </extensions>
      </trkpt>
      <trkpt lat="30.30677192844450473785400390625" lon="119.10312392748892307281494140625">
        <ele>1050.4000244140625</ele>
        <time>2024-10-03T01:52:40.000Z</time>
        <extensions>
          <ns3:TrackPointExtension/>
        </extensions>
      </trkpt>
      <trkpt lat="30.30677293427288532257080078125" lon="119.1032309643924236297607421875">
        <ele>1054.5999755859375</ele>
        <time>2024-10-03T01:52:56.000Z</time>
        <extensions>
          <ns3:TrackPointExtension/>
        </extensions>
      </trkpt>
      <trkpt lat="30.30677796341478824615478515625" lon="119.10333699546754360198974609375">
        <ele>1056.4000244140625</ele>
        <time>2024-10-03T01:53:08.000Z</time>
        <extensions>
          <ns3:TrackPointExtension/>
        </extensions>
      </trkpt>
      <trkpt lat="30.30677896924316883087158203125" lon="119.10345199517905712127685546875">
        <ele>1057.800048828125</ele>
        <time>2024-10-03T01:53:20.000Z</time>
        <extensions>
          <ns3:TrackPointExtension/>
        </extensions>
      </trkpt>
      <trkpt lat="30.3068189509212970733642578125" lon="119.103547967970371246337890625">
        <ele>1060</ele>
        <time>2024-10-03T01:53:38.000Z</time>
        <extensions>
          <ns3:TrackPointExtension/>
        </extensions>
      </trkpt>
      <trkpt lat="30.30689598061144351959228515625" lon="119.10360999405384063720703125">
        <ele>1064.199951171875</ele>
        <time>2024-10-03T01:53:46.000Z</time>
        <extensions>
          <ns3:TrackPointExtension/>
        </extensions>
      </trkpt>
      <trkpt lat="30.3069879300892353057861328125" lon="119.103661961853504180908203125">
        <ele>1068.4000244140625</ele>
        <time>2024-10-03T01:54:06.000Z</time>
        <extensions>
          <ns3:TrackPointExtension/>
        </extensions>
      </trkpt>
      <trkpt lat="30.30703595839440822601318359375" lon="119.1037489660084247589111328125">
        <ele>1072.5999755859375</ele>
        <time>2024-10-03T01:54:26.000Z</time>
        <extensions>
          <ns3:TrackPointExtension/>
        </extensions>
      </trkpt>
      <trkpt lat="30.30706697143614292144775390625" lon="119.10384896211326122283935546875">
        <ele>1077</ele>
        <time>2024-10-03T01:54:50.000Z</time>
        <extensions>
          <ns3:TrackPointExtension/>
        </extensions>
      </trkpt>
      <trkpt lat="30.30706797726452350616455078125" lon="119.10395792685449123382568359375">
        <ele>1079.5999755859375</ele>
        <time>2024-10-03T01:54:58.000Z</time>
        <extensions>
          <ns3:TrackPointExtension/>
        </extensions>
      </trkpt>
      <trkpt lat="30.30707099474966526031494140625" lon="119.10407393239438533782958984375">
        <ele>1080.5999755859375</ele>
        <time>2024-10-03T01:55:18.000Z</time>
        <extensions>
          <ns3:TrackPointExtension/>
        </extensions>
      </trkpt>
      <trkpt lat="30.307085998356342315673828125" lon="119.10418792627751827239990234375">
        <ele>1082</ele>
        <time>2024-10-03T01:55:36.000Z</time>
        <extensions>
          <ns3:TrackPointExtension/>
        </extensions>
      </trkpt>
      <trkpt lat="30.30711994506418704986572265625" lon="119.10431399010121822357177734375">
        <ele>1086</ele>
        <time>2024-10-03T01:55:50.000Z</time>
        <extensions>
          <ns3:TrackPointExtension/>
        </extensions>
      </trkpt>
      <trkpt lat="30.3072009980678558349609375" lon="119.10440795123577117919921875">
        <ele>1088.199951171875</ele>
        <time>2024-10-03T01:56:04.000Z</time>
        <extensions>
          <ns3:TrackPointExtension/>
        </extensions>
      </trkpt>
      <trkpt lat="30.3072819672524929046630859375" lon="119.10447794012725353240966796875">
        <ele>1091.5999755859375</ele>
        <time>2024-10-03T01:56:18.000Z</time>
        <extensions>
          <ns3:TrackPointExtension/>
        </extensions>
      </trkpt>
      <trkpt lat="30.30738196335732936859130859375" lon="119.10452194511890411376953125">
        <ele>1093.800048828125</ele>
        <time>2024-10-03T01:56:34.000Z</time>
        <extensions>
          <ns3:TrackPointExtension/>
        </extensions>
      </trkpt>
      <trkpt lat="30.307478941977024078369140625" lon="119.1045549698173999786376953125">
        <ele>1094.800048828125</ele>
        <time>2024-10-03T01:57:00.000Z</time>
        <extensions>
          <ns3:TrackPointExtension/>
        </extensions>
      </trkpt>
      <trkpt lat="30.3075729869306087493896484375" lon="119.10458497703075408935546875">
        <ele>1097.5999755859375</ele>
        <time>2024-10-03T01:57:10.000Z</time>
        <extensions>
          <ns3:TrackPointExtension/>
        </extensions>
      </trkpt>
      <trkpt lat="30.30767499469220638275146484375" lon="119.10458992235362529754638671875">
        <ele>1099.199951171875</ele>
        <time>2024-10-03T01:57:26.000Z</time>
        <extensions>
          <ns3:TrackPointExtension/>
        </extensions>
      </trkpt>
      <trkpt lat="30.30775797553360462188720703125" lon="119.10463099367916584014892578125">
        <ele>1099.5999755859375</ele>
        <time>2024-10-03T01:57:32.000Z</time>
        <extensions>
          <ns3:TrackPointExtension/>
        </extensions>
      </trkpt>
      <trkpt lat="30.30784296803176403045654296875" lon="119.1046669520437717437744140625">
        <ele>1099.199951171875</ele>
        <time>2024-10-03T01:57:42.000Z</time>
        <extensions>
          <ns3:TrackPointExtension/>
        </extensions>
      </trkpt>
      <trkpt lat="30.30792997218668460845947265625" lon="119.10462898202240467071533203125">
        <ele>1100.800048828125</ele>
        <time>2024-10-03T01:57:56.000Z</time>
        <extensions>
          <ns3:TrackPointExtension/>
        </extensions>
      </trkpt>
      <trkpt lat="30.3080309741199016571044921875" lon="119.10462998785078525543212890625">
        <ele>1101.5999755859375</ele>
        <time>2024-10-03T01:58:06.000Z</time>
        <extensions>
          <ns3:TrackPointExtension/>
        </extensions>
      </trkpt>
      <trkpt lat="30.3081389330327510833740234375" lon="119.104644991457462310791015625">
        <ele>1104.199951171875</ele>
        <time>2024-10-03T01:58:18.000Z</time>
        <extensions>
          <ns3:TrackPointExtension/>
        </extensions>
      </trkpt>
      <trkpt lat="30.3082079999148845672607421875" lon="119.1047279722988605499267578125">
        <ele>1105.5999755859375</ele>
        <time>2024-10-03T01:58:26.000Z</time>
        <extensions>
          <ns3:TrackPointExtension/>
        </extensions>
      </trkpt>
      <trkpt lat="30.30816298909485340118408203125" lon="119.104818999767303466796875">
        <ele>1106</ele>
        <time>2024-10-03T01:58:36.000Z</time>
        <extensions>
          <ns3:TrackPointExtension/>
        </extensions>
      </trkpt>
      <trkpt lat="30.308113954961299896240234375" lon="119.1049289703369140625">
        <ele>1107.5999755859375</ele>
        <time>2024-10-03T01:58:48.000Z</time>
        <extensions>
          <ns3:TrackPointExtension/>
        </extensions>
      </trkpt>
      <trkpt lat="30.3081469796597957611083984375" lon="119.1050089336931705474853515625">
        <ele>1111</ele>
        <time>2024-10-03T01:59:12.000Z</time>
        <extensions>
          <ns3:TrackPointExtension/>
        </extensions>
      </trkpt>
      <trkpt lat="30.30821596272289752960205078125" lon="119.10511496476829051971435546875">
        <ele>1115.199951171875</ele>
        <time>2024-10-03T01:59:20.000Z</time>
        <extensions>
          <ns3:TrackPointExtension/>
        </extensions>
      </trkpt>
      <trkpt lat="30.30829592607915401458740234375" lon="119.10517699085175991058349609375">
        <ele>1118.800048828125</ele>
        <time>2024-10-03T01:59:38.000Z</time>
        <extensions>
          <ns3:TrackPointExtension/>
        </extensions>
      </trkpt>
      <trkpt lat="30.30838695354759693145751953125" lon="119.10522795282304286956787109375">
        <ele>1121.5999755859375</ele>
        <time>2024-10-03T01:59:56.000Z</time>
        <extensions>
          <ns3:TrackPointExtension/>
        </extensions>
      </trkpt>
      <trkpt lat="30.30847395770251750946044921875" lon="119.10531596280634403228759765625">
        <ele>1121.800048828125</ele>
        <time>2024-10-03T02:00:12.000Z</time>
        <extensions>
          <ns3:TrackPointExtension/>
        </extensions>
      </trkpt>
      <trkpt lat="30.308569930493831634521484375" lon="119.10533892922103404998779296875">
        <ele>1126.800048828125</ele>
        <time>2024-10-03T02:00:36.000Z</time>
        <extensions>
          <ns3:TrackPointExtension/>
        </extensions>
      </trkpt>
      <trkpt lat="30.3086539171636104583740234375" lon="119.105393998324871063232421875">
        <ele>1132</ele>
        <time>2024-10-03T02:00:42.000Z</time>
        <extensions>
          <ns3:TrackPointExtension/>
        </extensions>
      </trkpt>
      <trkpt lat="30.308742932975292205810546875" lon="119.10542492754757404327392578125">
        <ele>1135.5999755859375</ele>
        <time>2024-10-03T02:00:58.000Z</time>
        <extensions>
          <ns3:TrackPointExtension/>
        </extensions>
      </trkpt>
      <trkpt lat="30.30882599763572216033935546875" lon="119.10548091866075992584228515625">
        <ele>1138.199951171875</ele>
        <time>2024-10-03T02:01:06.000Z</time>
        <extensions>
          <ns3:TrackPointExtension/>
        </extensions>
      </trkpt>
      <trkpt lat="30.30887897126376628875732421875" lon="119.1055339761078357696533203125">
        <ele>1140.199951171875</ele>
        <time>2024-10-03T02:01:20.000Z</time>
        <extensions>
          <ns3:TrackPointExtension/>
        </extensions>
      </trkpt>
      <trkpt lat="30.3088299371302127838134765625" lon="119.105613939464092254638671875">
        <ele>1140.199951171875</ele>
        <time>2024-10-03T02:01:50.000Z</time>
        <extensions>
          <ns3:TrackPointExtension/>
        </extensions>
      </trkpt>
      <trkpt lat="30.30876698903739452362060546875" lon="119.1057049669325351715087890625">
        <ele>1142</ele>
        <time>2024-10-03T02:02:00.000Z</time>
        <extensions>
          <ns3:TrackPointExtension/>
        </extensions>
      </trkpt>
      <trkpt lat="30.3087219782173633575439453125" lon="119.1057619638741016387939453125">
        <ele>1144.199951171875</ele>
        <time>2024-10-03T02:02:14.000Z</time>
        <extensions>
          <ns3:TrackPointExtension/>
        </extensions>
      </trkpt>
      <trkpt lat="30.3087709285318851470947265625" lon="119.10580295138061046600341796875">
        <ele>1147</ele>
        <time>2024-10-03T02:02:52.000Z</time>
        <extensions>
          <ns3:TrackPointExtension/>
        </extensions>
      </trkpt>
      <trkpt lat="30.30878392048180103302001953125" lon="119.10589397884905338287353515625">
        <ele>1149.800048828125</ele>
        <time>2024-10-03T02:03:12.000Z</time>
        <extensions>
          <ns3:TrackPointExtension/>
        </extensions>
      </trkpt>
      <trkpt lat="30.30884494073688983917236328125" lon="119.10596991889178752899169921875">
        <ele>1153.5999755859375</ele>
        <time>2024-10-03T02:03:48.000Z</time>
        <extensions>
          <ns3:TrackPointExtension/>
        </extensions>
      </trkpt>
      <trkpt lat="30.30893697403371334075927734375" lon="119.10602398216724395751953125">
        <ele>1157</ele>
        <time>2024-10-03T02:04:02.000Z</time>
        <extensions>
          <ns3:TrackPointExtension/>
        </extensions>
      </trkpt>
      <trkpt lat="30.309031940996646881103515625" lon="119.10606899298727512359619140625">
        <ele>1159.5999755859375</ele>
        <time>2024-10-03T02:04:16.000Z</time>
        <extensions>
          <ns3:TrackPointExtension/>
        </extensions>
      </trkpt>
      <trkpt lat="30.30911299400031566619873046875" lon="119.106140993535518646240234375">
        <ele>1161.4000244140625</ele>
        <time>2024-10-03T02:04:48.000Z</time>
        <extensions>
          <ns3:TrackPointExtension/>
        </extensions>
      </trkpt>
      <trkpt lat="30.309202931821346282958984375" lon="119.10620092414319515228271484375">
        <ele>1163.4000244140625</ele>
        <time>2024-10-03T02:05:02.000Z</time>
        <extensions>
          <ns3:TrackPointExtension/>
        </extensions>
      </trkpt>
      <trkpt lat="30.30930393375456333160400390625" lon="119.106246940791606903076171875">
        <ele>1164.4000244140625</ele>
        <time>2024-10-03T02:05:16.000Z</time>
        <extensions>
          <ns3:TrackPointExtension/>
        </extensions>
      </trkpt>
      <trkpt lat="30.3094119764864444732666015625" lon="119.10626295022666454315185546875">
        <ele>1166.800048828125</ele>
        <time>2024-10-03T02:05:24.000Z</time>
        <extensions>
          <ns3:TrackPointExtension/>
        </extensions>
      </trkpt>
      <trkpt lat="30.30948498286306858062744140625" lon="119.10618198104202747344970703125">
        <ele>1171</ele>
        <time>2024-10-03T02:05:34.000Z</time>
        <extensions>
          <ns3:TrackPointExtension/>
        </extensions>
      </trkpt>
      <trkpt lat="30.3095819614827632904052734375" lon="119.10614199936389923095703125">
        <ele>1178.199951171875</ele>
        <time>2024-10-03T02:05:50.000Z</time>
        <extensions>
          <ns3:TrackPointExtension/>
        </extensions>
      </trkpt>
      <trkpt lat="30.309670977294445037841796875" lon="119.106195978820323944091796875">
        <ele>1180.5999755859375</ele>
        <time>2024-10-03T02:05:58.000Z</time>
        <extensions>
          <ns3:TrackPointExtension/>
        </extensions>
      </trkpt>
      <trkpt lat="30.3097519464790821075439453125" lon="119.1062719188630580902099609375">
        <ele>1180.199951171875</ele>
        <time>2024-10-03T02:06:14.000Z</time>
        <extensions>
          <ns3:TrackPointExtension/>
        </extensions>
      </trkpt>
      <trkpt lat="30.309843979775905609130859375" lon="119.10629798658192157745361328125">
        <ele>1179.4000244140625</ele>
        <time>2024-10-03T02:06:28.000Z</time>
        <extensions>
          <ns3:TrackPointExtension/>
        </extensions>
      </trkpt>
      <trkpt lat="30.3099279664456844329833984375" lon="119.10626496188342571258544921875">
        <ele>1181.5999755859375</ele>
        <time>2024-10-03T02:06:36.000Z</time>
        <extensions>
          <ns3:TrackPointExtension/>
        </extensions>
      </trkpt>
      <trkpt lat="30.310018993914127349853515625" lon="119.10628993995487689971923828125">
        <ele>1184.5999755859375</ele>
        <time>2024-10-03T02:06:58.000Z</time>
        <extensions>
          <ns3:TrackPointExtension/>
        </extensions>
      </trkpt>
      <trkpt lat="30.31011094339191913604736328125" lon="119.1063359566032886505126953125">
        <ele>1187.800048828125</ele>
        <time>2024-10-03T02:07:10.000Z</time>
        <extensions>
          <ns3:TrackPointExtension/>
        </extensions>
      </trkpt>
      <trkpt lat="30.31019392423331737518310546875" lon="119.1063909418880939483642578125">
        <ele>1189.5999755859375</ele>
        <time>2024-10-03T02:07:16.000Z</time>
        <extensions>
          <ns3:TrackPointExtension/>
        </extensions>
      </trkpt>
      <trkpt lat="30.31028998084366321563720703125" lon="119.10640896297991275787353515625">
        <ele>1190.199951171875</ele>
        <time>2024-10-03T02:07:30.000Z</time>
        <extensions>
          <ns3:TrackPointExtension/>
        </extensions>
      </trkpt>
      <trkpt lat="30.310352928936481475830078125" lon="119.10649093799293041229248046875">
        <ele>1190.199951171875</ele>
        <time>2024-10-03T02:07:40.000Z</time>
        <extensions>
          <ns3:TrackPointExtension/>
        </extensions>
      </trkpt>
      <trkpt lat="30.31037899665534496307373046875" lon="119.10660694353282451629638671875">
        <ele>1190</ele>
        <time>2024-10-03T02:07:50.000Z</time>
        <extensions>
          <ns3:TrackPointExtension/>
        </extensions>
      </trkpt>
      <trkpt lat="30.31037899665534496307373046875" lon="119.10672294907271862030029296875">
        <ele>1190</ele>
        <time>2024-10-03T02:08:00.000Z</time>
        <extensions>
          <ns3:TrackPointExtension/>
        </extensions>
      </trkpt>
      <trkpt lat="30.3103579580783843994140625" lon="119.10684197209775447845458984375">
        <ele>1188.800048828125</ele>
        <time>2024-10-03T02:08:10.000Z</time>
        <extensions>
          <ns3:TrackPointExtension/>
        </extensions>
      </trkpt>
      <trkpt lat="30.31034798361361026763916015625" lon="119.10695596598088741302490234375">
        <ele>1188.4000244140625</ele>
        <time>2024-10-03T02:08:20.000Z</time>
        <extensions>
          <ns3:TrackPointExtension/>
        </extensions>
      </trkpt>
      <trkpt lat="30.31035192310810089111328125" lon="119.10706895403563976287841796875">
        <ele>1192</ele>
        <time>2024-10-03T02:08:42.000Z</time>
        <extensions>
          <ns3:TrackPointExtension/>
        </extensions>
      </trkpt>
      <trkpt lat="30.3103879652917385101318359375" lon="119.107166938483715057373046875">
        <ele>1194.4000244140625</ele>
        <time>2024-10-03T02:08:54.000Z</time>
        <extensions>
          <ns3:TrackPointExtension/>
        </extensions>
      </trkpt>
      <trkpt lat="30.3103859536349773406982421875" lon="119.107286967337131500244140625">
        <ele>1198.199951171875</ele>
        <time>2024-10-03T02:09:12.000Z</time>
        <extensions>
          <ns3:TrackPointExtension/>
        </extensions>
      </trkpt>
      <trkpt lat="30.31037095002830028533935546875" lon="119.10739995539188385009765625">
        <ele>1202.199951171875</ele>
        <time>2024-10-03T02:09:24.000Z</time>
        <extensions>
          <ns3:TrackPointExtension/>
        </extensions>
      </trkpt>
      <trkpt lat="30.31031194142997264862060546875" lon="119.1074819304049015045166015625">
        <ele>1204</ele>
        <time>2024-10-03T02:09:34.000Z</time>
        <extensions>
          <ns3:TrackPointExtension/>
        </extensions>
      </trkpt>
      <trkpt lat="30.31025393866002559661865234375" lon="119.10758997313678264617919921875">
        <ele>1204.800048828125</ele>
        <time>2024-10-03T02:09:46.000Z</time>
        <extensions>
          <ns3:TrackPointExtension/>
        </extensions>
      </trkpt>
      <trkpt lat="30.31019794754683971405029296875" lon="119.1076849400997161865234375">
        <ele>1206</ele>
        <time>2024-10-03T02:09:58.000Z</time>
        <extensions>
          <ns3:TrackPointExtension/>
        </extensions>
      </trkpt>
      <trkpt lat="30.310122929513454437255859375" lon="119.1077709384262561798095703125">
        <ele>1208.4000244140625</ele>
        <time>2024-10-03T02:10:06.000Z</time>
        <extensions>
          <ns3:TrackPointExtension/>
        </extensions>
      </trkpt>
      <trkpt lat="30.3100389428436756134033203125" lon="119.10784495063126087188720703125">
        <ele>1211.5999755859375</ele>
        <time>2024-10-03T02:10:16.000Z</time>
        <extensions>
          <ns3:TrackPointExtension/>
        </extensions>
      </trkpt>
      <trkpt lat="30.30996895395219326019287109375" lon="119.10793296061456203460693359375">
        <ele>1214.4000244140625</ele>
        <time>2024-10-03T02:10:26.000Z</time>
        <extensions>
          <ns3:TrackPointExtension/>
        </extensions>
      </trkpt>
      <trkpt lat="30.309897959232330322265625" lon="119.10801996476948261260986328125">
        <ele>1217</ele>
        <time>2024-10-03T02:10:36.000Z</time>
        <extensions>
          <ns3:TrackPointExtension/>
        </extensions>
      </trkpt>
      <trkpt lat="30.3098619170486927032470703125" lon="119.1081229783594608306884765625">
        <ele>1218.800048828125</ele>
        <time>2024-10-03T02:10:52.000Z</time>
        <extensions>
          <ns3:TrackPointExtension/>
        </extensions>
      </trkpt>
      <trkpt lat="30.3098069317638874053955078125" lon="119.10821693949401378631591796875">
        <ele>1220.5999755859375</ele>
        <time>2024-10-03T02:10:58.000Z</time>
        <extensions>
          <ns3:TrackPointExtension/>
        </extensions>
      </trkpt>
      <trkpt lat="30.309731997549533843994140625" lon="119.10827795974910259246826171875">
        <ele>1221.4000244140625</ele>
        <time>2024-10-03T02:11:08.000Z</time>
        <extensions>
          <ns3:TrackPointExtension/>
        </extensions>
      </trkpt>
      <trkpt lat="30.3096989728510379791259765625" lon="119.10836798138916492462158203125">
        <ele>1222.800048828125</ele>
        <time>2024-10-03T02:11:18.000Z</time>
        <extensions>
          <ns3:TrackPointExtension/>
        </extensions>
      </trkpt>
      <trkpt lat="30.3096959553658962249755859375" lon="119.1084699891507625579833984375">
        <ele>1223.800048828125</ele>
        <time>2024-10-03T02:11:30.000Z</time>
        <extensions>
          <ns3:TrackPointExtension/>
        </extensions>
      </trkpt>
      <trkpt lat="30.3096949495375156402587890625" lon="119.1085849888622760772705078125">
        <ele>1224.4000244140625</ele>
        <time>2024-10-03T02:11:40.000Z</time>
        <extensions>
          <ns3:TrackPointExtension/>
        </extensions>
      </trkpt>
      <trkpt lat="30.30968095175921916961669921875" lon="119.10870292223989963531494140625">
        <ele>1223.800048828125</ele>
        <time>2024-10-03T02:11:52.000Z</time>
        <extensions>
          <ns3:TrackPointExtension/>
        </extensions>
      </trkpt>
      <trkpt lat="30.30962093733251094818115234375" lon="119.10882496275007724761962890625">
        <ele>1224.4000244140625</ele>
        <time>2024-10-03T02:12:28.000Z</time>
        <extensions>
          <ns3:TrackPointExtension/>
        </extensions>
      </trkpt>
      <trkpt lat="30.30956394039094448089599609375" lon="119.108954966068267822265625">
        <ele>1225</ele>
        <time>2024-10-03T02:13:06.000Z</time>
        <extensions>
          <ns3:TrackPointExtension/>
        </extensions>
      </trkpt>
      <trkpt lat="30.30950996093451976776123046875" lon="119.10908698104321956634521484375">
        <ele>1225.199951171875</ele>
        <time>2024-10-03T02:13:16.000Z</time>
        <extensions>
          <ns3:TrackPointExtension/>
        </extensions>
      </trkpt>
      <trkpt lat="30.30945598147809505462646484375" lon="119.10919695161283016204833984375">
        <ele>1225</ele>
        <time>2024-10-03T02:13:24.000Z</time>
        <extensions>
          <ns3:TrackPointExtension/>
        </extensions>
      </trkpt>
      <trkpt lat="30.30942999757826328277587890625" lon="119.10930692218244075775146484375">
        <ele>1224.199951171875</ele>
        <time>2024-10-03T02:13:32.000Z</time>
        <extensions>
          <ns3:TrackPointExtension/>
        </extensions>
      </trkpt>
      <trkpt lat="30.309438966214656829833984375" lon="119.10942996852099895477294921875">
        <ele>1222</ele>
        <time>2024-10-03T02:13:44.000Z</time>
        <extensions>
          <ns3:TrackPointExtension/>
        </extensions>
      </trkpt>
      <trkpt lat="30.30947794206440448760986328125" lon="119.109535999596118927001953125">
        <ele>1218</ele>
        <time>2024-10-03T02:13:56.000Z</time>
        <extensions>
          <ns3:TrackPointExtension/>
        </extensions>
      </trkpt>
      <trkpt lat="30.30951297841966152191162109375" lon="119.1096429526805877685546875">
        <ele>1213.199951171875</ele>
        <time>2024-10-03T02:14:06.000Z</time>
        <extensions>
          <ns3:TrackPointExtension/>
        </extensions>
      </trkpt>
      <trkpt lat="30.3095769323408603668212890625" lon="119.1097329743206501007080078125">
        <ele>1209.5999755859375</ele>
        <time>2024-10-03T02:14:16.000Z</time>
        <extensions>
          <ns3:TrackPointExtension/>
        </extensions>
      </trkpt>
      <trkpt lat="30.3096349351108074188232421875" lon="119.10983297042548656463623046875">
        <ele>1206.5999755859375</ele>
        <time>2024-10-03T02:14:26.000Z</time>
        <extensions>
          <ns3:TrackPointExtension/>
        </extensions>
      </trkpt>
      <trkpt lat="30.3096999786794185638427734375" lon="119.109924919903278350830078125">
        <ele>1203.199951171875</ele>
        <time>2024-10-03T02:14:36.000Z</time>
        <extensions>
          <ns3:TrackPointExtension/>
        </extensions>
      </trkpt>
      <trkpt lat="30.3097489289939403533935546875" lon="119.1100189648568630218505859375">
        <ele>1200</ele>
        <time>2024-10-03T02:14:42.000Z</time>
        <extensions>
          <ns3:TrackPointExtension/>
        </extensions>
      </trkpt>
      <trkpt lat="30.30979192815721035003662109375" lon="119.11012499593198299407958984375">
        <ele>1198.4000244140625</ele>
        <time>2024-10-03T02:14:54.000Z</time>
        <extensions>
          <ns3:TrackPointExtension/>
        </extensions>
      </trkpt>
      <trkpt lat="30.30982193537056446075439453125" lon="119.1102539934217929840087890625">
        <ele>1197.4000244140625</ele>
        <time>2024-10-03T02:15:02.000Z</time>
        <extensions>
          <ns3:TrackPointExtension/>
        </extensions>
      </trkpt>
      <trkpt lat="30.309838950634002685546875" lon="119.11037092097103595733642578125">
        <ele>1196</ele>
        <time>2024-10-03T02:15:10.000Z</time>
        <extensions>
          <ns3:TrackPointExtension/>
        </extensions>
      </trkpt>
      <trkpt lat="30.30988697893917560577392578125" lon="119.1104829870164394378662109375">
        <ele>1194.199951171875</ele>
        <time>2024-10-03T02:15:24.000Z</time>
        <extensions>
          <ns3:TrackPointExtension/>
        </extensions>
      </trkpt>
      <trkpt lat="30.30994095839560031890869140625" lon="119.11058197729289531707763671875">
        <ele>1191.4000244140625</ele>
        <time>2024-10-03T02:15:34.000Z</time>
        <extensions>
          <ns3:TrackPointExtension/>
        </extensions>
      </trkpt>
      <trkpt lat="30.30996392481029033660888671875" lon="119.11069094203412532806396484375">
        <ele>1188.800048828125</ele>
        <time>2024-10-03T02:15:40.000Z</time>
        <extensions>
          <ns3:TrackPointExtension/>
        </extensions>
      </trkpt>
      <trkpt lat="30.30997498892247676849365234375" lon="119.11080694757401943206787109375">
        <ele>1186.4000244140625</ele>
        <time>2024-10-03T02:15:46.000Z</time>
        <extensions>
          <ns3:TrackPointExtension/>
        </extensions>
      </trkpt>
      <trkpt lat="30.30994297005236148834228515625" lon="119.11093099974095821380615234375">
        <ele>1184.5999755859375</ele>
        <time>2024-10-03T02:16:02.000Z</time>
        <extensions>
          <ns3:TrackPointExtension/>
        </extensions>
      </trkpt>
      <trkpt lat="30.3098679520189762115478515625" lon="119.1110499389469623565673828125">
        <ele>1184.4000244140625</ele>
        <time>2024-10-03T02:16:08.000Z</time>
        <extensions>
          <ns3:TrackPointExtension/>
        </extensions>
      </trkpt>
      <trkpt lat="30.30980399809777736663818359375" lon="119.11115094088017940521240234375">
        <ele>1184.5999755859375</ele>
        <time>2024-10-03T02:16:14.000Z</time>
        <extensions>
          <ns3:TrackPointExtension/>
        </extensions>
      </trkpt>
      <trkpt lat="30.30979695729911327362060546875" lon="119.11126594059169292449951171875">
        <ele>1184.800048828125</ele>
        <time>2024-10-03T02:16:26.000Z</time>
        <extensions>
          <ns3:TrackPointExtension/>
        </extensions>
      </trkpt>
      <trkpt lat="30.30982495285570621490478515625" lon="119.11137691698968410491943359375">
        <ele>1184.5999755859375</ele>
        <time>2024-10-03T02:16:32.000Z</time>
        <extensions>
          <ns3:TrackPointExtension/>
        </extensions>
      </trkpt>
      <trkpt lat="30.3098739869892597198486328125" lon="119.11148093640804290771484375">
        <ele>1184</ele>
        <time>2024-10-03T02:16:42.000Z</time>
        <extensions>
          <ns3:TrackPointExtension/>
        </extensions>
      </trkpt>
      <trkpt lat="30.30993894673883914947509765625" lon="119.1115659289062023162841796875">
        <ele>1183.800048828125</ele>
        <time>2024-10-03T02:16:50.000Z</time>
        <extensions>
          <ns3:TrackPointExtension/>
        </extensions>
      </trkpt>
      <trkpt lat="30.31001396477222442626953125" lon="119.11164396442472934722900390625">
        <ele>1184.199951171875</ele>
        <time>2024-10-03T02:16:56.000Z</time>
        <extensions>
          <ns3:TrackPointExtension/>
        </extensions>
      </trkpt>
      <trkpt lat="30.3101039864122867584228515625" lon="119.11170297302305698394775390625">
        <ele>1185.5999755859375</ele>
        <time>2024-10-03T02:17:06.000Z</time>
        <extensions>
          <ns3:TrackPointExtension/>
        </extensions>
      </trkpt>
      <trkpt lat="30.3101619891822338104248046875" lon="119.1117959283292293548583984375">
        <ele>1185.4000244140625</ele>
        <time>2024-10-03T02:17:14.000Z</time>
        <extensions>
          <ns3:TrackPointExtension/>
        </extensions>
      </trkpt>
      <trkpt lat="30.31017095781862735748291015625" lon="119.11190598271787166595458984375">
        <ele>1186.4000244140625</ele>
        <time>2024-10-03T02:17:26.000Z</time>
        <extensions>
          <ns3:TrackPointExtension/>
        </extensions>
      </trkpt>
      <trkpt lat="30.310179926455020904541015625" lon="119.11202399991452693939208984375">
        <ele>1187.800048828125</ele>
        <time>2024-10-03T02:17:40.000Z</time>
        <extensions>
          <ns3:TrackPointExtension/>
        </extensions>
      </trkpt>
      <trkpt lat="30.31018696725368499755859375" lon="119.1121439449489116668701171875">
        <ele>1188.199951171875</ele>
        <time>2024-10-03T02:17:50.000Z</time>
        <extensions>
          <ns3:TrackPointExtension/>
        </extensions>
      </trkpt>
      <trkpt lat="30.31022594310343265533447265625" lon="119.11225299350917339324951171875">
        <ele>1187.199951171875</ele>
        <time>2024-10-03T02:18:02.000Z</time>
        <extensions>
          <ns3:TrackPointExtension/>
        </extensions>
      </trkpt>
      <trkpt lat="30.3102649189531803131103515625" lon="119.11236095242202281951904296875">
        <ele>1184.800048828125</ele>
        <time>2024-10-03T02:18:12.000Z</time>
        <extensions>
          <ns3:TrackPointExtension/>
        </extensions>
      </trkpt>
      <trkpt lat="30.31029199250042438507080078125" lon="119.11247394047677516937255859375">
        <ele>1181.5999755859375</ele>
        <time>2024-10-03T02:18:20.000Z</time>
        <extensions>
          <ns3:TrackPointExtension/>
        </extensions>
      </trkpt>
      <trkpt lat="30.310293920338153839111328125" lon="119.11259497515857219696044921875">
        <ele>1179.5999755859375</ele>
        <time>2024-10-03T02:18:30.000Z</time>
        <extensions>
          <ns3:TrackPointExtension/>
        </extensions>
      </trkpt>
      <trkpt lat="30.310294926166534423828125" lon="119.11271399818360805511474609375">
        <ele>1177.800048828125</ele>
        <time>2024-10-03T02:18:40.000Z</time>
        <extensions>
          <ns3:TrackPointExtension/>
        </extensions>
      </trkpt>
      <trkpt lat="30.3102739714086055755615234375" lon="119.11282698623836040496826171875">
        <ele>1175.5999755859375</ele>
        <time>2024-10-03T02:18:50.000Z</time>
        <extensions>
          <ns3:TrackPointExtension/>
        </extensions>
      </trkpt>
      <trkpt lat="30.3102729655802249908447265625" lon="119.1129469312727451324462890625">
        <ele>1174.4000244140625</ele>
        <time>2024-10-03T02:18:58.000Z</time>
        <extensions>
          <ns3:TrackPointExtension/>
        </extensions>
      </trkpt>
      <trkpt lat="30.31028998084366321563720703125" lon="119.1130619309842586517333984375">
        <ele>1173.199951171875</ele>
        <time>2024-10-03T02:19:04.000Z</time>
        <extensions>
          <ns3:TrackPointExtension/>
        </extensions>
      </trkpt>
      <trkpt lat="30.3103029727935791015625" lon="119.11316997371613979339599609375">
        <ele>1170.199951171875</ele>
        <time>2024-10-03T02:19:12.000Z</time>
        <extensions>
          <ns3:TrackPointExtension/>
        </extensions>
      </trkpt>
      <trkpt lat="30.3103259392082691192626953125" lon="119.11326996982097625732421875">
        <ele>1167.4000244140625</ele>
        <time>2024-10-03T02:19:18.000Z</time>
        <extensions>
          <ns3:TrackPointExtension/>
        </extensions>
      </trkpt>
      <trkpt lat="30.3103339858353137969970703125" lon="119.11339896731078624725341796875">
        <ele>1165.5999755859375</ele>
        <time>2024-10-03T02:19:30.000Z</time>
        <extensions>
          <ns3:TrackPointExtension/>
        </extensions>
      </trkpt>
      <trkpt lat="30.31031294725835323333740234375" lon="119.1135299764573574066162109375">
        <ele>1163.5999755859375</ele>
        <time>2024-10-03T02:19:40.000Z</time>
        <extensions>
          <ns3:TrackPointExtension/>
        </extensions>
      </trkpt>
      <trkpt lat="30.31025494448840618133544921875" lon="119.11362896673381328582763671875">
        <ele>1162.199951171875</ele>
        <time>2024-10-03T02:19:48.000Z</time>
        <extensions>
          <ns3:TrackPointExtension/>
        </extensions>
      </trkpt>
      <trkpt lat="30.31022292561829090118408203125" lon="119.1137009672820568084716796875">
        <ele>1159.5999755859375</ele>
        <time>2024-10-03T02:20:00.000Z</time>
        <extensions>
          <ns3:TrackPointExtension/>
        </extensions>
      </trkpt>
      <trkpt lat="30.31019291840493679046630859375" lon="119.113789983093738555908203125">
        <ele>1158.4000244140625</ele>
        <time>2024-10-03T02:20:22.000Z</time>
        <extensions>
          <ns3:TrackPointExtension/>
        </extensions>
      </trkpt>
      <trkpt lat="30.31014698557555675506591796875" lon="119.11388394422829151153564453125">
        <ele>1157.4000244140625</ele>
        <time>2024-10-03T02:20:30.000Z</time>
        <extensions>
          <ns3:TrackPointExtension/>
        </extensions>
      </trkpt>
      <trkpt lat="30.31008697114884853363037109375" lon="119.11396793089807033538818359375">
        <ele>1156.199951171875</ele>
        <time>2024-10-03T02:20:40.000Z</time>
        <extensions>
          <ns3:TrackPointExtension/>
        </extensions>
      </trkpt>
      <trkpt lat="30.31003198586404323577880859375" lon="119.11405895836651325225830078125">
        <ele>1155</ele>
        <time>2024-10-03T02:20:48.000Z</time>
        <extensions>
          <ns3:TrackPointExtension/>
        </extensions>
      </trkpt>
      <trkpt lat="30.30997096560895442962646484375" lon="119.11415099166333675384521484375">
        <ele>1153.4000244140625</ele>
        <time>2024-10-03T02:21:00.000Z</time>
        <extensions>
          <ns3:TrackPointExtension/>
        </extensions>
      </trkpt>
      <trkpt lat="30.3099319897592067718505859375" lon="119.114249981939792633056640625">
        <ele>1152.800048828125</ele>
        <time>2024-10-03T02:21:14.000Z</time>
        <extensions>
          <ns3:TrackPointExtension/>
        </extensions>
      </trkpt>
      <trkpt lat="30.30985697172582149505615234375" lon="119.1143389977514743804931640625">
        <ele>1153</ele>
        <time>2024-10-03T02:21:42.000Z</time>
        <extensions>
          <ns3:TrackPointExtension/>
        </extensions>
      </trkpt>
      <trkpt lat="30.30982897616922855377197265625" lon="119.11443999968469142913818359375">
        <ele>1152</ele>
        <time>2024-10-03T02:21:50.000Z</time>
        <extensions>
          <ns3:TrackPointExtension/>
        </extensions>
      </trkpt>
      <trkpt lat="30.309778936207294464111328125" lon="119.11452398635447025299072265625">
        <ele>1151</ele>
        <time>2024-10-03T02:21:58.000Z</time>
        <extensions>
          <ns3:TrackPointExtension/>
        </extensions>
      </trkpt>
      <trkpt lat="30.30970995314419269561767578125" lon="119.114593975245952606201171875">
        <ele>1150.4000244140625</ele>
        <time>2024-10-03T02:22:04.000Z</time>
        <extensions>
          <ns3:TrackPointExtension/>
        </extensions>
      </trkpt>
      <trkpt lat="30.309670977294445037841796875" lon="119.11468994803726673126220703125">
        <ele>1149.4000244140625</ele>
        <time>2024-10-03T02:22:16.000Z</time>
        <extensions>
          <ns3:TrackPointExtension/>
        </extensions>
      </trkpt>
      <trkpt lat="30.30962294898927211761474609375" lon="119.1147919557988643646240234375">
        <ele>1148.5999755859375</ele>
        <time>2024-10-03T02:22:24.000Z</time>
        <extensions>
          <ns3:TrackPointExtension/>
        </extensions>
      </trkpt>
      <trkpt lat="30.30959093011915683746337890625" lon="119.11483897827565670013427734375">
        <ele>1147.800048828125</ele>
        <time>2024-10-03T02:22:34.000Z</time>
        <extensions>
          <ns3:TrackPointExtension/>
        </extensions>
      </trkpt>
      <trkpt lat="30.3095299936830997467041015625" lon="119.11492195911705493927001953125">
        <ele>1147.5999755859375</ele>
        <time>2024-10-03T02:22:58.000Z</time>
        <extensions>
          <ns3:TrackPointExtension/>
        </extensions>
      </trkpt>
      <trkpt lat="30.3094689734280109405517578125" lon="119.11500695161521434783935546875">
        <ele>1147</ele>
        <time>2024-10-03T02:23:06.000Z</time>
        <extensions>
          <ns3:TrackPointExtension/>
        </extensions>
      </trkpt>
      <trkpt lat="30.30939093790948390960693359375" lon="119.1150799579918384552001953125">
        <ele>1145.199951171875</ele>
        <time>2024-10-03T02:23:16.000Z</time>
        <extensions>
          <ns3:TrackPointExtension/>
        </extensions>
      </trkpt>
      <trkpt lat="30.30931198038160800933837890625" lon="119.11515296436846256256103515625">
        <ele>1144</ele>
        <time>2024-10-03T02:23:24.000Z</time>
        <extensions>
          <ns3:TrackPointExtension/>
        </extensions>
      </trkpt>
      <trkpt lat="30.30921894125640392303466796875" lon="119.11521096713840961456298828125">
        <ele>1143.199951171875</ele>
        <time>2024-10-03T02:23:32.000Z</time>
        <extensions>
          <ns3:TrackPointExtension/>
        </extensions>
      </trkpt>
      <trkpt lat="30.309151969850063323974609375" lon="119.1153089515864849090576171875">
        <ele>1142.4000244140625</ele>
        <time>2024-10-03T02:23:42.000Z</time>
        <extensions>
          <ns3:TrackPointExtension/>
        </extensions>
      </trkpt>
      <trkpt lat="30.3090919554233551025390625" lon="119.11541196517646312713623046875">
        <ele>1142.4000244140625</ele>
        <time>2024-10-03T02:23:50.000Z</time>
        <extensions>
          <ns3:TrackPointExtension/>
        </extensions>
      </trkpt>
      <trkpt lat="30.30901794321835041046142578125" lon="119.11549595184624195098876953125">
        <ele>1142.4000244140625</ele>
        <time>2024-10-03T02:24:02.000Z</time>
        <extensions>
          <ns3:TrackPointExtension/>
        </extensions>
      </trkpt>
      <trkpt lat="30.30893194489181041717529296875" lon="119.11554993130266666412353515625">
        <ele>1141.199951171875</ele>
        <time>2024-10-03T02:24:12.000Z</time>
        <extensions>
          <ns3:TrackPointExtension/>
        </extensions>
      </trkpt>
      <trkpt lat="30.30884996987879276275634765625" lon="119.11560793407261371612548828125">
        <ele>1138.800048828125</ele>
        <time>2024-10-03T02:24:24.000Z</time>
        <extensions>
          <ns3:TrackPointExtension/>
        </extensions>
      </trkpt>
      <trkpt lat="30.3087689168751239776611328125" lon="119.11566694267094135284423828125">
        <ele>1136.800048828125</ele>
        <time>2024-10-03T02:24:34.000Z</time>
        <extensions>
          <ns3:TrackPointExtension/>
        </extensions>
      </trkpt>
      <trkpt lat="30.30867696739733219146728515625" lon="119.1157169826328754425048828125">
        <ele>1136</ele>
        <time>2024-10-03T02:24:44.000Z</time>
        <extensions>
          <ns3:TrackPointExtension/>
        </extensions>
      </trkpt>
      <trkpt lat="30.3085969202220439910888671875" lon="119.11579099483788013458251953125">
        <ele>1135.4000244140625</ele>
        <time>2024-10-03T02:24:54.000Z</time>
        <extensions>
          <ns3:TrackPointExtension/>
        </extensions>
      </trkpt>
      <trkpt lat="30.30851192772388458251953125" lon="119.11584296263754367828369140625">
        <ele>1134.4000244140625</ele>
        <time>2024-10-03T02:25:00.000Z</time>
        <extensions>
          <ns3:TrackPointExtension/>
        </extensions>
      </trkpt>
      <trkpt lat="30.30841897241771221160888671875" lon="119.11583994515240192413330078125">
        <ele>1133.800048828125</ele>
        <time>2024-10-03T02:25:06.000Z</time>
        <extensions>
          <ns3:TrackPointExtension/>
        </extensions>
      </trkpt>
      <trkpt lat="30.30832794494926929473876953125" lon="119.11580993793904781341552734375">
        <ele>1134</ele>
        <time>2024-10-03T02:25:14.000Z</time>
        <extensions>
          <ns3:TrackPointExtension/>
        </extensions>
      </trkpt>
      <trkpt lat="30.3082309663295745849609375" lon="119.1157729737460613250732421875">
        <ele>1134.4000244140625</ele>
        <time>2024-10-03T02:25:24.000Z</time>
        <extensions>
          <ns3:TrackPointExtension/>
        </extensions>
      </trkpt>
      <trkpt lat="30.30812292359769344329833984375" lon="119.11575696431100368499755859375">
        <ele>1134.5999755859375</ele>
        <time>2024-10-03T02:25:32.000Z</time>
        <extensions>
          <ns3:TrackPointExtension/>
        </extensions>
      </trkpt>
      <trkpt lat="30.30800792388617992401123046875" lon="119.1157059185206890106201171875">
        <ele>1134</ele>
        <time>2024-10-03T02:25:40.000Z</time>
        <extensions>
          <ns3:TrackPointExtension/>
        </extensions>
      </trkpt>
      <trkpt lat="30.3079089336097240447998046875" lon="119.115684963762760162353515625">
        <ele>1133.4000244140625</ele>
        <time>2024-10-03T02:25:50.000Z</time>
        <extensions>
          <ns3:TrackPointExtension/>
        </extensions>
      </trkpt>
      <trkpt lat="30.30780893750488758087158203125" lon="119.11569694988429546356201171875">
        <ele>1132.5999755859375</ele>
        <time>2024-10-03T02:26:02.000Z</time>
        <extensions>
          <ns3:TrackPointExtension/>
        </extensions>
      </trkpt>
      <trkpt lat="30.30772193334996700286865234375" lon="119.11575595848262310028076171875">
        <ele>1131.5999755859375</ele>
        <time>2024-10-03T02:26:12.000Z</time>
        <extensions>
          <ns3:TrackPointExtension/>
        </extensions>
      </trkpt>
      <trkpt lat="30.3076889924705028533935546875" lon="119.11578797735273838043212890625">
        <ele>1130.199951171875</ele>
        <time>2024-10-03T02:26:22.000Z</time>
        <extensions>
          <ns3:TrackPointExtension/>
        </extensions>
      </trkpt>
      <trkpt lat="30.30763593502342700958251953125" lon="119.115851931273937225341796875">
        <ele>1128.800048828125</ele>
        <time>2024-10-03T02:26:54.000Z</time>
        <extensions>
          <ns3:TrackPointExtension/>
        </extensions>
      </trkpt>
      <trkpt lat="30.3075639344751834869384765625" lon="119.1159399412572383880615234375">
        <ele>1128.199951171875</ele>
        <time>2024-10-03T02:27:04.000Z</time>
        <extensions>
          <ns3:TrackPointExtension/>
        </extensions>
      </trkpt>
      <trkpt lat="30.3074799478054046630859375" lon="119.1160029731690883636474609375">
        <ele>1126.4000244140625</ele>
        <time>2024-10-03T02:27:10.000Z</time>
        <extensions>
          <ns3:TrackPointExtension/>
        </extensions>
      </trkpt>
      <trkpt lat="30.30741892755031585693359375" lon="119.11604396067559719085693359375">
        <ele>1125.4000244140625</ele>
        <time>2024-10-03T02:27:26.000Z</time>
        <extensions>
          <ns3:TrackPointExtension/>
        </extensions>
      </trkpt>
      <trkpt lat="30.30737492255866527557373046875" lon="119.11598193459212779998779296875">
        <ele>1123.5999755859375</ele>
        <time>2024-10-03T02:27:48.000Z</time>
        <extensions>
          <ns3:TrackPointExtension/>
        </extensions>
      </trkpt>
      <trkpt lat="30.30738095752894878387451171875" lon="119.116032980382442474365234375">
        <ele>1122</ele>
        <time>2024-10-03T02:28:10.000Z</time>
        <extensions>
          <ns3:TrackPointExtension/>
        </extensions>
      </trkpt>
      <trkpt lat="30.30743493698537349700927734375" lon="119.11615493707358837127685546875">
        <ele>1122.5999755859375</ele>
        <time>2024-10-03T02:35:02.000Z</time>
        <extensions>
          <ns3:TrackPointExtension/>
        </extensions>
      </trkpt>
      <trkpt lat="30.30746796168386936187744140625" lon="119.11626197397708892822265625">
        <ele>1120</ele>
        <time>2024-10-03T02:35:08.000Z</time>
        <extensions>
          <ns3:TrackPointExtension/>
        </extensions>
      </trkpt>
      <trkpt lat="30.3075139783322811126708984375" lon="119.11637999117374420166015625">
        <ele>1119</ele>
        <time>2024-10-03T02:35:16.000Z</time>
        <extensions>
          <ns3:TrackPointExtension/>
        </extensions>
      </trkpt>
      <trkpt lat="30.30758597888052463531494140625" lon="119.1164569370448589324951171875">
        <ele>1118.4000244140625</ele>
        <time>2024-10-03T02:35:28.000Z</time>
        <extensions>
          <ns3:TrackPointExtension/>
        </extensions>
      </trkpt>
      <trkpt lat="30.30757994391024112701416015625" lon="119.11655995063483715057373046875">
        <ele>1118</ele>
        <time>2024-10-03T02:35:38.000Z</time>
        <extensions>
          <ns3:TrackPointExtension/>
        </extensions>
      </trkpt>
      <trkpt lat="30.3075679577887058258056640625" lon="119.11668098531663417816162109375">
        <ele>1117.800048828125</ele>
        <time>2024-10-03T02:35:46.000Z</time>
        <extensions>
          <ns3:TrackPointExtension/>
        </extensions>
      </trkpt>
      <trkpt lat="30.30755697749555110931396484375" lon="119.11679497919976711273193359375">
        <ele>1117.4000244140625</ele>
        <time>2024-10-03T02:35:52.000Z</time>
        <extensions>
          <ns3:TrackPointExtension/>
        </extensions>
      </trkpt>
      <trkpt lat="30.30755396001040935516357421875" lon="119.1169249825179576873779296875">
        <ele>1116.4000244140625</ele>
        <time>2024-10-03T02:36:04.000Z</time>
        <extensions>
          <ns3:TrackPointExtension/>
        </extensions>
      </trkpt>
      <trkpt lat="30.3075159899890422821044921875" lon="119.11702799610793590545654296875">
        <ele>1115.5999755859375</ele>
        <time>2024-10-03T02:36:10.000Z</time>
        <extensions>
          <ns3:TrackPointExtension/>
        </extensions>
      </trkpt>
      <trkpt lat="30.30753292143344879150390625" lon="119.11713696084916591644287109375">
        <ele>1115.4000244140625</ele>
        <time>2024-10-03T02:36:30.000Z</time>
        <extensions>
          <ns3:TrackPointExtension/>
        </extensions>
      </trkpt>
      <trkpt lat="30.3075649403035640716552734375" lon="119.11725799553096294403076171875">
        <ele>1116.4000244140625</ele>
        <time>2024-10-03T02:36:40.000Z</time>
        <extensions>
          <ns3:TrackPointExtension/>
        </extensions>
      </trkpt>
      <trkpt lat="30.30758195556700229644775390625" lon="119.1173839755356311798095703125">
        <ele>1115.5999755859375</ele>
        <time>2024-10-03T02:36:52.000Z</time>
        <extensions>
          <ns3:TrackPointExtension/>
        </extensions>
      </trkpt>
      <trkpt lat="30.307541973888874053955078125" lon="119.11747793667018413543701171875">
        <ele>1114.4000244140625</ele>
        <time>2024-10-03T02:37:14.000Z</time>
        <extensions>
          <ns3:TrackPointExtension/>
        </extensions>
      </trkpt>
      <trkpt lat="30.30748992227017879486083984375" lon="119.11756896413862705230712890625">
        <ele>1113.800048828125</ele>
        <time>2024-10-03T02:37:22.000Z</time>
        <extensions>
          <ns3:TrackPointExtension/>
        </extensions>
      </trkpt>
      <trkpt lat="30.30747399665415287017822265625" lon="119.11768094636499881744384765625">
        <ele>1114</ele>
        <time>2024-10-03T02:37:40.000Z</time>
        <extensions>
          <ns3:TrackPointExtension/>
        </extensions>
      </trkpt>
      <trkpt lat="30.30743896029889583587646484375" lon="119.11780298687517642974853515625">
        <ele>1114.199951171875</ele>
        <time>2024-10-03T02:37:48.000Z</time>
        <extensions>
          <ns3:TrackPointExtension/>
        </extensions>
      </trkpt>
      <trkpt lat="30.30742295086383819580078125" lon="119.117929972708225250244140625">
        <ele>1114.199951171875</ele>
        <time>2024-10-03T02:37:58.000Z</time>
        <extensions>
          <ns3:TrackPointExtension/>
        </extensions>
      </trkpt>
      <trkpt lat="30.30740593560039997100830078125" lon="119.11805494688451290130615234375">
        <ele>1114.4000244140625</ele>
        <time>2024-10-03T02:38:06.000Z</time>
        <extensions>
          <ns3:TrackPointExtension/>
        </extensions>
      </trkpt>
      <trkpt lat="30.30740995891392230987548828125" lon="119.11817899905145168304443359375">
        <ele>1114.5999755859375</ele>
        <time>2024-10-03T02:38:16.000Z</time>
        <extensions>
          <ns3:TrackPointExtension/>
        </extensions>
      </trkpt>
      <trkpt lat="30.30741197057068347930908203125" lon="119.1182989440858364105224609375">
        <ele>1114.5999755859375</ele>
        <time>2024-10-03T02:38:26.000Z</time>
        <extensions>
          <ns3:TrackPointExtension/>
        </extensions>
      </trkpt>
      <trkpt lat="30.30738296918570995330810546875" lon="119.11840698681771755218505859375">
        <ele>1115.4000244140625</ele>
        <time>2024-10-03T02:38:34.000Z</time>
        <extensions>
          <ns3:TrackPointExtension/>
        </extensions>
      </trkpt>
      <trkpt lat="30.30735597945749759674072265625" lon="119.1185269318521022796630859375">
        <ele>1116.4000244140625</ele>
        <time>2024-10-03T02:38:42.000Z</time>
        <extensions>
          <ns3:TrackPointExtension/>
        </extensions>
      </trkpt>
      <trkpt lat="30.3073359467089176177978515625" lon="119.1186519898474216461181640625">
        <ele>1117</ele>
        <time>2024-10-03T02:38:52.000Z</time>
        <extensions>
          <ns3:TrackPointExtension/>
        </extensions>
      </trkpt>
      <trkpt lat="30.30734893865883350372314453125" lon="119.11877998150885105133056640625">
        <ele>1116.199951171875</ele>
        <time>2024-10-03T02:39:02.000Z</time>
        <extensions>
          <ns3:TrackPointExtension/>
        </extensions>
      </trkpt>
      <trkpt lat="30.3073619306087493896484375" lon="119.11880093626677989959716796875">
        <ele>1116</ele>
        <time>2024-10-03T02:39:14.000Z</time>
        <extensions>
          <ns3:TrackPointExtension/>
        </extensions>
      </trkpt>
      <trkpt lat="30.30735195614397525787353515625" lon="119.1188829950988292694091796875">
        <ele>1115.5999755859375</ele>
        <time>2024-10-03T02:41:00.000Z</time>
        <extensions>
          <ns3:TrackPointExtension/>
        </extensions>
      </trkpt>
      <trkpt lat="30.30743795447051525115966796875" lon="119.11891694180667400360107421875">
        <ele>1117.199951171875</ele>
        <time>2024-10-03T02:41:12.000Z</time>
        <extensions>
          <ns3:TrackPointExtension/>
        </extensions>
      </trkpt>
      <trkpt lat="30.3075079433619976043701171875" lon="119.1189849190413951873779296875">
        <ele>1119.199951171875</ele>
        <time>2024-10-03T02:41:36.000Z</time>
        <extensions>
          <ns3:TrackPointExtension/>
        </extensions>
      </trkpt>
      <trkpt lat="30.307600982487201690673828125" lon="119.11902892403304576873779296875">
        <ele>1119.800048828125</ele>
        <time>2024-10-03T02:41:50.000Z</time>
        <extensions>
          <ns3:TrackPointExtension/>
        </extensions>
      </trkpt>
      <trkpt lat="30.30769695527851581573486328125" lon="119.1190459392964839935302734375">
        <ele>1119.5999755859375</ele>
        <time>2024-10-03T02:42:10.000Z</time>
        <extensions>
          <ns3:TrackPointExtension/>
        </extensions>
      </trkpt>
      <trkpt lat="30.3077959455549716949462890625" lon="119.1190549917519092559814453125">
        <ele>1118.800048828125</ele>
        <time>2024-10-03T02:42:20.000Z</time>
        <extensions>
          <ns3:TrackPointExtension/>
        </extensions>
      </trkpt>
      <trkpt lat="30.30789996497333049774169921875" lon="119.11906094290316104888916015625">
        <ele>1117.199951171875</ele>
        <time>2024-10-03T02:42:30.000Z</time>
        <extensions>
          <ns3:TrackPointExtension/>
        </extensions>
      </trkpt>
      <trkpt lat="30.3078539483249187469482421875" lon="119.11906194873154163360595703125">
        <ele>1115.4000244140625</ele>
        <time>2024-10-03T02:42:48.000Z</time>
        <extensions>
          <ns3:TrackPointExtension/>
        </extensions>
      </trkpt>
      <trkpt lat="30.3077389486134052276611328125" lon="119.1190429218113422393798828125">
        <ele>1116.5999755859375</ele>
        <time>2024-10-03T02:42:58.000Z</time>
        <extensions>
          <ns3:TrackPointExtension/>
        </extensions>
      </trkpt>
      <trkpt lat="30.30766895972192287445068359375" lon="119.119023978710174560546875">
        <ele>1118</ele>
        <time>2024-10-03T02:43:08.000Z</time>
        <extensions>
          <ns3:TrackPointExtension/>
        </extensions>
      </trkpt>
      <trkpt lat="30.30763392336666584014892578125" lon="119.1191059537231922149658203125">
        <ele>1118.800048828125</ele>
        <time>2024-10-03T02:43:24.000Z</time>
        <extensions>
          <ns3:TrackPointExtension/>
        </extensions>
      </trkpt>
      <trkpt lat="30.30763392336666584014892578125" lon="119.1192259825766086578369140625">
        <ele>1119</ele>
        <time>2024-10-03T02:43:36.000Z</time>
        <extensions>
          <ns3:TrackPointExtension/>
        </extensions>
      </trkpt>
      <trkpt lat="30.30764096416532993316650390625" lon="119.11935498006641864776611328125">
        <ele>1119.800048828125</ele>
        <time>2024-10-03T02:43:44.000Z</time>
        <extensions>
          <ns3:TrackPointExtension/>
        </extensions>
      </trkpt>
      <trkpt lat="30.30764398165047168731689453125" lon="119.11948196589946746826171875">
        <ele>1120.4000244140625</ele>
        <time>2024-10-03T02:43:52.000Z</time>
        <extensions>
          <ns3:TrackPointExtension/>
        </extensions>
      </trkpt>
      <trkpt lat="30.30764699913561344146728515625" lon="119.11960492841899394989013671875">
        <ele>1120.5999755859375</ele>
        <time>2024-10-03T02:44:00.000Z</time>
        <extensions>
          <ns3:TrackPointExtension/>
        </extensions>
      </trkpt>
      <trkpt lat="30.307657979428768157958984375" lon="119.11972596310079097747802734375">
        <ele>1120.800048828125</ele>
        <time>2024-10-03T02:44:08.000Z</time>
        <extensions>
          <ns3:TrackPointExtension/>
        </extensions>
      </trkpt>
      <trkpt lat="30.30765093863010406494140625" lon="119.11984498612582683563232421875">
        <ele>1120.4000244140625</ele>
        <time>2024-10-03T02:44:16.000Z</time>
        <extensions>
          <ns3:TrackPointExtension/>
        </extensions>
      </trkpt>
      <trkpt lat="30.30763995833694934844970703125" lon="119.11995696835219860076904296875">
        <ele>1120</ele>
        <time>2024-10-03T02:44:24.000Z</time>
        <extensions>
          <ns3:TrackPointExtension/>
        </extensions>
      </trkpt>
      <trkpt lat="30.30763593502342700958251953125" lon="119.1200779192149639129638671875">
        <ele>1119.4000244140625</ele>
        <time>2024-10-03T02:44:34.000Z</time>
        <extensions>
          <ns3:TrackPointExtension/>
        </extensions>
      </trkpt>
      <trkpt lat="30.30761196278035640716552734375" lon="119.12018998526036739349365234375">
        <ele>1118.800048828125</ele>
        <time>2024-10-03T02:44:42.000Z</time>
        <extensions>
          <ns3:TrackPointExtension/>
        </extensions>
      </trkpt>
      <trkpt lat="30.3076849691569805145263671875" lon="119.120221920311450958251953125">
        <ele>1117.199951171875</ele>
        <time>2024-10-03T02:44:58.000Z</time>
        <extensions>
          <ns3:TrackPointExtension/>
        </extensions>
      </trkpt>
      <trkpt lat="30.30777893029153347015380859375" lon="119.12024195306003093719482421875">
        <ele>1115.5999755859375</ele>
        <time>2024-10-03T02:45:06.000Z</time>
        <extensions>
          <ns3:TrackPointExtension/>
        </extensions>
      </trkpt>
      <trkpt lat="30.307881943881511688232421875" lon="119.12024698220193386077880859375">
        <ele>1114.4000244140625</ele>
        <time>2024-10-03T02:45:14.000Z</time>
        <extensions>
          <ns3:TrackPointExtension/>
        </extensions>
      </trkpt>
      <trkpt lat="30.30798495747148990631103515625" lon="119.120284952223300933837890625">
        <ele>1113.199951171875</ele>
        <time>2024-10-03T02:45:22.000Z</time>
        <extensions>
          <ns3:TrackPointExtension/>
        </extensions>
      </trkpt>
      <trkpt lat="30.30807397328317165374755859375" lon="119.12035192362964153289794921875">
        <ele>1112.199951171875</ele>
        <time>2024-10-03T02:45:30.000Z</time>
        <extensions>
          <ns3:TrackPointExtension/>
        </extensions>
      </trkpt>
      <trkpt lat="30.3081419505178928375244140625" lon="119.1204299591481685638427734375">
        <ele>1111.5999755859375</ele>
        <time>2024-10-03T02:45:38.000Z</time>
        <extensions>
          <ns3:TrackPointExtension/>
        </extensions>
      </trkpt>
      <trkpt lat="30.30821294523775577545166015625" lon="119.12051998078823089599609375">
        <ele>1111</ele>
        <time>2024-10-03T02:45:46.000Z</time>
        <extensions>
          <ns3:TrackPointExtension/>
        </extensions>
      </trkpt>
      <trkpt lat="30.30827195383608341217041015625" lon="119.120634980499744415283203125">
        <ele>1111</ele>
        <time>2024-10-03T02:45:54.000Z</time>
        <extensions>
          <ns3:TrackPointExtension/>
        </extensions>
      </trkpt>
      <trkpt lat="30.30833599157631397247314453125" lon="119.120745956897735595703125">
        <ele>1112.5999755859375</ele>
        <time>2024-10-03T02:46:02.000Z</time>
        <extensions>
          <ns3:TrackPointExtension/>
        </extensions>
      </trkpt>
      <trkpt lat="30.3083799965679645538330078125" lon="119.12085198797285556793212890625">
        <ele>1115</ele>
        <time>2024-10-03T02:46:12.000Z</time>
        <extensions>
          <ns3:TrackPointExtension/>
        </extensions>
      </trkpt>
      <trkpt lat="30.3083699382841587066650390625" lon="119.12096195854246616363525390625">
        <ele>1116</ele>
        <time>2024-10-03T02:46:22.000Z</time>
        <extensions>
          <ns3:TrackPointExtension/>
        </extensions>
      </trkpt>
      <trkpt lat="30.30832492746412754058837890625" lon="119.12107192911207675933837890625">
        <ele>1116</ele>
        <time>2024-10-03T02:46:26.000Z</time>
        <extensions>
          <ns3:TrackPointExtension/>
        </extensions>
      </trkpt>
      <trkpt lat="30.30827698297798633575439453125" lon="119.1211759485304355621337890625">
        <ele>1115.5999755859375</ele>
        <time>2024-10-03T02:46:34.000Z</time>
        <extensions>
          <ns3:TrackPointExtension/>
        </extensions>
      </trkpt>
      <trkpt lat="30.308233983814716339111328125" lon="119.12128097377717494964599609375">
        <ele>1115</ele>
        <time>2024-10-03T02:46:40.000Z</time>
        <extensions>
          <ns3:TrackPointExtension/>
        </extensions>
      </trkpt>
      <trkpt lat="30.30827195383608341217041015625" lon="119.12136596627533435821533203125">
        <ele>1114.800048828125</ele>
        <time>2024-10-03T02:46:48.000Z</time>
        <extensions>
          <ns3:TrackPointExtension/>
        </extensions>
      </trkpt>
      <trkpt lat="30.3083769790828227996826171875" lon="119.1214129887521266937255859375">
        <ele>1115.4000244140625</ele>
        <time>2024-10-03T02:46:54.000Z</time>
        <extensions>
          <ns3:TrackPointExtension/>
        </extensions>
      </trkpt>
      <trkpt lat="30.3084869496524333953857421875" lon="119.12147291935980319976806640625">
        <ele>1118.800048828125</ele>
        <time>2024-10-03T02:47:06.000Z</time>
        <extensions>
          <ns3:TrackPointExtension/>
        </extensions>
      </trkpt>
      <trkpt lat="30.308571942150592803955078125" lon="119.12155397236347198486328125">
        <ele>1122.199951171875</ele>
        <time>2024-10-03T02:47:14.000Z</time>
        <extensions>
          <ns3:TrackPointExtension/>
        </extensions>
      </trkpt>
      <trkpt lat="30.3086569346487522125244140625" lon="119.1216399706900119781494140625">
        <ele>1123.199951171875</ele>
        <time>2024-10-03T02:47:20.000Z</time>
        <extensions>
          <ns3:TrackPointExtension/>
        </extensions>
      </trkpt>
      <trkpt lat="30.308740921318531036376953125" lon="119.1216989792883396148681640625">
        <ele>1122.5999755859375</ele>
        <time>2024-10-03T02:47:30.000Z</time>
        <extensions>
          <ns3:TrackPointExtension/>
        </extensions>
      </trkpt>
      <trkpt lat="30.30881099402904510498046875" lon="119.12177198566496372222900390625">
        <ele>1122</ele>
        <time>2024-10-03T02:47:36.000Z</time>
        <extensions>
          <ns3:TrackPointExtension/>
        </extensions>
      </trkpt>
      <trkpt lat="30.30887796543538570404052734375" lon="119.12184993736445903778076171875">
        <ele>1121.800048828125</ele>
        <time>2024-10-03T02:47:46.000Z</time>
        <extensions>
          <ns3:TrackPointExtension/>
        </extensions>
      </trkpt>
      <trkpt lat="30.30892892740666866302490234375" lon="119.12194498814642429351806640625">
        <ele>1121.4000244140625</ele>
        <time>2024-10-03T02:47:56.000Z</time>
        <extensions>
          <ns3:TrackPointExtension/>
        </extensions>
      </trkpt>
      <trkpt lat="30.30895692296326160430908203125" lon="119.1220469959080219268798828125">
        <ele>1121.4000244140625</ele>
        <time>2024-10-03T02:48:02.000Z</time>
        <extensions>
          <ns3:TrackPointExtension/>
        </extensions>
      </trkpt>
      <trkpt lat="30.308976955711841583251953125" lon="119.12211094982922077178955078125">
        <ele>1122</ele>
        <time>2024-10-03T02:48:14.000Z</time>
        <extensions>
          <ns3:TrackPointExtension/>
        </extensions>
      </trkpt>
      <trkpt lat="30.3089469484984874725341796875" lon="119.12199293263256549835205078125">
        <ele>1121.800048828125</ele>
        <time>2024-10-03T02:49:58.000Z</time>
        <extensions>
          <ns3:TrackPointExtension/>
        </extensions>
      </trkpt>
      <trkpt lat="30.3088899515569210052490234375" lon="119.12189193069934844970703125">
        <ele>1122</ele>
        <time>2024-10-03T02:50:12.000Z</time>
        <extensions>
          <ns3:TrackPointExtension/>
        </extensions>
      </trkpt>
      <trkpt lat="30.30881795100867748260498046875" lon="119.12180299870669841766357421875">
        <ele>1122.800048828125</ele>
        <time>2024-10-03T02:50:54.000Z</time>
        <extensions>
          <ns3:TrackPointExtension/>
        </extensions>
      </trkpt>
      <trkpt lat="30.30873999930918216705322265625" lon="119.12171297706663608551025390625">
        <ele>1124.5999755859375</ele>
        <time>2024-10-03T02:51:16.000Z</time>
        <extensions>
          <ns3:TrackPointExtension/>
        </extensions>
      </trkpt>
      <trkpt lat="30.30865198932588100433349609375" lon="119.12166394293308258056640625">
        <ele>1125.800048828125</ele>
        <time>2024-10-03T02:51:58.000Z</time>
        <extensions>
          <ns3:TrackPointExtension/>
        </extensions>
      </trkpt>
      <trkpt lat="30.30858795158565044403076171875" lon="119.1215779446065425872802734375">
        <ele>1125</ele>
        <time>2024-10-03T02:52:14.000Z</time>
        <extensions>
          <ns3:TrackPointExtension/>
        </extensions>
      </trkpt>
      <trkpt lat="30.3085179626941680908203125" lon="119.121499992907047271728515625">
        <ele>1124.199951171875</ele>
        <time>2024-10-03T02:52:28.000Z</time>
        <extensions>
          <ns3:TrackPointExtension/>
        </extensions>
      </trkpt>
      <trkpt lat="30.3084289468824863433837890625" lon="119.12142698653042316436767578125">
        <ele>1124.5999755859375</ele>
        <time>2024-10-03T02:52:40.000Z</time>
        <extensions>
          <ns3:TrackPointExtension/>
        </extensions>
      </trkpt>
      <trkpt lat="30.30833498574793338775634765625" lon="119.121375940740108489990234375">
        <ele>1124.4000244140625</ele>
        <time>2024-10-03T02:52:54.000Z</time>
        <extensions>
          <ns3:TrackPointExtension/>
        </extensions>
      </trkpt>
      <trkpt lat="30.3082529269158840179443359375" lon="119.12132196128368377685546875">
        <ele>1123.5999755859375</ele>
        <time>2024-10-03T02:53:02.000Z</time>
        <extensions>
          <ns3:TrackPointExtension/>
        </extensions>
      </trkpt>
      <trkpt lat="30.3082019649446010589599609375" lon="119.1212329454720020294189453125">
        <ele>1124</ele>
        <time>2024-10-03T02:53:48.000Z</time>
        <extensions>
          <ns3:TrackPointExtension/>
        </extensions>
      </trkpt>
      <trkpt lat="30.3082309663295745849609375" lon="119.1211259923875331878662109375">
        <ele>1123.199951171875</ele>
        <time>2024-10-03T02:53:58.000Z</time>
        <extensions>
          <ns3:TrackPointExtension/>
        </extensions>
      </trkpt>
      <trkpt lat="30.308282934129238128662109375" lon="119.12102297879755496978759765625">
        <ele>1121.800048828125</ele>
        <time>2024-10-03T02:54:14.000Z</time>
        <extensions>
          <ns3:TrackPointExtension/>
        </extensions>
      </trkpt>
      <trkpt lat="30.30832593329250812530517578125" lon="119.12091099657118320465087890625">
        <ele>1120.5999755859375</ele>
        <time>2024-10-03T02:55:10.000Z</time>
        <extensions>
          <ns3:TrackPointExtension/>
        </extensions>
      </trkpt>
      <trkpt lat="30.30835996381938457489013671875" lon="119.120805971324443817138671875">
        <ele>1119.5999755859375</ele>
        <time>2024-10-03T02:55:20.000Z</time>
        <extensions>
          <ns3:TrackPointExtension/>
        </extensions>
      </trkpt>
      <trkpt lat="30.30836298130452632904052734375" lon="119.1207779757678508758544921875">
        <ele>1119.199951171875</ele>
        <time>2024-10-03T02:55:30.000Z</time>
        <extensions>
          <ns3:TrackPointExtension/>
        </extensions>
      </trkpt>
      <trkpt lat="30.30828796327114105224609375" lon="119.120748974382877349853515625">
        <ele>1119.199951171875</ele>
        <time>2024-10-03T02:56:26.000Z</time>
        <extensions>
          <ns3:TrackPointExtension/>
        </extensions>
      </trkpt>
      <trkpt lat="30.30827991664409637451171875" lon="119.1206599585711956024169921875">
        <ele>1120.800048828125</ele>
        <time>2024-10-03T02:58:20.000Z</time>
        <extensions>
          <ns3:TrackPointExtension/>
        </extensions>
      </trkpt>
      <trkpt lat="30.30824194662272930145263671875" lon="119.1205469705164432525634765625">
        <ele>1120.5999755859375</ele>
        <time>2024-10-03T02:58:30.000Z</time>
        <extensions>
          <ns3:TrackPointExtension/>
        </extensions>
      </trkpt>
      <trkpt lat="30.30819199047982692718505859375" lon="119.12044999189674854278564453125">
        <ele>1120.4000244140625</ele>
        <time>2024-10-03T02:58:38.000Z</time>
        <extensions>
          <ns3:TrackPointExtension/>
        </extensions>
      </trkpt>
      <trkpt lat="30.30812493525445461273193359375" lon="119.1203789971768856048583984375">
        <ele>1120.4000244140625</ele>
        <time>2024-10-03T02:58:46.000Z</time>
        <extensions>
          <ns3:TrackPointExtension/>
        </extensions>
      </trkpt>
      <trkpt lat="30.30804497189819812774658203125" lon="119.1203089244663715362548828125">
        <ele>1120.199951171875</ele>
        <time>2024-10-03T02:58:56.000Z</time>
        <extensions>
          <ns3:TrackPointExtension/>
        </extensions>
      </trkpt>
      <trkpt lat="30.307944975793361663818359375" lon="119.12023692391812801361083984375">
        <ele>1121.199951171875</ele>
        <time>2024-10-03T02:59:08.000Z</time>
        <extensions>
          <ns3:TrackPointExtension/>
        </extensions>
      </trkpt>
      <trkpt lat="30.30784397386014461517333984375" lon="119.12022493779659271240234375">
        <ele>1121.5999755859375</ele>
        <time>2024-10-03T02:59:20.000Z</time>
        <extensions>
          <ns3:TrackPointExtension/>
        </extensions>
      </trkpt>
      <trkpt lat="30.3077469952404499053955078125" lon="119.12020691670477390289306640625">
        <ele>1121.4000244140625</ele>
        <time>2024-10-03T02:59:34.000Z</time>
        <extensions>
          <ns3:TrackPointExtension/>
        </extensions>
      </trkpt>
      <trkpt lat="30.307652950286865234375" lon="119.12021496333181858062744140625">
        <ele>1120.800048828125</ele>
        <time>2024-10-03T02:59:50.000Z</time>
        <extensions>
          <ns3:TrackPointExtension/>
        </extensions>
      </trkpt>
      <trkpt lat="30.30757994391024112701416015625" lon="119.1201679408550262451171875">
        <ele>1121.4000244140625</ele>
        <time>2024-10-03T03:00:00.000Z</time>
        <extensions>
          <ns3:TrackPointExtension/>
        </extensions>
      </trkpt>
      <trkpt lat="30.30758698470890522003173828125" lon="119.12007096223533153533935546875">
        <ele>1121</ele>
        <time>2024-10-03T03:00:12.000Z</time>
        <extensions>
          <ns3:TrackPointExtension/>
        </extensions>
      </trkpt>
      <trkpt lat="30.30758396722376346588134765625" lon="119.11996099166572093963623046875">
        <ele>1120</ele>
        <time>2024-10-03T03:00:34.000Z</time>
        <extensions>
          <ns3:TrackPointExtension/>
        </extensions>
      </trkpt>
      <trkpt lat="30.307602994143962860107421875" lon="119.1198519431054592132568359375">
        <ele>1118.5999755859375</ele>
        <time>2024-10-03T03:00:46.000Z</time>
        <extensions>
          <ns3:TrackPointExtension/>
        </extensions>
      </trkpt>
      <trkpt lat="30.30761397443711757659912109375" lon="119.11972395144402980804443359375">
        <ele>1117.5999755859375</ele>
        <time>2024-10-03T03:01:00.000Z</time>
        <extensions>
          <ns3:TrackPointExtension/>
        </extensions>
      </trkpt>
      <trkpt lat="30.30761296860873699188232421875" lon="119.1196019947528839111328125">
        <ele>1117.4000244140625</ele>
        <time>2024-10-03T03:01:14.000Z</time>
        <extensions>
          <ns3:TrackPointExtension/>
        </extensions>
      </trkpt>
      <trkpt lat="30.30755194835364818572998046875" lon="119.1195079497992992401123046875">
        <ele>1117.800048828125</ele>
        <time>2024-10-03T03:05:06.000Z</time>
        <extensions>
          <ns3:TrackPointExtension/>
        </extensions>
      </trkpt>
      <trkpt lat="30.30746796168386936187744140625" lon="119.11954793147742748260498046875">
        <ele>1118.800048828125</ele>
        <time>2024-10-03T03:05:22.000Z</time>
        <extensions>
          <ns3:TrackPointExtension/>
        </extensions>
      </trkpt>
      <trkpt lat="30.30738095752894878387451171875" lon="119.1195039264857769012451171875">
        <ele>1119.800048828125</ele>
        <time>2024-10-03T03:05:48.000Z</time>
        <extensions>
          <ns3:TrackPointExtension/>
        </extensions>
      </trkpt>
      <trkpt lat="30.30728993006050586700439453125" lon="119.11949294619262218475341796875">
        <ele>1121.5999755859375</ele>
        <time>2024-10-03T03:06:02.000Z</time>
        <extensions>
          <ns3:TrackPointExtension/>
        </extensions>
      </trkpt>
      <trkpt lat="30.30720493756234645843505859375" lon="119.11952898837625980377197265625">
        <ele>1123.800048828125</ele>
        <time>2024-10-03T03:06:20.000Z</time>
        <extensions>
          <ns3:TrackPointExtension/>
        </extensions>
      </trkpt>
      <trkpt lat="30.307134948670864105224609375" lon="119.11960895173251628875732421875">
        <ele>1126.4000244140625</ele>
        <time>2024-10-03T03:06:32.000Z</time>
        <extensions>
          <ns3:TrackPointExtension/>
        </extensions>
      </trkpt>
      <trkpt lat="30.3071049414575099945068359375" lon="119.11972093395888805389404296875">
        <ele>1129.5999755859375</ele>
        <time>2024-10-03T03:06:54.000Z</time>
        <extensions>
          <ns3:TrackPointExtension/>
        </extensions>
      </trkpt>
      <trkpt lat="30.307071916759014129638671875" lon="119.119828976690769195556640625">
        <ele>1132</ele>
        <time>2024-10-03T03:07:18.000Z</time>
        <extensions>
          <ns3:TrackPointExtension/>
        </extensions>
      </trkpt>
      <trkpt lat="30.30700695700943470001220703125" lon="119.1199109517037868499755859375">
        <ele>1132.199951171875</ele>
        <time>2024-10-03T03:07:48.000Z</time>
        <extensions>
          <ns3:TrackPointExtension/>
        </extensions>
      </trkpt>
      <trkpt lat="30.3069979883730411529541015625" lon="119.1200199164450168609619140625">
        <ele>1130.800048828125</ele>
        <time>2024-10-03T03:08:20.000Z</time>
        <extensions>
          <ns3:TrackPointExtension/>
        </extensions>
      </trkpt>
      <trkpt lat="30.306959934532642364501953125" lon="119.12012494169175624847412109375">
        <ele>1126.800048828125</ele>
        <time>2024-10-03T03:09:24.000Z</time>
        <extensions>
          <ns3:TrackPointExtension/>
        </extensions>
      </trkpt>
      <trkpt lat="30.306904949247837066650390625" lon="119.12021194584667682647705078125">
        <ele>1126</ele>
        <time>2024-10-03T03:09:48.000Z</time>
        <extensions>
          <ns3:TrackPointExtension/>
        </extensions>
      </trkpt>
      <trkpt lat="30.30695398338139057159423828125" lon="119.120289981365203857421875">
        <ele>1126.199951171875</ele>
        <time>2024-10-03T03:10:08.000Z</time>
        <extensions>
          <ns3:TrackPointExtension/>
        </extensions>
      </trkpt>
      <trkpt lat="30.307014919817447662353515625" lon="119.1203719563782215118408203125">
        <ele>1125.5999755859375</ele>
        <time>2024-10-03T03:10:22.000Z</time>
        <extensions>
          <ns3:TrackPointExtension/>
        </extensions>
      </trkpt>
      <trkpt lat="30.30705993063747882843017578125" lon="119.12047195248305797576904296875">
        <ele>1126.199951171875</ele>
        <time>2024-10-03T03:10:42.000Z</time>
        <extensions>
          <ns3:TrackPointExtension/>
        </extensions>
      </trkpt>
      <trkpt lat="30.3070829808712005615234375" lon="119.120577983558177947998046875">
        <ele>1129</ele>
        <time>2024-10-03T03:11:22.000Z</time>
        <extensions>
          <ns3:TrackPointExtension/>
        </extensions>
      </trkpt>
      <trkpt lat="30.3070559911429882049560546875" lon="119.120687954127788543701171875">
        <ele>1131.199951171875</ele>
        <time>2024-10-03T03:12:06.000Z</time>
        <extensions>
          <ns3:TrackPointExtension/>
        </extensions>
      </trkpt>
      <trkpt lat="30.30703092925250530242919921875" lon="119.12079398520290851593017578125">
        <ele>1132.5999755859375</ele>
        <time>2024-10-03T03:12:16.000Z</time>
        <extensions>
          <ns3:TrackPointExtension/>
        </extensions>
      </trkpt>
      <trkpt lat="30.30701198615133762359619140625" lon="119.12090697325766086578369140625">
        <ele>1133.4000244140625</ele>
        <time>2024-10-03T03:12:38.000Z</time>
        <extensions>
          <ns3:TrackPointExtension/>
        </extensions>
      </trkpt>
      <trkpt lat="30.306959934532642364501953125" lon="119.1210029460489749908447265625">
        <ele>1133.199951171875</ele>
        <time>2024-10-03T03:12:56.000Z</time>
        <extensions>
          <ns3:TrackPointExtension/>
        </extensions>
      </trkpt>
      <trkpt lat="30.30691794119775295257568359375" lon="119.12109799683094024658203125">
        <ele>1133.800048828125</ele>
        <time>2024-10-03T03:13:28.000Z</time>
        <extensions>
          <ns3:TrackPointExtension/>
        </extensions>
      </trkpt>
      <trkpt lat="30.30688893981277942657470703125" lon="119.12119698710739612579345703125">
        <ele>1134.5999755859375</ele>
        <time>2024-10-03T03:13:50.000Z</time>
        <extensions>
          <ns3:TrackPointExtension/>
        </extensions>
      </trkpt>
      <trkpt lat="30.306853987276554107666015625" lon="119.1212959773838520050048828125">
        <ele>1135.5999755859375</ele>
        <time>2024-10-03T03:14:30.000Z</time>
        <extensions>
          <ns3:TrackPointExtension/>
        </extensions>
      </trkpt>
      <trkpt lat="30.30686295591294765472412109375" lon="119.12139899097383022308349609375">
        <ele>1137</ele>
        <time>2024-10-03T03:15:14.000Z</time>
        <extensions>
          <ns3:TrackPointExtension/>
        </extensions>
      </trkpt>
      <trkpt lat="30.30689992010593414306640625" lon="119.121496975421905517578125">
        <ele>1138.5999755859375</ele>
        <time>2024-10-03T03:15:46.000Z</time>
        <extensions>
          <ns3:TrackPointExtension/>
        </extensions>
      </trkpt>
      <trkpt lat="30.30694291926920413970947265625" lon="119.12159697152674198150634765625">
        <ele>1142.4000244140625</ele>
        <time>2024-10-03T03:16:00.000Z</time>
        <extensions>
          <ns3:TrackPointExtension/>
        </extensions>
      </trkpt>
      <trkpt lat="30.3069979883730411529541015625" lon="119.12168799899518489837646484375">
        <ele>1145</ele>
        <time>2024-10-03T03:18:20.000Z</time>
        <extensions>
          <ns3:TrackPointExtension/>
        </extensions>
      </trkpt>
      <trkpt lat="30.3069979883730411529541015625" lon="119.12179495207965373992919921875">
        <ele>1147.5999755859375</ele>
        <time>2024-10-03T03:19:12.000Z</time>
        <extensions>
          <ns3:TrackPointExtension/>
        </extensions>
      </trkpt>
      <trkpt lat="30.30706294812262058258056640625" lon="119.12191799841821193695068359375">
        <ele>1155</ele>
        <time>2024-10-03T03:20:22.000Z</time>
        <extensions>
          <ns3:TrackPointExtension/>
        </extensions>
      </trkpt>
      <trkpt lat="30.30700192786753177642822265625" lon="119.12200299091637134552001953125">
        <ele>1161.5999755859375</ele>
        <time>2024-10-03T03:22:54.000Z</time>
        <extensions>
          <ns3:TrackPointExtension/>
        </extensions>
      </trkpt>
      <trkpt lat="30.30699991621077060699462890625" lon="119.12210793234407901763916015625">
        <ele>1168.4000244140625</ele>
        <time>2024-10-03T03:24:02.000Z</time>
        <extensions>
          <ns3:TrackPointExtension/>
        </extensions>
      </trkpt>
      <trkpt lat="30.30692498199641704559326171875" lon="119.12217498756945133209228515625">
        <ele>1174.4000244140625</ele>
        <time>2024-10-03T03:24:42.000Z</time>
        <extensions>
          <ns3:TrackPointExtension/>
        </extensions>
      </trkpt>
      <trkpt lat="30.30692498199641704559326171875" lon="119.12217498756945133209228515625">
        <ele>1174.4000244140625</ele>
        <time>2024-10-03T03:25:41.000Z</time>
        <extensions>
          <ns3:TrackPointExtension/>
        </extensions>
      </trkpt>
    </trkseg>
  </trk>
</gpx>
