<gpx xmlns:ns3="http://www.garmin.com/xmlschemas/TrackPointExtension/v1" xmlns="http://www.topografix.com/GPX/1/1" xmlns:xsi="http://www.w3.org/2001/XMLSchema-instance" xmlns:ns2="http://www.garmin.com/xmlschemas/GpxExtensions/v3" creator="Garmin Connect" version="1.1" xsi:schemaLocation="http://www.topografix.com/GPX/1/1 http://www.topografix.com/GPX/11.xsd">
  <extensions>
<distance>2663.15</distance>
<average_hr></average_hr>
<average_speed>0.9006251361662904</average_speed>
<start_time>2024-10-03T00:57:12+00:00</start_time>
<end_time>2024-10-03T01:46:29+00:00</end_time>
<moving_time>2696.0</moving_time>
<elapsed_time>2957.0</elapsed_time>
</extensions>
<metadata>
    <link href="connect.garmin.com">
      <text>Garmin Connect</text>
    </link>
    <time>2024-10-03T00:57:12.000Z</time>
  </metadata>
  <trk>
    <name>杭州市 其他</name>
    <type>other</type>
    <trkseg>
      <trkpt lat="30.29567697085440158843994140625" lon="119.0842489711940288543701171875">
        <ele>626.20001220703125</ele>
        <time>2024-10-03T00:57:12.000Z</time>
        <extensions>
          <ns3:TrackPointExtension/>
        </extensions>
      </trkpt>
      <trkpt lat="30.29575391672551631927490234375" lon="119.0842719376087188720703125">
        <ele>626.20001220703125</ele>
        <time>2024-10-03T00:57:58.000Z</time>
        <extensions>
          <ns3:TrackPointExtension/>
        </extensions>
      </trkpt>
      <trkpt lat="30.29584192670881748199462890625" lon="119.08433698117733001708984375">
        <ele>625.79998779296875</ele>
        <time>2024-10-03T00:58:06.000Z</time>
        <extensions>
          <ns3:TrackPointExtension/>
        </extensions>
      </trkpt>
      <trkpt lat="30.29592096805572509765625" lon="119.0844209678471088409423828125">
        <ele>628.4000244140625</ele>
        <time>2024-10-03T00:58:14.000Z</time>
        <extensions>
          <ns3:TrackPointExtension/>
        </extensions>
      </trkpt>
      <trkpt lat="30.2960019372403621673583984375" lon="119.08449196256697177886962890625">
        <ele>630.20001220703125</ele>
        <time>2024-10-03T00:58:22.000Z</time>
        <extensions>
          <ns3:TrackPointExtension/>
        </extensions>
      </trkpt>
      <trkpt lat="30.29609195888042449951171875" lon="119.0845309384167194366455078125">
        <ele>629.5999755859375</ele>
        <time>2024-10-03T00:58:30.000Z</time>
        <extensions>
          <ns3:TrackPointExtension/>
        </extensions>
      </trkpt>
      <trkpt lat="30.29618592001497745513916015625" lon="119.08457293175160884857177734375">
        <ele>630</ele>
        <time>2024-10-03T00:58:40.000Z</time>
        <extensions>
          <ns3:TrackPointExtension/>
        </extensions>
      </trkpt>
      <trkpt lat="30.29628398828208446502685546875" lon="119.084620960056781768798828125">
        <ele>631.20001220703125</ele>
        <time>2024-10-03T00:58:48.000Z</time>
        <extensions>
          <ns3:TrackPointExtension/>
        </extensions>
      </trkpt>
      <trkpt lat="30.29636495746672153472900390625" lon="119.0847039408981800079345703125">
        <ele>631</ele>
        <time>2024-10-03T00:58:56.000Z</time>
        <extensions>
          <ns3:TrackPointExtension/>
        </extensions>
      </trkpt>
      <trkpt lat="30.296443998813629150390625" lon="119.08477392978966236114501953125">
        <ele>630.4000244140625</ele>
        <time>2024-10-03T00:59:06.000Z</time>
        <extensions>
          <ns3:TrackPointExtension/>
        </extensions>
      </trkpt>
      <trkpt lat="30.29651398770511150360107421875" lon="119.084856994450092315673828125">
        <ele>629.79998779296875</ele>
        <time>2024-10-03T00:59:16.000Z</time>
        <extensions>
          <ns3:TrackPointExtension/>
        </extensions>
      </trkpt>
      <trkpt lat="30.2965879999101161956787109375" lon="119.08492296002805233001708984375">
        <ele>629.4000244140625</ele>
        <time>2024-10-03T00:59:24.000Z</time>
        <extensions>
          <ns3:TrackPointExtension/>
        </extensions>
      </trkpt>
      <trkpt lat="30.29663099907338619232177734375" lon="119.08495095558464527130126953125">
        <ele>629.20001220703125</ele>
        <time>2024-10-03T00:59:40.000Z</time>
        <extensions>
          <ns3:TrackPointExtension/>
        </extensions>
      </trkpt>
      <trkpt lat="30.2966379560530185699462890625" lon="119.08486596308648586273193359375">
        <ele>628.4000244140625</ele>
        <time>2024-10-03T00:59:52.000Z</time>
        <extensions>
          <ns3:TrackPointExtension/>
        </extensions>
      </trkpt>
      <trkpt lat="30.29661096632480621337890625" lon="119.08474291674792766571044921875">
        <ele>628</ele>
        <time>2024-10-03T01:00:02.000Z</time>
        <extensions>
          <ns3:TrackPointExtension/>
        </extensions>
      </trkpt>
      <trkpt lat="30.296554975211620330810546875" lon="119.08463596366345882415771484375">
        <ele>628.5999755859375</ele>
        <time>2024-10-03T01:00:08.000Z</time>
        <extensions>
          <ns3:TrackPointExtension/>
        </extensions>
      </trkpt>
      <trkpt lat="30.29648398049175739288330078125" lon="119.0845359675586223602294921875">
        <ele>629.79998779296875</ele>
        <time>2024-10-03T01:00:18.000Z</time>
        <extensions>
          <ns3:TrackPointExtension/>
        </extensions>
      </trkpt>
      <trkpt lat="30.2964119799435138702392578125" lon="119.084445945918560028076171875">
        <ele>631.79998779296875</ele>
        <time>2024-10-03T01:00:28.000Z</time>
        <extensions>
          <ns3:TrackPointExtension/>
        </extensions>
      </trkpt>
      <trkpt lat="30.296325981616973876953125" lon="119.0843599475920200347900390625">
        <ele>634.5999755859375</ele>
        <time>2024-10-03T01:00:48.000Z</time>
        <extensions>
          <ns3:TrackPointExtension/>
        </extensions>
      </trkpt>
      <trkpt lat="30.29626093804836273193359375" lon="119.08425995148718357086181640625">
        <ele>638.20001220703125</ele>
        <time>2024-10-03T01:00:56.000Z</time>
        <extensions>
          <ns3:TrackPointExtension/>
        </extensions>
      </trkpt>
      <trkpt lat="30.2962119877338409423828125" lon="119.08414796926081180572509765625">
        <ele>640</ele>
        <time>2024-10-03T01:01:06.000Z</time>
        <extensions>
          <ns3:TrackPointExtension/>
        </extensions>
      </trkpt>
      <trkpt lat="30.29616999439895153045654296875" lon="119.08403296954929828643798828125">
        <ele>640.20001220703125</ele>
        <time>2024-10-03T01:01:12.000Z</time>
        <extensions>
          <ns3:TrackPointExtension/>
        </extensions>
      </trkpt>
      <trkpt lat="30.29614199884235858917236328125" lon="119.0839019604027271270751953125">
        <ele>639.5999755859375</ele>
        <time>2024-10-03T01:01:22.000Z</time>
        <extensions>
          <ns3:TrackPointExtension/>
        </extensions>
      </trkpt>
      <trkpt lat="30.296151973307132720947265625" lon="119.0837799198925495147705078125">
        <ele>638.79998779296875</ele>
        <time>2024-10-03T01:01:32.000Z</time>
        <extensions>
          <ns3:TrackPointExtension/>
        </extensions>
      </trkpt>
      <trkpt lat="30.2962299250066280364990234375" lon="119.08368897624313831329345703125">
        <ele>637.5999755859375</ele>
        <time>2024-10-03T01:01:40.000Z</time>
        <extensions>
          <ns3:TrackPointExtension/>
        </extensions>
      </trkpt>
      <trkpt lat="30.29633696191012859344482421875" lon="119.08365192823112010955810546875">
        <ele>639</ele>
        <time>2024-10-03T01:01:52.000Z</time>
        <extensions>
          <ns3:TrackPointExtension/>
        </extensions>
      </trkpt>
      <trkpt lat="30.296442992985248565673828125" lon="119.083590991795063018798828125">
        <ele>641.5999755859375</ele>
        <time>2024-10-03T01:02:00.000Z</time>
        <extensions>
          <ns3:TrackPointExtension/>
        </extensions>
      </trkpt>
      <trkpt lat="30.296550951898097991943359375" lon="119.0835629962384700775146484375">
        <ele>642.5999755859375</ele>
        <time>2024-10-03T01:02:12.000Z</time>
        <extensions>
          <ns3:TrackPointExtension/>
        </extensions>
      </trkpt>
      <trkpt lat="30.2966359443962574005126953125" lon="119.0835019759833812713623046875">
        <ele>644.5999755859375</ele>
        <time>2024-10-03T01:02:26.000Z</time>
        <extensions>
          <ns3:TrackPointExtension/>
        </extensions>
      </trkpt>
      <trkpt lat="30.29673191718757152557373046875" lon="119.08351496793329715728759765625">
        <ele>646.20001220703125</ele>
        <time>2024-10-03T01:02:34.000Z</time>
        <extensions>
          <ns3:TrackPointExtension/>
        </extensions>
      </trkpt>
      <trkpt lat="30.296835936605930328369140625" lon="119.0835289657115936279296875">
        <ele>648.20001220703125</ele>
        <time>2024-10-03T01:02:44.000Z</time>
        <extensions>
          <ns3:TrackPointExtension/>
        </extensions>
      </trkpt>
      <trkpt lat="30.29693492688238620758056640625" lon="119.083529971539974212646484375">
        <ele>652</ele>
        <time>2024-10-03T01:02:56.000Z</time>
        <extensions>
          <ns3:TrackPointExtension/>
        </extensions>
      </trkpt>
      <trkpt lat="30.29702494852244853973388671875" lon="119.083578921854496002197265625">
        <ele>655.5999755859375</ele>
        <time>2024-10-03T01:03:08.000Z</time>
        <extensions>
          <ns3:TrackPointExtension/>
        </extensions>
      </trkpt>
      <trkpt lat="30.29708496294915676116943359375" lon="119.0836649201810359954833984375">
        <ele>657.79998779296875</ele>
        <time>2024-10-03T01:03:14.000Z</time>
        <extensions>
          <ns3:TrackPointExtension/>
        </extensions>
      </trkpt>
      <trkpt lat="30.29714296571910381317138671875" lon="119.083755947649478912353515625">
        <ele>658.5999755859375</ele>
        <time>2024-10-03T01:03:30.000Z</time>
        <extensions>
          <ns3:TrackPointExtension/>
        </extensions>
      </trkpt>
      <trkpt lat="30.29722594656050205230712890625" lon="119.08377899788320064544677734375">
        <ele>660.79998779296875</ele>
        <time>2024-10-03T01:04:02.000Z</time>
        <extensions>
          <ns3:TrackPointExtension/>
        </extensions>
      </trkpt>
      <trkpt lat="30.29731898568570613861083984375" lon="119.08379794098436832427978515625">
        <ele>664.4000244140625</ele>
        <time>2024-10-03T01:04:16.000Z</time>
        <extensions>
          <ns3:TrackPointExtension/>
        </extensions>
      </trkpt>
      <trkpt lat="30.297415964305400848388671875" lon="119.08382593654096126556396484375">
        <ele>668.4000244140625</ele>
        <time>2024-10-03T01:04:26.000Z</time>
        <extensions>
          <ns3:TrackPointExtension/>
        </extensions>
      </trkpt>
      <trkpt lat="30.29750891961157321929931640625" lon="119.083867929875850677490234375">
        <ele>670</ele>
        <time>2024-10-03T01:04:34.000Z</time>
        <extensions>
          <ns3:TrackPointExtension/>
        </extensions>
      </trkpt>
      <trkpt lat="30.29759491793811321258544921875" lon="119.083928950130939483642578125">
        <ele>671</ele>
        <time>2024-10-03T01:04:42.000Z</time>
        <extensions>
          <ns3:TrackPointExtension/>
        </extensions>
      </trkpt>
      <trkpt lat="30.2976699359714984893798828125" lon="119.08400698564946651458740234375">
        <ele>670.20001220703125</ele>
        <time>2024-10-03T01:04:50.000Z</time>
        <extensions>
          <ns3:TrackPointExtension/>
        </extensions>
      </trkpt>
      <trkpt lat="30.29774394817650318145751953125" lon="119.0840799920260906219482421875">
        <ele>669.20001220703125</ele>
        <time>2024-10-03T01:04:58.000Z</time>
        <extensions>
          <ns3:TrackPointExtension/>
        </extensions>
      </trkpt>
      <trkpt lat="30.29782793484628200531005859375" lon="119.08414092846214771270751953125">
        <ele>668.79998779296875</ele>
        <time>2024-10-03T01:05:08.000Z</time>
        <extensions>
          <ns3:TrackPointExtension/>
        </extensions>
      </trkpt>
      <trkpt lat="30.29792399145662784576416015625" lon="119.0841859392821788787841796875">
        <ele>669.20001220703125</ele>
        <time>2024-10-03T01:05:18.000Z</time>
        <extensions>
          <ns3:TrackPointExtension/>
        </extensions>
      </trkpt>
      <trkpt lat="30.2980219759047031402587890625" lon="119.08423497341573238372802734375">
        <ele>670.20001220703125</ele>
        <time>2024-10-03T01:05:28.000Z</time>
        <extensions>
          <ns3:TrackPointExtension/>
        </extensions>
      </trkpt>
      <trkpt lat="30.29811593703925609588623046875" lon="119.08426598645746707916259765625">
        <ele>671.79998779296875</ele>
        <time>2024-10-03T01:05:36.000Z</time>
        <extensions>
          <ns3:TrackPointExtension/>
        </extensions>
      </trkpt>
      <trkpt lat="30.298213921487331390380859375" lon="119.08429398201406002044677734375">
        <ele>673.20001220703125</ele>
        <time>2024-10-03T01:05:44.000Z</time>
        <extensions>
          <ns3:TrackPointExtension/>
        </extensions>
      </trkpt>
      <trkpt lat="30.2983069606125354766845703125" lon="119.084329940378665924072265625">
        <ele>674.79998779296875</ele>
        <time>2024-10-03T01:05:52.000Z</time>
        <extensions>
          <ns3:TrackPointExtension/>
        </extensions>
      </trkpt>
      <trkpt lat="30.29838197864592075347900390625" lon="119.0843899548053741455078125">
        <ele>676.4000244140625</ele>
        <time>2024-10-03T01:05:58.000Z</time>
        <extensions>
          <ns3:TrackPointExtension/>
        </extensions>
      </trkpt>
      <trkpt lat="30.29846797697246074676513671875" lon="119.084453992545604705810546875">
        <ele>678</ele>
        <time>2024-10-03T01:06:06.000Z</time>
        <extensions>
          <ns3:TrackPointExtension/>
        </extensions>
      </trkpt>
      <trkpt lat="30.29854794032871723175048828125" lon="119.0845119953155517578125">
        <ele>679.79998779296875</ele>
        <time>2024-10-03T01:06:14.000Z</time>
        <extensions>
          <ns3:TrackPointExtension/>
        </extensions>
      </trkpt>
      <trkpt lat="30.29861994087696075439453125" lon="119.08458299003541469573974609375">
        <ele>680.79998779296875</ele>
        <time>2024-10-03T01:06:24.000Z</time>
        <extensions>
          <ns3:TrackPointExtension/>
        </extensions>
      </trkpt>
      <trkpt lat="30.29866092838346958160400390625" lon="119.08461391925811767578125">
        <ele>682.4000244140625</ele>
        <time>2024-10-03T01:06:34.000Z</time>
        <extensions>
          <ns3:TrackPointExtension/>
        </extensions>
      </trkpt>
      <trkpt lat="30.29871893115341663360595703125" lon="119.08468692563474178314208984375">
        <ele>682.5999755859375</ele>
        <time>2024-10-03T01:06:46.000Z</time>
        <extensions>
          <ns3:TrackPointExtension/>
        </extensions>
      </trkpt>
      <trkpt lat="30.298797972500324249267578125" lon="119.0847629494965076446533203125">
        <ele>682.4000244140625</ele>
        <time>2024-10-03T01:06:56.000Z</time>
        <extensions>
          <ns3:TrackPointExtension/>
        </extensions>
      </trkpt>
      <trkpt lat="30.2988779358565807342529296875" lon="119.08483796752989292144775390625">
        <ele>680.79998779296875</ele>
        <time>2024-10-03T01:07:04.000Z</time>
        <extensions>
          <ns3:TrackPointExtension/>
        </extensions>
      </trkpt>
      <trkpt lat="30.29895999468863010406494140625" lon="119.084909968078136444091796875">
        <ele>680.20001220703125</ele>
        <time>2024-10-03T01:07:12.000Z</time>
        <extensions>
          <ns3:TrackPointExtension/>
        </extensions>
      </trkpt>
      <trkpt lat="30.29904096387326717376708984375" lon="119.08496595919132232666015625">
        <ele>680.79998779296875</ele>
        <time>2024-10-03T01:07:20.000Z</time>
        <extensions>
          <ns3:TrackPointExtension/>
        </extensions>
      </trkpt>
      <trkpt lat="30.2991159819066524505615234375" lon="119.08502899110317230224609375">
        <ele>682.79998779296875</ele>
        <time>2024-10-03T01:07:28.000Z</time>
        <extensions>
          <ns3:TrackPointExtension/>
        </extensions>
      </trkpt>
      <trkpt lat="30.299192927777767181396484375" lon="119.08509193919599056243896484375">
        <ele>683.4000244140625</ele>
        <time>2024-10-03T01:07:36.000Z</time>
        <extensions>
          <ns3:TrackPointExtension/>
        </extensions>
      </trkpt>
      <trkpt lat="30.29927498660981655120849609375" lon="119.08514793030917644500732421875">
        <ele>683.20001220703125</ele>
        <time>2024-10-03T01:07:44.000Z</time>
        <extensions>
          <ns3:TrackPointExtension/>
        </extensions>
      </trkpt>
      <trkpt lat="30.2993489988148212432861328125" lon="119.08521397970616817474365234375">
        <ele>682.5999755859375</ele>
        <time>2024-10-03T01:07:52.000Z</time>
        <extensions>
          <ns3:TrackPointExtension/>
        </extensions>
      </trkpt>
      <trkpt lat="30.299422927200794219970703125" lon="119.085313975811004638671875">
        <ele>683.20001220703125</ele>
        <time>2024-10-03T01:08:00.000Z</time>
        <extensions>
          <ns3:TrackPointExtension/>
        </extensions>
      </trkpt>
      <trkpt lat="30.29949693940579891204833984375" lon="119.08541296608746051788330078125">
        <ele>684.79998779296875</ele>
        <time>2024-10-03T01:08:12.000Z</time>
        <extensions>
          <ns3:TrackPointExtension/>
        </extensions>
      </trkpt>
      <trkpt lat="30.299548991024494171142578125" lon="119.08552494831383228302001953125">
        <ele>686.4000244140625</ele>
        <time>2024-10-03T01:08:20.000Z</time>
        <extensions>
          <ns3:TrackPointExtension/>
        </extensions>
      </trkpt>
      <trkpt lat="30.29961998574435710906982421875" lon="119.08563894219696521759033203125">
        <ele>688</ele>
        <time>2024-10-03T01:08:32.000Z</time>
        <extensions>
          <ns3:TrackPointExtension/>
        </extensions>
      </trkpt>
      <trkpt lat="30.29967899434268474578857421875" lon="119.0857369266450405120849609375">
        <ele>689</ele>
        <time>2024-10-03T01:08:40.000Z</time>
        <extensions>
          <ns3:TrackPointExtension/>
        </extensions>
      </trkpt>
      <trkpt lat="30.29971696436405181884765625" lon="119.08583893440663814544677734375">
        <ele>690</ele>
        <time>2024-10-03T01:08:48.000Z</time>
        <extensions>
          <ns3:TrackPointExtension/>
        </extensions>
      </trkpt>
      <trkpt lat="30.299770943820476531982421875" lon="119.08594496548175811767578125">
        <ele>690.79998779296875</ele>
        <time>2024-10-03T01:08:58.000Z</time>
        <extensions>
          <ns3:TrackPointExtension/>
        </extensions>
      </trkpt>
      <trkpt lat="30.29983095824718475341796875" lon="119.08604999072849750518798828125">
        <ele>691</ele>
        <time>2024-10-03T01:09:08.000Z</time>
        <extensions>
          <ns3:TrackPointExtension/>
        </extensions>
      </trkpt>
      <trkpt lat="30.29990396462380886077880859375" lon="119.08613598905503749847412109375">
        <ele>690.79998779296875</ele>
        <time>2024-10-03T01:09:16.000Z</time>
        <extensions>
          <ns3:TrackPointExtension/>
        </extensions>
      </trkpt>
      <trkpt lat="30.2999799884855747222900390625" lon="119.08621796406805515289306640625">
        <ele>690.79998779296875</ele>
        <time>2024-10-03T01:09:24.000Z</time>
        <extensions>
          <ns3:TrackPointExtension/>
        </extensions>
      </trkpt>
      <trkpt lat="30.300055928528308868408203125" lon="119.08629692159593105316162109375">
        <ele>691</ele>
        <time>2024-10-03T01:09:32.000Z</time>
        <extensions>
          <ns3:TrackPointExtension/>
        </extensions>
      </trkpt>
      <trkpt lat="30.30013597570359706878662109375" lon="119.08638895489275455474853515625">
        <ele>691.5999755859375</ele>
        <time>2024-10-03T01:09:42.000Z</time>
        <extensions>
          <ns3:TrackPointExtension/>
        </extensions>
      </trkpt>
      <trkpt lat="30.3001749515533447265625" lon="119.0864889509975910186767578125">
        <ele>691.79998779296875</ele>
        <time>2024-10-03T01:09:48.000Z</time>
        <extensions>
          <ns3:TrackPointExtension/>
        </extensions>
      </trkpt>
      <trkpt lat="30.30018593184649944305419921875" lon="119.0866029448807239532470703125">
        <ele>692.79998779296875</ele>
        <time>2024-10-03T01:09:56.000Z</time>
        <extensions>
          <ns3:TrackPointExtension/>
        </extensions>
      </trkpt>
      <trkpt lat="30.3001989237964153289794921875" lon="119.08673294819891452789306640625">
        <ele>694</ele>
        <time>2024-10-03T01:10:06.000Z</time>
        <extensions>
          <ns3:TrackPointExtension/>
        </extensions>
      </trkpt>
      <trkpt lat="30.3002379834651947021484375" lon="119.08686093986034393310546875">
        <ele>695</ele>
        <time>2024-10-03T01:10:16.000Z</time>
        <extensions>
          <ns3:TrackPointExtension/>
        </extensions>
      </trkpt>
      <trkpt lat="30.30030294321477413177490234375" lon="119.0869569964706897735595703125">
        <ele>696</ele>
        <time>2024-10-03T01:10:28.000Z</time>
        <extensions>
          <ns3:TrackPointExtension/>
        </extensions>
      </trkpt>
      <trkpt lat="30.3003789670765399932861328125" lon="119.08702899701893329620361328125">
        <ele>697.20001220703125</ele>
        <time>2024-10-03T01:10:36.000Z</time>
        <extensions>
          <ns3:TrackPointExtension/>
        </extensions>
      </trkpt>
      <trkpt lat="30.30047091655433177947998046875" lon="119.08705095760524272918701171875">
        <ele>697.79998779296875</ele>
        <time>2024-10-03T01:10:44.000Z</time>
        <extensions>
          <ns3:TrackPointExtension/>
        </extensions>
      </trkpt>
      <trkpt lat="30.300582982599735260009765625" lon="119.0870609320700168609619140625">
        <ele>697.20001220703125</ele>
        <time>2024-10-03T01:10:54.000Z</time>
        <extensions>
          <ns3:TrackPointExtension/>
        </extensions>
      </trkpt>
      <trkpt lat="30.300692953169345855712890625" lon="119.087091945111751556396484375">
        <ele>698</ele>
        <time>2024-10-03T01:11:00.000Z</time>
        <extensions>
          <ns3:TrackPointExtension/>
        </extensions>
      </trkpt>
      <trkpt lat="30.30078792013227939605712890625" lon="119.0871239639818668365478515625">
        <ele>699.20001220703125</ele>
        <time>2024-10-03T01:11:08.000Z</time>
        <extensions>
          <ns3:TrackPointExtension/>
        </extensions>
      </trkpt>
      <trkpt lat="30.30087794177234172821044921875" lon="119.08716696314513683319091796875">
        <ele>700.20001220703125</ele>
        <time>2024-10-03T01:11:15.000Z</time>
        <extensions>
          <ns3:TrackPointExtension/>
        </extensions>
      </trkpt>
      <trkpt lat="30.30096997506916522979736328125" lon="119.08722898922860622406005859375">
        <ele>701.4000244140625</ele>
        <time>2024-10-03T01:11:23.000Z</time>
        <extensions>
          <ns3:TrackPointExtension/>
        </extensions>
      </trkpt>
      <trkpt lat="30.3010669536888599395751953125" lon="119.08727592788636684417724609375">
        <ele>701.79998779296875</ele>
        <time>2024-10-03T01:11:33.000Z</time>
        <extensions>
          <ns3:TrackPointExtension/>
        </extensions>
      </trkpt>
      <trkpt lat="30.30113895423710346221923828125" lon="119.0873569808900356292724609375">
        <ele>702.5999755859375</ele>
        <time>2024-10-03T01:11:41.000Z</time>
        <extensions>
          <ns3:TrackPointExtension/>
        </extensions>
      </trkpt>
      <trkpt lat="30.30120098032057285308837890625" lon="119.08744993619620800018310546875">
        <ele>703.5999755859375</ele>
        <time>2024-10-03T01:11:49.000Z</time>
        <extensions>
          <ns3:TrackPointExtension/>
        </extensions>
      </trkpt>
      <trkpt lat="30.3012389503419399261474609375" lon="119.087557978928089141845703125">
        <ele>702.79998779296875</ele>
        <time>2024-10-03T01:11:57.000Z</time>
        <extensions>
          <ns3:TrackPointExtension/>
        </extensions>
      </trkpt>
      <trkpt lat="30.30127893202006816864013671875" lon="119.08766099251806735992431640625">
        <ele>701.79998779296875</ele>
        <time>2024-10-03T01:12:07.000Z</time>
        <extensions>
          <ns3:TrackPointExtension/>
        </extensions>
      </trkpt>
      <trkpt lat="30.30128597281873226165771484375" lon="119.08777297474443912506103515625">
        <ele>702</ele>
        <time>2024-10-03T01:12:21.000Z</time>
        <extensions>
          <ns3:TrackPointExtension/>
        </extensions>
      </trkpt>
      <trkpt lat="30.3013049997389316558837890625" lon="119.08788093365728855133056640625">
        <ele>702.20001220703125</ele>
        <time>2024-10-03T01:12:27.000Z</time>
        <extensions>
          <ns3:TrackPointExtension/>
        </extensions>
      </trkpt>
      <trkpt lat="30.30133492313325405120849609375" lon="119.08799693919718265533447265625">
        <ele>702.4000244140625</ele>
        <time>2024-10-03T01:12:39.000Z</time>
        <extensions>
          <ns3:TrackPointExtension/>
        </extensions>
      </trkpt>
      <trkpt lat="30.30136291868984699249267578125" lon="119.08812099136412143707275390625">
        <ele>701.5999755859375</ele>
        <time>2024-10-03T01:12:47.000Z</time>
        <extensions>
          <ns3:TrackPointExtension/>
        </extensions>
      </trkpt>
      <trkpt lat="30.30139393173158168792724609375" lon="119.08825191669166088104248046875">
        <ele>700.79998779296875</ele>
        <time>2024-10-03T01:12:57.000Z</time>
        <extensions>
          <ns3:TrackPointExtension/>
        </extensions>
      </trkpt>
      <trkpt lat="30.30142092145979404449462890625" lon="119.08836892805993556976318359375">
        <ele>700.5999755859375</ele>
        <time>2024-10-03T01:13:03.000Z</time>
        <extensions>
          <ns3:TrackPointExtension/>
        </extensions>
      </trkpt>
      <trkpt lat="30.301439948379993438720703125" lon="119.08848099410533905029296875">
        <ele>700.79998779296875</ele>
        <time>2024-10-03T01:13:11.000Z</time>
        <extensions>
          <ns3:TrackPointExtension/>
        </extensions>
      </trkpt>
      <trkpt lat="30.301447995007038116455078125" lon="119.088587947189807891845703125">
        <ele>701.20001220703125</ele>
        <time>2024-10-03T01:13:19.000Z</time>
        <extensions>
          <ns3:TrackPointExtension/>
        </extensions>
      </trkpt>
      <trkpt lat="30.30145495198667049407958984375" lon="119.088699929416179656982421875">
        <ele>701.4000244140625</ele>
        <time>2024-10-03T01:13:27.000Z</time>
        <extensions>
          <ns3:TrackPointExtension/>
        </extensions>
      </trkpt>
      <trkpt lat="30.30144698917865753173828125" lon="119.08880797214806079864501953125">
        <ele>702.20001220703125</ele>
        <time>2024-10-03T01:13:33.000Z</time>
        <extensions>
          <ns3:TrackPointExtension/>
        </extensions>
      </trkpt>
      <trkpt lat="30.301441960036754608154296875" lon="119.0889309346675872802734375">
        <ele>703.20001220703125</ele>
        <time>2024-10-03T01:13:45.000Z</time>
        <extensions>
          <ns3:TrackPointExtension/>
        </extensions>
      </trkpt>
      <trkpt lat="30.301439948379993438720703125" lon="119.08904694020748138427734375">
        <ele>703.79998779296875</ele>
        <time>2024-10-03T01:13:55.000Z</time>
        <extensions>
          <ns3:TrackPointExtension/>
        </extensions>
      </trkpt>
      <trkpt lat="30.301435925066471099853515625" lon="119.08915397711098194122314453125">
        <ele>704.79998779296875</ele>
        <time>2024-10-03T01:14:01.000Z</time>
        <extensions>
          <ns3:TrackPointExtension/>
        </extensions>
      </trkpt>
      <trkpt lat="30.30144296586513519287109375" lon="119.08926897682249546051025390625">
        <ele>705.4000244140625</ele>
        <time>2024-10-03T01:14:09.000Z</time>
        <extensions>
          <ns3:TrackPointExtension/>
        </extensions>
      </trkpt>
      <trkpt lat="30.30145998112857341766357421875" lon="119.08938196487724781036376953125">
        <ele>706</ele>
        <time>2024-10-03T01:14:19.000Z</time>
        <extensions>
          <ns3:TrackPointExtension/>
        </extensions>
      </trkpt>
      <trkpt lat="30.30145495198667049407958984375" lon="119.0895049273967742919921875">
        <ele>706.5999755859375</ele>
        <time>2024-10-03T01:14:29.000Z</time>
        <extensions>
          <ns3:TrackPointExtension/>
        </extensions>
      </trkpt>
      <trkpt lat="30.301437936723232269287109375" lon="119.08963694237172603607177734375">
        <ele>707</ele>
        <time>2024-10-03T01:14:43.000Z</time>
        <extensions>
          <ns3:TrackPointExtension/>
        </extensions>
      </trkpt>
      <trkpt lat="30.30138395726680755615234375" lon="119.08975898288190364837646484375">
        <ele>707.4000244140625</ele>
        <time>2024-10-03T01:14:49.000Z</time>
        <extensions>
          <ns3:TrackPointExtension/>
        </extensions>
      </trkpt>
      <trkpt lat="30.3013619966804981231689453125" lon="119.08987398259341716766357421875">
        <ele>708.4000244140625</ele>
        <time>2024-10-03T01:14:59.000Z</time>
        <extensions>
          <ns3:TrackPointExtension/>
        </extensions>
      </trkpt>
      <trkpt lat="30.3013589791953563690185546875" lon="119.0899449773132801055908203125">
        <ele>708.79998779296875</ele>
        <time>2024-10-03T01:15:05.000Z</time>
        <extensions>
          <ns3:TrackPointExtension/>
        </extensions>
      </trkpt>
      <trkpt lat="30.30136392451822757720947265625" lon="119.0900519303977489471435546875">
        <ele>709.4000244140625</ele>
        <time>2024-10-03T01:15:11.000Z</time>
        <extensions>
          <ns3:TrackPointExtension/>
        </extensions>
      </trkpt>
      <trkpt lat="30.30142192728817462921142578125" lon="119.090138934552669525146484375">
        <ele>710.4000244140625</ele>
        <time>2024-10-03T01:15:22.000Z</time>
        <extensions>
          <ns3:TrackPointExtension/>
        </extensions>
      </trkpt>
      <trkpt lat="30.30150993727147579193115234375" lon="119.09019894897937774658203125">
        <ele>711.5999755859375</ele>
        <time>2024-10-03T01:15:28.000Z</time>
        <extensions>
          <ns3:TrackPointExtension/>
        </extensions>
      </trkpt>
      <trkpt lat="30.3016439639031887054443359375" lon="119.090201966464519500732421875">
        <ele>713.4000244140625</ele>
        <time>2024-10-03T01:15:38.000Z</time>
        <extensions>
          <ns3:TrackPointExtension/>
        </extensions>
      </trkpt>
      <trkpt lat="30.30174496583640575408935546875" lon="119.0901709534227848052978515625">
        <ele>715.4000244140625</ele>
        <time>2024-10-03T01:15:56.000Z</time>
        <extensions>
          <ns3:TrackPointExtension/>
        </extensions>
      </trkpt>
      <trkpt lat="30.30180699191987514495849609375" lon="119.0902289561927318572998046875">
        <ele>715.4000244140625</ele>
        <time>2024-10-03T01:16:46.000Z</time>
        <extensions>
          <ns3:TrackPointExtension/>
        </extensions>
      </trkpt>
      <trkpt lat="30.3018679283559322357177734375" lon="119.090318977832794189453125">
        <ele>719.79998779296875</ele>
        <time>2024-10-03T01:16:58.000Z</time>
        <extensions>
          <ns3:TrackPointExtension/>
        </extensions>
      </trkpt>
      <trkpt lat="30.3019339777529239654541015625" lon="119.0903979353606700897216796875">
        <ele>722.20001220703125</ele>
        <time>2024-10-03T01:17:12.000Z</time>
        <extensions>
          <ns3:TrackPointExtension/>
        </extensions>
      </trkpt>
      <trkpt lat="30.3019939921796321868896484375" lon="119.09049793146550655364990234375">
        <ele>721.79998779296875</ele>
        <time>2024-10-03T01:17:24.000Z</time>
        <extensions>
          <ns3:TrackPointExtension/>
        </extensions>
      </trkpt>
      <trkpt lat="30.30207596719264984130859375" lon="119.09053095616400241851806640625">
        <ele>722</ele>
        <time>2024-10-03T01:17:36.000Z</time>
        <extensions>
          <ns3:TrackPointExtension/>
        </extensions>
      </trkpt>
      <trkpt lat="30.3021669946610927581787109375" lon="119.09056297503411769866943359375">
        <ele>728</ele>
        <time>2024-10-03T01:17:48.000Z</time>
        <extensions>
          <ns3:TrackPointExtension/>
        </extensions>
      </trkpt>
      <trkpt lat="30.30223698355257511138916015625" lon="119.0906349755823612213134765625">
        <ele>731.5999755859375</ele>
        <time>2024-10-03T01:17:54.000Z</time>
        <extensions>
          <ns3:TrackPointExtension/>
        </extensions>
      </trkpt>
      <trkpt lat="30.30231292359530925750732421875" lon="119.09069691784679889678955078125">
        <ele>734</ele>
        <time>2024-10-03T01:18:04.000Z</time>
        <extensions>
          <ns3:TrackPointExtension/>
        </extensions>
      </trkpt>
      <trkpt lat="30.30240395106375217437744140625" lon="119.09075592644512653350830078125">
        <ele>735.79998779296875</ele>
        <time>2024-10-03T01:18:18.000Z</time>
        <extensions>
          <ns3:TrackPointExtension/>
        </extensions>
      </trkpt>
      <trkpt lat="30.30249397270381450653076171875" lon="119.09081694670021533966064453125">
        <ele>736</ele>
        <time>2024-10-03T01:18:26.000Z</time>
        <extensions>
          <ns3:TrackPointExtension/>
        </extensions>
      </trkpt>
      <trkpt lat="30.30257795937359333038330078125" lon="119.0908689983189105987548828125">
        <ele>736.20001220703125</ele>
        <time>2024-10-03T01:18:32.000Z</time>
        <extensions>
          <ns3:TrackPointExtension/>
        </extensions>
      </trkpt>
      <trkpt lat="30.3026519715785980224609375" lon="119.090944938361644744873046875">
        <ele>737.5999755859375</ele>
        <time>2024-10-03T01:18:44.000Z</time>
        <extensions>
          <ns3:TrackPointExtension/>
        </extensions>
      </trkpt>
      <trkpt lat="30.3027379699051380157470703125" lon="119.09096798859536647796630859375">
        <ele>739</ele>
        <time>2024-10-03T01:18:56.000Z</time>
        <extensions>
          <ns3:TrackPointExtension/>
        </extensions>
      </trkpt>
      <trkpt lat="30.302815921604633331298828125" lon="119.0910349600017070770263671875">
        <ele>741</ele>
        <time>2024-10-03T01:19:04.000Z</time>
        <extensions>
          <ns3:TrackPointExtension/>
        </extensions>
      </trkpt>
      <trkpt lat="30.302880965173244476318359375" lon="119.09113998524844646453857421875">
        <ele>741.79998779296875</ele>
        <time>2024-10-03T01:19:12.000Z</time>
        <extensions>
          <ns3:TrackPointExtension/>
        </extensions>
      </trkpt>
      <trkpt lat="30.30294693075120449066162109375" lon="119.09122799523174762725830078125">
        <ele>743.5999755859375</ele>
        <time>2024-10-03T01:19:26.000Z</time>
        <extensions>
          <ns3:TrackPointExtension/>
        </extensions>
      </trkpt>
      <trkpt lat="30.30300996266305446624755859375" lon="119.0913249738514423370361328125">
        <ele>745.20001220703125</ele>
        <time>2024-10-03T01:19:38.000Z</time>
        <extensions>
          <ns3:TrackPointExtension/>
        </extensions>
      </trkpt>
      <trkpt lat="30.30307098291814327239990234375" lon="119.09141398966312408447265625">
        <ele>745</ele>
        <time>2024-10-03T01:19:50.000Z</time>
        <extensions>
          <ns3:TrackPointExtension/>
        </extensions>
      </trkpt>
      <trkpt lat="30.3031389601528644561767578125" lon="119.09150996245443820953369140625">
        <ele>744.5999755859375</ele>
        <time>2024-10-03T01:19:58.000Z</time>
        <extensions>
          <ns3:TrackPointExtension/>
        </extensions>
      </trkpt>
      <trkpt lat="30.30322395265102386474609375" lon="119.09154298715293407440185546875">
        <ele>745.20001220703125</ele>
        <time>2024-10-03T01:20:14.000Z</time>
        <extensions>
          <ns3:TrackPointExtension/>
        </extensions>
      </trkpt>
      <trkpt lat="30.3033179976046085357666015625" lon="119.09158699214458465576171875">
        <ele>748.20001220703125</ele>
        <time>2024-10-03T01:20:24.000Z</time>
        <extensions>
          <ns3:TrackPointExtension/>
        </extensions>
      </trkpt>
      <trkpt lat="30.30341598205268383026123046875" lon="119.0916139818727970123291015625">
        <ele>751</ele>
        <time>2024-10-03T01:20:36.000Z</time>
        <extensions>
          <ns3:TrackPointExtension/>
        </extensions>
      </trkpt>
      <trkpt lat="30.3035129606723785400390625" lon="119.09165597520768642425537109375">
        <ele>753.20001220703125</ele>
        <time>2024-10-03T01:20:48.000Z</time>
        <extensions>
          <ns3:TrackPointExtension/>
        </extensions>
      </trkpt>
      <trkpt lat="30.30357792042195796966552734375" lon="119.09173593856394290924072265625">
        <ele>755.79998779296875</ele>
        <time>2024-10-03T01:20:58.000Z</time>
        <extensions>
          <ns3:TrackPointExtension/>
        </extensions>
      </trkpt>
      <trkpt lat="30.30363692902028560638427734375" lon="119.09182093106210231781005859375">
        <ele>757.79998779296875</ele>
        <time>2024-10-03T01:21:06.000Z</time>
        <extensions>
          <ns3:TrackPointExtension/>
        </extensions>
      </trkpt>
      <trkpt lat="30.30369794927537441253662109375" lon="119.09190592356026172637939453125">
        <ele>758.5999755859375</ele>
        <time>2024-10-03T01:21:30.000Z</time>
        <extensions>
          <ns3:TrackPointExtension/>
        </extensions>
      </trkpt>
      <trkpt lat="30.30377992428839206695556640625" lon="119.091980941593647003173828125">
        <ele>759.4000244140625</ele>
        <time>2024-10-03T01:21:48.000Z</time>
        <extensions>
          <ns3:TrackPointExtension/>
        </extensions>
      </trkpt>
      <trkpt lat="30.303861983120441436767578125" lon="119.09205394797027111053466796875">
        <ele>760.79998779296875</ele>
        <time>2024-10-03T01:21:58.000Z</time>
        <extensions>
          <ns3:TrackPointExtension/>
        </extensions>
      </trkpt>
      <trkpt lat="30.30392392538487911224365234375" lon="119.09213692881166934967041015625">
        <ele>762</ele>
        <time>2024-10-03T01:22:08.000Z</time>
        <extensions>
          <ns3:TrackPointExtension/>
        </extensions>
      </trkpt>
      <trkpt lat="30.30396692454814910888671875" lon="119.0922399424016475677490234375">
        <ele>764.5999755859375</ele>
        <time>2024-10-03T01:22:18.000Z</time>
        <extensions>
          <ns3:TrackPointExtension/>
        </extensions>
      </trkpt>
      <trkpt lat="30.30402593314647674560546875" lon="119.092324934899806976318359375">
        <ele>767.20001220703125</ele>
        <time>2024-10-03T01:22:30.000Z</time>
        <extensions>
          <ns3:TrackPointExtension/>
        </extensions>
      </trkpt>
      <trkpt lat="30.3040869534015655517578125" lon="119.09240598790347576141357421875">
        <ele>770.79998779296875</ele>
        <time>2024-10-03T01:22:42.000Z</time>
        <extensions>
          <ns3:TrackPointExtension/>
        </extensions>
      </trkpt>
      <trkpt lat="30.30414998531341552734375" lon="119.09248796291649341583251953125">
        <ele>773</ele>
        <time>2024-10-03T01:22:54.000Z</time>
        <extensions>
          <ns3:TrackPointExtension/>
        </extensions>
      </trkpt>
      <trkpt lat="30.30422399751842021942138671875" lon="119.09256893210113048553466796875">
        <ele>774.20001220703125</ele>
        <time>2024-10-03T01:23:06.000Z</time>
        <extensions>
          <ns3:TrackPointExtension/>
        </extensions>
      </trkpt>
      <trkpt lat="30.3043149411678314208984375" lon="119.09260799176990985870361328125">
        <ele>774.79998779296875</ele>
        <time>2024-10-03T01:23:16.000Z</time>
        <extensions>
          <ns3:TrackPointExtension/>
        </extensions>
      </trkpt>
      <trkpt lat="30.3044049628078937530517578125" lon="119.09265694208443164825439453125">
        <ele>776</ele>
        <time>2024-10-03T01:23:32.000Z</time>
        <extensions>
          <ns3:TrackPointExtension/>
        </extensions>
      </trkpt>
      <trkpt lat="30.30445299111306667327880859375" lon="119.09275098703801631927490234375">
        <ele>775.5999755859375</ele>
        <time>2024-10-03T01:23:40.000Z</time>
        <extensions>
          <ns3:TrackPointExtension/>
        </extensions>
      </trkpt>
      <trkpt lat="30.3045189566910266876220703125" lon="119.0928249992430210113525390625">
        <ele>775</ele>
        <time>2024-10-03T01:23:50.000Z</time>
        <extensions>
          <ns3:TrackPointExtension/>
        </extensions>
      </trkpt>
      <trkpt lat="30.30459095723927021026611328125" lon="119.09288794733583927154541015625">
        <ele>775.4000244140625</ele>
        <time>2024-10-03T01:24:00.000Z</time>
        <extensions>
          <ns3:TrackPointExtension/>
        </extensions>
      </trkpt>
      <trkpt lat="30.30464292503893375396728515625" lon="119.0929889492690563201904296875">
        <ele>777.79998779296875</ele>
        <time>2024-10-03T01:24:14.000Z</time>
        <extensions>
          <ns3:TrackPointExtension/>
        </extensions>
      </trkpt>
      <trkpt lat="30.30471299774944782257080078125" lon="119.09306094981729984283447265625">
        <ele>780.20001220703125</ele>
        <time>2024-10-03T01:24:24.000Z</time>
        <extensions>
          <ns3:TrackPointExtension/>
        </extensions>
      </trkpt>
      <trkpt lat="30.30476697720587253570556640625" lon="119.09311291761696338653564453125">
        <ele>784</ele>
        <time>2024-10-03T01:24:38.000Z</time>
        <extensions>
          <ns3:TrackPointExtension/>
        </extensions>
      </trkpt>
      <trkpt lat="30.30479698441922664642333984375" lon="119.09320193342864513397216796875">
        <ele>787.20001220703125</ele>
        <time>2024-10-03T01:24:50.000Z</time>
        <extensions>
          <ns3:TrackPointExtension/>
        </extensions>
      </trkpt>
      <trkpt lat="30.3048039413988590240478515625" lon="119.0933109819889068603515625">
        <ele>788.79998779296875</ele>
        <time>2024-10-03T01:25:02.000Z</time>
        <extensions>
          <ns3:TrackPointExtension/>
        </extensions>
      </trkpt>
      <trkpt lat="30.3048629499971866607666015625" lon="119.09337895922362804412841796875">
        <ele>790</ele>
        <time>2024-10-03T01:25:22.000Z</time>
        <extensions>
          <ns3:TrackPointExtension/>
        </extensions>
      </trkpt>
      <trkpt lat="30.30490594916045665740966796875" lon="119.093472920358180999755859375">
        <ele>791.5999755859375</ele>
        <time>2024-10-03T01:25:32.000Z</time>
        <extensions>
          <ns3:TrackPointExtension/>
        </extensions>
      </trkpt>
      <trkpt lat="30.30496395193040370941162109375" lon="119.0935649536550045013427734375">
        <ele>793.20001220703125</ele>
        <time>2024-10-03T01:25:48.000Z</time>
        <extensions>
          <ns3:TrackPointExtension/>
        </extensions>
      </trkpt>
      <trkpt lat="30.30502396635711193084716796875" lon="119.09365497529506683349609375">
        <ele>796.20001220703125</ele>
        <time>2024-10-03T01:26:00.000Z</time>
        <extensions>
          <ns3:TrackPointExtension/>
        </extensions>
      </trkpt>
      <trkpt lat="30.3050899319350719451904296875" lon="119.09374994225800037384033203125">
        <ele>799.4000244140625</ele>
        <time>2024-10-03T01:26:14.000Z</time>
        <extensions>
          <ns3:TrackPointExtension/>
        </extensions>
      </trkpt>
      <trkpt lat="30.30516997911036014556884765625" lon="119.09383191727101802825927734375">
        <ele>803.79998779296875</ele>
        <time>2024-10-03T01:26:26.000Z</time>
        <extensions>
          <ns3:TrackPointExtension/>
        </extensions>
      </trkpt>
      <trkpt lat="30.3052109666168689727783203125" lon="119.09392998553812503814697265625">
        <ele>807.79998779296875</ele>
        <time>2024-10-03T01:26:36.000Z</time>
        <extensions>
          <ns3:TrackPointExtension/>
        </extensions>
      </trkpt>
      <trkpt lat="30.30524692498147487640380859375" lon="119.09403593279421329498291015625">
        <ele>810.79998779296875</ele>
        <time>2024-10-03T01:26:50.000Z</time>
        <extensions>
          <ns3:TrackPointExtension/>
        </extensions>
      </trkpt>
      <trkpt lat="30.30529193580150604248046875" lon="119.0941469930112361907958984375">
        <ele>814.20001220703125</ele>
        <time>2024-10-03T01:27:02.000Z</time>
        <extensions>
          <ns3:TrackPointExtension/>
        </extensions>
      </trkpt>
      <trkpt lat="30.30534599907696247100830078125" lon="119.09424397163093090057373046875">
        <ele>816</ele>
        <time>2024-10-03T01:27:14.000Z</time>
        <extensions>
          <ns3:TrackPointExtension/>
        </extensions>
      </trkpt>
      <trkpt lat="30.3053289838135242462158203125" lon="119.0943489968776702880859375">
        <ele>817</ele>
        <time>2024-10-03T01:27:28.000Z</time>
        <extensions>
          <ns3:TrackPointExtension/>
        </extensions>
      </trkpt>
      <trkpt lat="30.3053529560565948486328125" lon="119.094459973275661468505859375">
        <ele>816.20001220703125</ele>
        <time>2024-10-03T01:27:44.000Z</time>
        <extensions>
          <ns3:TrackPointExtension/>
        </extensions>
      </trkpt>
      <trkpt lat="30.30540995299816131591796875" lon="119.09455292858183383941650390625">
        <ele>815.5999755859375</ele>
        <time>2024-10-03T01:27:56.000Z</time>
        <extensions>
          <ns3:TrackPointExtension/>
        </extensions>
      </trkpt>
      <trkpt lat="30.30547591857612133026123046875" lon="119.0946549363434314727783203125">
        <ele>815.5999755859375</ele>
        <time>2024-10-03T01:28:12.000Z</time>
        <extensions>
          <ns3:TrackPointExtension/>
        </extensions>
      </trkpt>
      <trkpt lat="30.30553794465959072113037109375" lon="119.09475292079150676727294921875">
        <ele>817</ele>
        <time>2024-10-03T01:28:22.000Z</time>
        <extensions>
          <ns3:TrackPointExtension/>
        </extensions>
      </trkpt>
      <trkpt lat="30.30557692050933837890625" lon="119.09485794603824615478515625">
        <ele>818.79998779296875</ele>
        <time>2024-10-03T01:28:40.000Z</time>
        <extensions>
          <ns3:TrackPointExtension/>
        </extensions>
      </trkpt>
      <trkpt lat="30.3055809438228607177734375" lon="119.09496598877012729644775390625">
        <ele>821.20001220703125</ele>
        <time>2024-10-03T01:28:54.000Z</time>
        <extensions>
          <ns3:TrackPointExtension/>
        </extensions>
      </trkpt>
      <trkpt lat="30.30559997074306011199951171875" lon="119.09506992436945438385009765625">
        <ele>823.79998779296875</ele>
        <time>2024-10-03T01:29:06.000Z</time>
        <extensions>
          <ns3:TrackPointExtension/>
        </extensions>
      </trkpt>
      <trkpt lat="30.305636934936046600341796875" lon="119.0951709263026714324951171875">
        <ele>826</ele>
        <time>2024-10-03T01:29:16.000Z</time>
        <extensions>
          <ns3:TrackPointExtension/>
        </extensions>
      </trkpt>
      <trkpt lat="30.30568093992769718170166015625" lon="119.09527393989264965057373046875">
        <ele>829.20001220703125</ele>
        <time>2024-10-03T01:29:30.000Z</time>
        <extensions>
          <ns3:TrackPointExtension/>
        </extensions>
      </trkpt>
      <trkpt lat="30.30571195296943187713623046875" lon="119.095382988452911376953125">
        <ele>831.5999755859375</ele>
        <time>2024-10-03T01:29:40.000Z</time>
        <extensions>
          <ns3:TrackPointExtension/>
        </extensions>
      </trkpt>
      <trkpt lat="30.305748917162418365478515625" lon="119.09548097290098667144775390625">
        <ele>833.5999755859375</ele>
        <time>2024-10-03T01:29:50.000Z</time>
        <extensions>
          <ns3:TrackPointExtension/>
        </extensions>
      </trkpt>
      <trkpt lat="30.30576392076909542083740234375" lon="119.09559697844088077545166015625">
        <ele>835.79998779296875</ele>
        <time>2024-10-03T01:30:06.000Z</time>
        <extensions>
          <ns3:TrackPointExtension/>
        </extensions>
      </trkpt>
      <trkpt lat="30.3058389388024806976318359375" lon="119.09573494456708431243896484375">
        <ele>838.79998779296875</ele>
        <time>2024-10-03T01:30:30.000Z</time>
        <extensions>
          <ns3:TrackPointExtension/>
        </extensions>
      </trkpt>
      <trkpt lat="30.30587892048060894012451171875" lon="119.0958659537136554718017578125">
        <ele>841.4000244140625</ele>
        <time>2024-10-03T01:30:38.000Z</time>
        <extensions>
          <ns3:TrackPointExtension/>
        </extensions>
      </trkpt>
      <trkpt lat="30.3058929182589054107666015625" lon="119.0959839709103107452392578125">
        <ele>843.4000244140625</ele>
        <time>2024-10-03T01:30:48.000Z</time>
        <extensions>
          <ns3:TrackPointExtension/>
        </extensions>
      </trkpt>
      <trkpt lat="30.30591295100748538970947265625" lon="119.0961009822785854339599609375">
        <ele>846.5999755859375</ele>
        <time>2024-10-03T01:31:02.000Z</time>
        <extensions>
          <ns3:TrackPointExtension/>
        </extensions>
      </trkpt>
      <trkpt lat="30.30591194517910480499267578125" lon="119.0962119586765766143798828125">
        <ele>850</ele>
        <time>2024-10-03T01:31:14.000Z</time>
        <extensions>
          <ns3:TrackPointExtension/>
        </extensions>
      </trkpt>
      <trkpt lat="30.305929966270923614501953125" lon="119.09631698392331600189208984375">
        <ele>853.4000244140625</ele>
        <time>2024-10-03T01:31:28.000Z</time>
        <extensions>
          <ns3:TrackPointExtension/>
        </extensions>
      </trkpt>
      <trkpt lat="30.30594396404922008514404296875" lon="119.09642695449292659759521484375">
        <ele>856.79998779296875</ele>
        <time>2024-10-03T01:31:42.000Z</time>
        <extensions>
          <ns3:TrackPointExtension/>
        </extensions>
      </trkpt>
      <trkpt lat="30.305986963212490081787109375" lon="119.09654094837605953216552734375">
        <ele>859.5999755859375</ele>
        <time>2024-10-03T01:32:04.000Z</time>
        <extensions>
          <ns3:TrackPointExtension/>
        </extensions>
      </trkpt>
      <trkpt lat="30.3060159645974636077880859375" lon="119.096645973622798919677734375">
        <ele>862.4000244140625</ele>
        <time>2024-10-03T01:32:36.000Z</time>
        <extensions>
          <ns3:TrackPointExtension/>
        </extensions>
      </trkpt>
      <trkpt lat="30.306049995124340057373046875" lon="119.09677698276937007904052734375">
        <ele>866</ele>
        <time>2024-10-03T01:32:54.000Z</time>
        <extensions>
          <ns3:TrackPointExtension/>
        </extensions>
      </trkpt>
      <trkpt lat="30.3060759790241718292236328125" lon="119.0968979336321353912353515625">
        <ele>868.5999755859375</ele>
        <time>2024-10-03T01:33:06.000Z</time>
        <extensions>
          <ns3:TrackPointExtension/>
        </extensions>
      </trkpt>
      <trkpt lat="30.306102968752384185791015625" lon="119.0970159508287906646728515625">
        <ele>871</ele>
        <time>2024-10-03T01:33:14.000Z</time>
        <extensions>
          <ns3:TrackPointExtension/>
        </extensions>
      </trkpt>
      <trkpt lat="30.30615292489528656005859375" lon="119.09712198190391063690185546875">
        <ele>874</ele>
        <time>2024-10-03T01:33:30.000Z</time>
        <extensions>
          <ns3:TrackPointExtension/>
        </extensions>
      </trkpt>
      <trkpt lat="30.3061899729073047637939453125" lon="119.09723295830190181732177734375">
        <ele>876.20001220703125</ele>
        <time>2024-10-03T01:34:02.000Z</time>
        <extensions>
          <ns3:TrackPointExtension/>
        </extensions>
      </trkpt>
      <trkpt lat="30.3061909787356853485107421875" lon="119.09733898937702178955078125">
        <ele>879.5999755859375</ele>
        <time>2024-10-03T01:34:28.000Z</time>
        <extensions>
          <ns3:TrackPointExtension/>
        </extensions>
      </trkpt>
      <trkpt lat="30.30617396347224712371826171875" lon="119.097453989088535308837890625">
        <ele>880.79998779296875</ele>
        <time>2024-10-03T01:34:46.000Z</time>
        <extensions>
          <ns3:TrackPointExtension/>
        </extensions>
      </trkpt>
      <trkpt lat="30.306153930723667144775390625" lon="119.097568988800048828125">
        <ele>883</ele>
        <time>2024-10-03T01:35:02.000Z</time>
        <extensions>
          <ns3:TrackPointExtension/>
        </extensions>
      </trkpt>
      <trkpt lat="30.30615694820880889892578125" lon="119.097678959369659423828125">
        <ele>886.79998779296875</ele>
        <time>2024-10-03T01:35:10.000Z</time>
        <extensions>
          <ns3:TrackPointExtension/>
        </extensions>
      </trkpt>
      <trkpt lat="30.3061849437654018402099609375" lon="119.09778691828250885009765625">
        <ele>890.4000244140625</ele>
        <time>2024-10-03T01:35:22.000Z</time>
        <extensions>
          <ns3:TrackPointExtension/>
        </extensions>
      </trkpt>
      <trkpt lat="30.30619793571531772613525390625" lon="119.097914993762969970703125">
        <ele>893</ele>
        <time>2024-10-03T01:35:36.000Z</time>
        <extensions>
          <ns3:TrackPointExtension/>
        </extensions>
      </trkpt>
      <trkpt lat="30.306210927665233612060546875" lon="119.09803192131221294403076171875">
        <ele>894.20001220703125</ele>
        <time>2024-10-03T01:35:52.000Z</time>
        <extensions>
          <ns3:TrackPointExtension/>
        </extensions>
      </trkpt>
      <trkpt lat="30.3061869554221630096435546875" lon="119.0981649421155452728271484375">
        <ele>895.4000244140625</ele>
        <time>2024-10-03T01:36:50.000Z</time>
        <extensions>
          <ns3:TrackPointExtension/>
        </extensions>
      </trkpt>
      <trkpt lat="30.30620095320045948028564453125" lon="119.0982769243419170379638671875">
        <ele>897.79998779296875</ele>
        <time>2024-10-03T01:37:08.000Z</time>
        <extensions>
          <ns3:TrackPointExtension/>
        </extensions>
      </trkpt>
      <trkpt lat="30.3062139451503753662109375" lon="119.09838999621570110321044921875">
        <ele>899.5999755859375</ele>
        <time>2024-10-03T01:37:22.000Z</time>
        <extensions>
          <ns3:TrackPointExtension/>
        </extensions>
      </trkpt>
      <trkpt lat="30.30620397068560123443603515625" lon="119.09849694930016994476318359375">
        <ele>901.20001220703125</ele>
        <time>2024-10-03T01:37:30.000Z</time>
        <extensions>
          <ns3:TrackPointExtension/>
        </extensions>
      </trkpt>
      <trkpt lat="30.30617295764386653900146484375" lon="119.0986029803752899169921875">
        <ele>903.20001220703125</ele>
        <time>2024-10-03T01:37:38.000Z</time>
        <extensions>
          <ns3:TrackPointExtension/>
        </extensions>
      </trkpt>
      <trkpt lat="30.30611797235906124114990234375" lon="119.09869694150984287261962890625">
        <ele>906</ele>
        <time>2024-10-03T01:37:56.000Z</time>
        <extensions>
          <ns3:TrackPointExtension/>
        </extensions>
      </trkpt>
      <trkpt lat="30.30611294321715831756591796875" lon="119.0988059900701045989990234375">
        <ele>910.79998779296875</ele>
        <time>2024-10-03T01:38:06.000Z</time>
        <extensions>
          <ns3:TrackPointExtension/>
        </extensions>
      </trkpt>
      <trkpt lat="30.30611797235906124114990234375" lon="119.0989199839532375335693359375">
        <ele>916.79998779296875</ele>
        <time>2024-10-03T01:38:18.000Z</time>
        <extensions>
          <ns3:TrackPointExtension/>
        </extensions>
      </trkpt>
      <trkpt lat="30.30611696653068065643310546875" lon="119.0990359894931316375732421875">
        <ele>919.5999755859375</ele>
        <time>2024-10-03T01:38:28.000Z</time>
        <extensions>
          <ns3:TrackPointExtension/>
        </extensions>
      </trkpt>
      <trkpt lat="30.30614797957241535186767578125" lon="119.0991449542343616485595703125">
        <ele>920.79998779296875</ele>
        <time>2024-10-03T01:38:44.000Z</time>
        <extensions>
          <ns3:TrackPointExtension/>
        </extensions>
      </trkpt>
      <trkpt lat="30.30620799399912357330322265625" lon="119.09922994673252105712890625">
        <ele>922</ele>
        <time>2024-10-03T01:39:20.000Z</time>
        <extensions>
          <ns3:TrackPointExtension/>
        </extensions>
      </trkpt>
      <trkpt lat="30.30628192238509654998779296875" lon="119.0993119217455387115478515625">
        <ele>922.20001220703125</ele>
        <time>2024-10-03T01:39:48.000Z</time>
        <extensions>
          <ns3:TrackPointExtension/>
        </extensions>
      </trkpt>
      <trkpt lat="30.3063579462468624114990234375" lon="119.09939196892082691192626953125">
        <ele>926.4000244140625</ele>
        <time>2024-10-03T01:40:02.000Z</time>
        <extensions>
          <ns3:TrackPointExtension/>
        </extensions>
      </trkpt>
      <trkpt lat="30.30639893375337123870849609375" lon="119.09950093366205692291259765625">
        <ele>929.4000244140625</ele>
        <time>2024-10-03T01:40:08.000Z</time>
        <extensions>
          <ns3:TrackPointExtension/>
        </extensions>
      </trkpt>
      <trkpt lat="30.30645794235169887542724609375" lon="119.09959699027240276336669921875">
        <ele>929.79998779296875</ele>
        <time>2024-10-03T01:40:22.000Z</time>
        <extensions>
          <ns3:TrackPointExtension/>
        </extensions>
      </trkpt>
      <trkpt lat="30.30649892985820770263671875" lon="119.099696986377239227294921875">
        <ele>932.5999755859375</ele>
        <time>2024-10-03T01:40:32.000Z</time>
        <extensions>
          <ns3:TrackPointExtension/>
        </extensions>
      </trkpt>
      <trkpt lat="30.30655098147690296173095703125" lon="119.0997829847037792205810546875">
        <ele>934.20001220703125</ele>
        <time>2024-10-03T01:40:42.000Z</time>
        <extensions>
          <ns3:TrackPointExtension/>
        </extensions>
      </trkpt>
      <trkpt lat="30.30662097036838531494140625" lon="119.09984392113983631134033203125">
        <ele>937.4000244140625</ele>
        <time>2024-10-03T01:40:52.000Z</time>
        <extensions>
          <ns3:TrackPointExtension/>
        </extensions>
      </trkpt>
      <trkpt lat="30.30666497536003589630126953125" lon="119.0999499522149562835693359375">
        <ele>940.5999755859375</ele>
        <time>2024-10-03T01:41:08.000Z</time>
        <extensions>
          <ns3:TrackPointExtension/>
        </extensions>
      </trkpt>
      <trkpt lat="30.30669598840177059173583984375" lon="119.1000599227845668792724609375">
        <ele>940.79998779296875</ele>
        <time>2024-10-03T01:41:18.000Z</time>
        <extensions>
          <ns3:TrackPointExtension/>
        </extensions>
      </trkpt>
      <trkpt lat="30.3067059628665447235107421875" lon="119.1001779399812221527099609375">
        <ele>941.79998779296875</ele>
        <time>2024-10-03T01:41:30.000Z</time>
        <extensions>
          <ns3:TrackPointExtension/>
        </extensions>
      </trkpt>
      <trkpt lat="30.30668794177472591400146484375" lon="119.1002979688346385955810546875">
        <ele>943.20001220703125</ele>
        <time>2024-10-03T01:41:44.000Z</time>
        <extensions>
          <ns3:TrackPointExtension/>
        </extensions>
      </trkpt>
      <trkpt lat="30.30665894038975238800048828125" lon="119.1004119627177715301513671875">
        <ele>946.5999755859375</ele>
        <time>2024-10-03T01:42:02.000Z</time>
        <extensions>
          <ns3:TrackPointExtension/>
        </extensions>
      </trkpt>
      <trkpt lat="30.306623987853527069091796875" lon="119.10051899962127208709716796875">
        <ele>950.5999755859375</ele>
        <time>2024-10-03T01:42:16.000Z</time>
        <extensions>
          <ns3:TrackPointExtension/>
        </extensions>
      </trkpt>
      <trkpt lat="30.30660697259008884429931640625" lon="119.1006349213421344757080078125">
        <ele>954</ele>
        <time>2024-10-03T01:42:30.000Z</time>
        <extensions>
          <ns3:TrackPointExtension/>
        </extensions>
      </trkpt>
      <trkpt lat="30.30662097036838531494140625" lon="119.10074598155915737152099609375">
        <ele>956.79998779296875</ele>
        <time>2024-10-03T01:42:46.000Z</time>
        <extensions>
          <ns3:TrackPointExtension/>
        </extensions>
      </trkpt>
      <trkpt lat="30.306613929569721221923828125" lon="119.10085796378552913665771484375">
        <ele>958.79998779296875</ele>
        <time>2024-10-03T01:43:00.000Z</time>
        <extensions>
          <ns3:TrackPointExtension/>
        </extensions>
      </trkpt>
      <trkpt lat="30.306621976196765899658203125" lon="119.10096894018352031707763671875">
        <ele>961.4000244140625</ele>
        <time>2024-10-03T01:43:14.000Z</time>
        <extensions>
          <ns3:TrackPointExtension/>
        </extensions>
      </trkpt>
      <trkpt lat="30.30663798563182353973388671875" lon="119.101074971258640289306640625">
        <ele>964</ele>
        <time>2024-10-03T01:43:28.000Z</time>
        <extensions>
          <ns3:TrackPointExtension/>
        </extensions>
      </trkpt>
      <trkpt lat="30.30665692873299121856689453125" lon="119.101180918514728546142578125">
        <ele>966.5999755859375</ele>
        <time>2024-10-03T01:43:42.000Z</time>
        <extensions>
          <ns3:TrackPointExtension/>
        </extensions>
      </trkpt>
      <trkpt lat="30.30666598118841648101806640625" lon="119.1012959182262420654296875">
        <ele>969.79998779296875</ele>
        <time>2024-10-03T01:43:54.000Z</time>
        <extensions>
          <ns3:TrackPointExtension/>
        </extensions>
      </trkpt>
      <trkpt lat="30.3066479600965976715087890625" lon="119.10140396095812320709228515625">
        <ele>973</ele>
        <time>2024-10-03T01:44:14.000Z</time>
        <extensions>
          <ns3:TrackPointExtension/>
        </extensions>
      </trkpt>
      <trkpt lat="30.306625999510288238525390625" lon="119.10151191987097263336181640625">
        <ele>977</ele>
        <time>2024-10-03T01:44:32.000Z</time>
        <extensions>
          <ns3:TrackPointExtension/>
        </extensions>
      </trkpt>
      <trkpt lat="30.30666296370327472686767578125" lon="119.10160194151103496551513671875">
        <ele>980.20001220703125</ele>
        <time>2024-10-03T01:44:52.000Z</time>
        <extensions>
          <ns3:TrackPointExtension/>
        </extensions>
      </trkpt>
      <trkpt lat="30.30666195787489414215087890625" lon="119.1017089784145355224609375">
        <ele>984.5999755859375</ele>
        <time>2024-10-03T01:45:12.000Z</time>
        <extensions>
          <ns3:TrackPointExtension/>
        </extensions>
      </trkpt>
      <trkpt lat="30.30663798563182353973388671875" lon="119.10183194093406200408935546875">
        <ele>988.5999755859375</ele>
        <time>2024-10-03T01:45:40.000Z</time>
        <extensions>
          <ns3:TrackPointExtension/>
        </extensions>
      </trkpt>
      <trkpt lat="30.3065959922969341278076171875" lon="119.10193495452404022216796875">
        <ele>992.79998779296875</ele>
        <time>2024-10-03T01:45:50.000Z</time>
        <extensions>
          <ns3:TrackPointExtension/>
        </extensions>
      </trkpt>
      <trkpt lat="30.3065959922969341278076171875" lon="119.10193495452404022216796875">
        <ele>992.79998779296875</ele>
        <time>2024-10-03T01:46:29.000Z</time>
        <extensions>
          <ns3:TrackPointExtension/>
        </extensions>
      </trkpt>
    </trkseg>
  </trk>
</gpx>
