<gpx xmlns:ns3="http://www.garmin.com/xmlschemas/TrackPointExtension/v1" xmlns="http://www.topografix.com/GPX/1/1" xmlns:xsi="http://www.w3.org/2001/XMLSchema-instance" xmlns:ns2="http://www.garmin.com/xmlschemas/GpxExtensions/v3" creator="Garmin Connect" version="1.1" xsi:schemaLocation="http://www.topografix.com/GPX/1/1 http://www.topografix.com/GPX/11.xsd">
  <extensions>
<distance>3007.84</distance>
<average_hr>136.0</average_hr>
<average_speed>2.0320000648498535</average_speed>
<start_time>2026-04-01T13:57:08+00:00</start_time>
<end_time>2026-04-01T14:21:47.951000+00:00</end_time>
<moving_time>1452.0</moving_time>
<elapsed_time>1575.929</elapsed_time>
</extensions>
<metadata>
    <link href="connect.garmin.com">
      <text>Garmin Connect</text>
    </link>
    <time>2026-04-01T13:57:08.000Z</time>
  </metadata>
  <trk>
    <name>杭州市 跑步</name>
    <type>running</type>
    <trkseg>
      <trkpt lat="30.4381140880286693572998046875" lon="120.270268656313419342041015625">
        <ele>2.400000095367431640625</ele>
        <time>2026-04-01T14:20:30.000Z</time>
        <extensions>
          <ns3:TrackPointExtension>
            <ns3:hr>111</ns3:hr>
            <ns3:cad>92</ns3:cad>
          </ns3:TrackPointExtension>
        </extensions>
      </trkpt>
      <trkpt lat="30.43807947076857089996337890625" lon="120.2702751941978931427001953125">
        <ele>2.2000000476837158203125</ele>
        <time>2026-04-01T14:20:31.000Z</time>
        <extensions>
          <ns3:TrackPointExtension>
            <ns3:hr>110</ns3:hr>
            <ns3:cad>94</ns3:cad>
          </ns3:TrackPointExtension>
        </extensions>
      </trkpt>
      <trkpt lat="30.4380373097956180572509765625" lon="120.27028768323361873626708984375">
        <ele>2</ele>
        <time>2026-04-01T14:20:32.000Z</time>
        <extensions>
          <ns3:TrackPointExtension>
            <ns3:hr>110</ns3:hr>
            <ns3:cad>94</ns3:cad>
          </ns3:TrackPointExtension>
        </extensions>
      </trkpt>
      <trkpt lat="30.43799246661365032196044921875" lon="120.27030310593545436859130859375">
        <ele>2</ele>
        <time>2026-04-01T14:20:33.000Z</time>
        <extensions>
          <ns3:TrackPointExtension>
            <ns3:hr>111</ns3:hr>
            <ns3:cad>94</ns3:cad>
          </ns3:TrackPointExtension>
        </extensions>
      </trkpt>
      <trkpt lat="30.4379546642303466796875" lon="120.2703234739601612091064453125">
        <ele>1.7999999523162841796875</ele>
        <time>2026-04-01T14:20:34.000Z</time>
        <extensions>
          <ns3:TrackPointExtension>
            <ns3:hr>111</ns3:hr>
            <ns3:cad>94</ns3:cad>
          </ns3:TrackPointExtension>
        </extensions>
      </trkpt>
      <trkpt lat="30.43792474083602428436279296875" lon="120.27034384198486804962158203125">
        <ele>1.60000002384185791015625</ele>
        <time>2026-04-01T14:20:35.000Z</time>
        <extensions>
          <ns3:TrackPointExtension>
            <ns3:hr>110</ns3:hr>
            <ns3:cad>95</ns3:cad>
          </ns3:TrackPointExtension>
        </extensions>
      </trkpt>
      <trkpt lat="30.43789993040263652801513671875" lon="120.2703761123120784759521484375">
        <ele>1.60000002384185791015625</ele>
        <time>2026-04-01T14:20:36.000Z</time>
        <extensions>
          <ns3:TrackPointExtension>
            <ns3:hr>110</ns3:hr>
            <ns3:cad>95</ns3:cad>
          </ns3:TrackPointExtension>
        </extensions>
      </trkpt>
      <trkpt lat="30.4378797300159931182861328125" lon="120.2703903615474700927734375">
        <ele>1.60000002384185791015625</ele>
        <time>2026-04-01T14:20:37.000Z</time>
        <extensions>
          <ns3:TrackPointExtension>
            <ns3:hr>114</ns3:hr>
            <ns3:cad>94</ns3:cad>
          </ns3:TrackPointExtension>
        </extensions>
      </trkpt>
      <trkpt lat="30.43786020018160343170166015625" lon="120.27040653862059116363525390625">
        <ele>1.7999999523162841796875</ele>
        <time>2026-04-01T14:20:38.000Z</time>
        <extensions>
          <ns3:TrackPointExtension>
            <ns3:hr>113</ns3:hr>
            <ns3:cad>94</ns3:cad>
          </ns3:TrackPointExtension>
        </extensions>
      </trkpt>
      <trkpt lat="30.437839329242706298828125" lon="120.2704277448356151580810546875">
        <ele>1.7999999523162841796875</ele>
        <time>2026-04-01T14:20:39.000Z</time>
        <extensions>
          <ns3:TrackPointExtension>
            <ns3:hr>114</ns3:hr>
            <ns3:cad>94</ns3:cad>
          </ns3:TrackPointExtension>
        </extensions>
      </trkpt>
      <trkpt lat="30.43782583437860012054443359375" lon="120.2704414911568164825439453125">
        <ele>1.7999999523162841796875</ele>
        <time>2026-04-01T14:20:40.000Z</time>
        <extensions>
          <ns3:TrackPointExtension>
            <ns3:hr>115</ns3:hr>
            <ns3:cad>94</ns3:cad>
          </ns3:TrackPointExtension>
        </extensions>
      </trkpt>
      <trkpt lat="30.43781644664704799652099609375" lon="120.27043621055781841278076171875">
        <ele>1.7999999523162841796875</ele>
        <time>2026-04-01T14:20:41.000Z</time>
        <extensions>
          <ns3:TrackPointExtension>
            <ns3:hr>116</ns3:hr>
            <ns3:cad>94</ns3:cad>
          </ns3:TrackPointExtension>
        </extensions>
      </trkpt>
      <trkpt lat="30.4378123395144939422607421875" lon="120.27043134905397891998291015625">
        <ele>1.7999999523162841796875</ele>
        <time>2026-04-01T14:20:42.000Z</time>
        <extensions>
          <ns3:TrackPointExtension>
            <ns3:hr>116</ns3:hr>
            <ns3:cad>94</ns3:cad>
          </ns3:TrackPointExtension>
        </extensions>
      </trkpt>
      <trkpt lat="30.4378111660480499267578125" lon="120.27042162604629993438720703125">
        <ele>1.7999999523162841796875</ele>
        <time>2026-04-01T14:20:43.000Z</time>
        <extensions>
          <ns3:TrackPointExtension>
            <ns3:hr>115</ns3:hr>
            <ns3:cad>94</ns3:cad>
          </ns3:TrackPointExtension>
        </extensions>
      </trkpt>
      <trkpt lat="30.4378106631338596343994140625" lon="120.27041257359087467193603515625">
        <ele>1.7999999523162841796875</ele>
        <time>2026-04-01T14:20:44.000Z</time>
        <extensions>
          <ns3:TrackPointExtension>
            <ns3:hr>115</ns3:hr>
            <ns3:cad>94</ns3:cad>
          </ns3:TrackPointExtension>
        </extensions>
      </trkpt>
      <trkpt lat="30.43780940584838390350341796875" lon="120.2704010903835296630859375">
        <ele>1.7999999523162841796875</ele>
        <time>2026-04-01T14:20:45.000Z</time>
        <extensions>
          <ns3:TrackPointExtension>
            <ns3:hr>119</ns3:hr>
            <ns3:cad>94</ns3:cad>
          </ns3:TrackPointExtension>
        </extensions>
      </trkpt>
      <trkpt lat="30.43780513107776641845703125" lon="120.2703865058720111846923828125">
        <ele>1.60000002384185791015625</ele>
        <time>2026-04-01T14:20:46.000Z</time>
        <extensions>
          <ns3:TrackPointExtension>
            <ns3:hr>121</ns3:hr>
            <ns3:cad>94</ns3:cad>
          </ns3:TrackPointExtension>
        </extensions>
      </trkpt>
      <trkpt lat="30.43779934756457805633544921875" lon="120.2703742682933807373046875">
        <ele>1.60000002384185791015625</ele>
        <time>2026-04-01T14:20:47.000Z</time>
        <extensions>
          <ns3:TrackPointExtension>
            <ns3:hr>123</ns3:hr>
            <ns3:cad>68</ns3:cad>
          </ns3:TrackPointExtension>
        </extensions>
      </trkpt>
      <trkpt lat="30.43779331259429454803466796875" lon="120.27036312036216259002685546875">
        <ele>1.60000002384185791015625</ele>
        <time>2026-04-01T14:20:48.000Z</time>
        <extensions>
          <ns3:TrackPointExtension>
            <ns3:hr>125</ns3:hr>
            <ns3:cad>68</ns3:cad>
          </ns3:TrackPointExtension>
        </extensions>
      </trkpt>
      <trkpt lat="30.437782667577266693115234375" lon="120.270343758165836334228515625">
        <ele>1.60000002384185791015625</ele>
        <time>2026-04-01T14:20:49.000Z</time>
        <extensions>
          <ns3:TrackPointExtension>
            <ns3:hr>126</ns3:hr>
            <ns3:cad>68</ns3:cad>
          </ns3:TrackPointExtension>
        </extensions>
      </trkpt>
      <trkpt lat="30.43777051381766796112060546875" lon="120.27032070793211460113525390625">
        <ele>1.39999997615814208984375</ele>
        <time>2026-04-01T14:20:50.000Z</time>
        <extensions>
          <ns3:TrackPointExtension>
            <ns3:hr>128</ns3:hr>
            <ns3:cad>68</ns3:cad>
          </ns3:TrackPointExtension>
        </extensions>
      </trkpt>
      <trkpt lat="30.43775525875389575958251953125" lon="120.270300172269344329833984375">
        <ele>1.39999997615814208984375</ele>
        <time>2026-04-01T14:20:51.000Z</time>
        <extensions>
          <ns3:TrackPointExtension>
            <ns3:hr>129</ns3:hr>
            <ns3:cad>94</ns3:cad>
          </ns3:TrackPointExtension>
        </extensions>
      </trkpt>
      <trkpt lat="30.437739081680774688720703125" lon="120.2702857553958892822265625">
        <ele>1.39999997615814208984375</ele>
        <time>2026-04-01T14:20:52.000Z</time>
        <extensions>
          <ns3:TrackPointExtension>
            <ns3:hr>130</ns3:hr>
            <ns3:cad>94</ns3:cad>
          </ns3:TrackPointExtension>
        </extensions>
      </trkpt>
      <trkpt lat="30.43772508390247821807861328125" lon="120.27026362717151641845703125">
        <ele>1.39999997615814208984375</ele>
        <time>2026-04-01T14:20:53.000Z</time>
        <extensions>
          <ns3:TrackPointExtension>
            <ns3:hr>131</ns3:hr>
            <ns3:cad>92</ns3:cad>
          </ns3:TrackPointExtension>
        </extensions>
      </trkpt>
      <trkpt lat="30.43770949356257915496826171875" lon="120.27023839764297008514404296875">
        <ele>1.39999997615814208984375</ele>
        <time>2026-04-01T14:20:54.000Z</time>
        <extensions>
          <ns3:TrackPointExtension>
            <ns3:hr>132</ns3:hr>
            <ns3:cad>92</ns3:cad>
          </ns3:TrackPointExtension>
        </extensions>
      </trkpt>
      <trkpt lat="30.43769918382167816162109375" lon="120.27021442539989948272705078125">
        <ele>1.39999997615814208984375</ele>
        <time>2026-04-01T14:20:55.000Z</time>
        <extensions>
          <ns3:TrackPointExtension>
            <ns3:hr>133</ns3:hr>
            <ns3:cad>92</ns3:cad>
          </ns3:TrackPointExtension>
        </extensions>
      </trkpt>
      <trkpt lat="30.43769205920398235321044921875" lon="120.27019933797419071197509765625">
        <ele>1.39999997615814208984375</ele>
        <time>2026-04-01T14:20:56.000Z</time>
        <extensions>
          <ns3:TrackPointExtension>
            <ns3:hr>134</ns3:hr>
            <ns3:cad>93</ns3:cad>
          </ns3:TrackPointExtension>
        </extensions>
      </trkpt>
      <trkpt lat="30.43768099509179592132568359375" lon="120.2701771259307861328125">
        <ele>1.39999997615814208984375</ele>
        <time>2026-04-01T14:20:57.000Z</time>
        <extensions>
          <ns3:TrackPointExtension>
            <ns3:hr>135</ns3:hr>
            <ns3:cad>94</ns3:cad>
          </ns3:TrackPointExtension>
        </extensions>
      </trkpt>
      <trkpt lat="30.43767093680799007415771484375" lon="120.27015273459255695343017578125">
        <ele>1.60000002384185791015625</ele>
        <time>2026-04-01T14:20:58.000Z</time>
        <extensions>
          <ns3:TrackPointExtension>
            <ns3:hr>135</ns3:hr>
            <ns3:cad>94</ns3:cad>
          </ns3:TrackPointExtension>
        </extensions>
      </trkpt>
      <trkpt lat="30.437657274305820465087890625" lon="120.270130522549152374267578125">
        <ele>1.7999999523162841796875</ele>
        <time>2026-04-01T14:20:59.000Z</time>
        <extensions>
          <ns3:TrackPointExtension>
            <ns3:hr>135</ns3:hr>
            <ns3:cad>95</ns3:cad>
          </ns3:TrackPointExtension>
        </extensions>
      </trkpt>
      <trkpt lat="30.4376457072794437408447265625" lon="120.2701087296009063720703125">
        <ele>2</ele>
        <time>2026-04-01T14:21:00.000Z</time>
        <extensions>
          <ns3:TrackPointExtension>
            <ns3:hr>137</ns3:hr>
            <ns3:cad>94</ns3:cad>
          </ns3:TrackPointExtension>
        </extensions>
      </trkpt>
      <trkpt lat="30.43763992376625537872314453125" lon="120.2700860984623432159423828125">
        <ele>2.2000000476837158203125</ele>
        <time>2026-04-01T14:21:01.000Z</time>
        <extensions>
          <ns3:TrackPointExtension>
            <ns3:hr>138</ns3:hr>
            <ns3:cad>94</ns3:cad>
          </ns3:TrackPointExtension>
        </extensions>
      </trkpt>
      <trkpt lat="30.437631793320178985595703125" lon="120.2700757049024105072021484375">
        <ele>2.2000000476837158203125</ele>
        <time>2026-04-01T14:21:02.000Z</time>
        <extensions>
          <ns3:TrackPointExtension>
            <ns3:hr>139</ns3:hr>
            <ns3:cad>94</ns3:cad>
          </ns3:TrackPointExtension>
        </extensions>
      </trkpt>
      <trkpt lat="30.43762282468378543853759765625" lon="120.2700706757605075836181640625">
        <ele>2.400000095367431640625</ele>
        <time>2026-04-01T14:21:03.000Z</time>
        <extensions>
          <ns3:TrackPointExtension>
            <ns3:hr>139</ns3:hr>
            <ns3:cad>94</ns3:cad>
          </ns3:TrackPointExtension>
        </extensions>
      </trkpt>
      <trkpt lat="30.43760857544839382171630859375" lon="120.2700589410960674285888671875">
        <ele>2.400000095367431640625</ele>
        <time>2026-04-01T14:21:04.000Z</time>
        <extensions>
          <ns3:TrackPointExtension>
            <ns3:hr>140</ns3:hr>
            <ns3:cad>94</ns3:cad>
          </ns3:TrackPointExtension>
        </extensions>
      </trkpt>
      <trkpt lat="30.437595583498477935791015625" lon="120.27005416341125965118408203125">
        <ele>2.599999904632568359375</ele>
        <time>2026-04-01T14:21:05.000Z</time>
        <extensions>
          <ns3:TrackPointExtension>
            <ns3:hr>141</ns3:hr>
            <ns3:cad>94</ns3:cad>
          </ns3:TrackPointExtension>
        </extensions>
      </trkpt>
      <trkpt lat="30.4375846870243549346923828125" lon="120.27004444040358066558837890625">
        <ele>2.599999904632568359375</ele>
        <time>2026-04-01T14:21:06.000Z</time>
        <extensions>
          <ns3:TrackPointExtension>
            <ns3:hr>142</ns3:hr>
            <ns3:cad>94</ns3:cad>
          </ns3:TrackPointExtension>
        </extensions>
      </trkpt>
      <trkpt lat="30.4375763051211833953857421875" lon="120.27003186754882335662841796875">
        <ele>2.7999999523162841796875</ele>
        <time>2026-04-01T14:21:07.000Z</time>
        <extensions>
          <ns3:TrackPointExtension>
            <ns3:hr>142</ns3:hr>
            <ns3:cad>67</ns3:cad>
          </ns3:TrackPointExtension>
        </extensions>
      </trkpt>
      <trkpt lat="30.4375746287405490875244140625" lon="120.27001460082828998565673828125">
        <ele>2.7999999523162841796875</ele>
        <time>2026-04-01T14:21:08.000Z</time>
        <extensions>
          <ns3:TrackPointExtension>
            <ns3:hr>142</ns3:hr>
            <ns3:cad>66</ns3:cad>
          </ns3:TrackPointExtension>
        </extensions>
      </trkpt>
      <trkpt lat="30.43756850995123386383056640625" lon="120.27000051923096179962158203125">
        <ele>3</ele>
        <time>2026-04-01T14:21:09.000Z</time>
        <extensions>
          <ns3:TrackPointExtension>
            <ns3:hr>142</ns3:hr>
            <ns3:cad>66</ns3:cad>
          </ns3:TrackPointExtension>
        </extensions>
      </trkpt>
      <trkpt lat="30.4375662468373775482177734375" lon="120.2699892036616802215576171875">
        <ele>3.2000000476837158203125</ele>
        <time>2026-04-01T14:21:10.000Z</time>
        <extensions>
          <ns3:TrackPointExtension>
            <ns3:hr>142</ns3:hr>
            <ns3:cad>66</ns3:cad>
          </ns3:TrackPointExtension>
        </extensions>
      </trkpt>
      <trkpt lat="30.43757001869380474090576171875" lon="120.2699714340269565582275390625">
        <ele>3.2000000476837158203125</ele>
        <time>2026-04-01T14:21:11.000Z</time>
        <extensions>
          <ns3:TrackPointExtension>
            <ns3:hr>142</ns3:hr>
            <ns3:cad>66</ns3:cad>
          </ns3:TrackPointExtension>
        </extensions>
      </trkpt>
      <trkpt lat="30.4375652410089969635009765625" lon="120.26995056308805942535400390625">
        <ele>3.400000095367431640625</ele>
        <time>2026-04-01T14:21:12.000Z</time>
        <extensions>
          <ns3:TrackPointExtension>
            <ns3:hr>141</ns3:hr>
            <ns3:cad>65</ns3:cad>
          </ns3:TrackPointExtension>
        </extensions>
      </trkpt>
      <trkpt lat="30.437556020915508270263671875" lon="120.26993312872946262359619140625">
        <ele>3.599999904632568359375</ele>
        <time>2026-04-01T14:21:13.000Z</time>
        <extensions>
          <ns3:TrackPointExtension>
            <ns3:hr>140</ns3:hr>
            <ns3:cad>65</ns3:cad>
          </ns3:TrackPointExtension>
        </extensions>
      </trkpt>
      <trkpt lat="30.43754822574555873870849609375" lon="120.26991762220859527587890625">
        <ele>3.599999904632568359375</ele>
        <time>2026-04-01T14:21:14.000Z</time>
        <extensions>
          <ns3:TrackPointExtension>
            <ns3:hr>139</ns3:hr>
            <ns3:cad>65</ns3:cad>
          </ns3:TrackPointExtension>
        </extensions>
      </trkpt>
      <trkpt lat="30.437537916004657745361328125" lon="120.269903875887393951416015625">
        <ele>3.7999999523162841796875</ele>
        <time>2026-04-01T14:21:15.000Z</time>
        <extensions>
          <ns3:TrackPointExtension>
            <ns3:hr>138</ns3:hr>
            <ns3:cad>65</ns3:cad>
          </ns3:TrackPointExtension>
        </extensions>
      </trkpt>
      <trkpt lat="30.43752794153988361358642578125" lon="120.269889123737812042236328125">
        <ele>4</ele>
        <time>2026-04-01T14:21:16.000Z</time>
        <extensions>
          <ns3:TrackPointExtension>
            <ns3:hr>136</ns3:hr>
            <ns3:cad>66</ns3:cad>
          </ns3:TrackPointExtension>
        </extensions>
      </trkpt>
      <trkpt lat="30.43751469813287258148193359375" lon="120.26987495832145214080810546875">
        <ele>4.19999980926513671875</ele>
        <time>2026-04-01T14:21:17.000Z</time>
        <extensions>
          <ns3:TrackPointExtension>
            <ns3:hr>135</ns3:hr>
            <ns3:cad>66</ns3:cad>
          </ns3:TrackPointExtension>
        </extensions>
      </trkpt>
      <trkpt lat="30.43750061653554439544677734375" lon="120.269854255020618438720703125">
        <ele>4.400000095367431640625</ele>
        <time>2026-04-01T14:21:18.000Z</time>
        <extensions>
          <ns3:TrackPointExtension>
            <ns3:hr>134</ns3:hr>
            <ns3:cad>66</ns3:cad>
          </ns3:TrackPointExtension>
        </extensions>
      </trkpt>
      <trkpt lat="30.43748821131885051727294921875" lon="120.2698349766433238983154296875">
        <ele>4.400000095367431640625</ele>
        <time>2026-04-01T14:21:19.000Z</time>
        <extensions>
          <ns3:TrackPointExtension>
            <ns3:hr>134</ns3:hr>
            <ns3:cad>90</ns3:cad>
          </ns3:TrackPointExtension>
        </extensions>
      </trkpt>
      <trkpt lat="30.43747614137828350067138671875" lon="120.2698151953518390655517578125">
        <ele>4.599999904632568359375</ele>
        <time>2026-04-01T14:21:20.000Z</time>
        <extensions>
          <ns3:TrackPointExtension>
            <ns3:hr>134</ns3:hr>
            <ns3:cad>94</ns3:cad>
          </ns3:TrackPointExtension>
        </extensions>
      </trkpt>
      <trkpt lat="30.43746490962803363800048828125" lon="120.26979214511811733245849609375">
        <ele>4.80000019073486328125</ele>
        <time>2026-04-01T14:21:21.000Z</time>
        <extensions>
          <ns3:TrackPointExtension>
            <ns3:hr>134</ns3:hr>
            <ns3:cad>94</ns3:cad>
          </ns3:TrackPointExtension>
        </extensions>
      </trkpt>
      <trkpt lat="30.4374532587826251983642578125" lon="120.26976146735250949859619140625">
        <ele>5.19999980926513671875</ele>
        <time>2026-04-01T14:21:22.000Z</time>
        <extensions>
          <ns3:TrackPointExtension>
            <ns3:hr>133</ns3:hr>
            <ns3:cad>94</ns3:cad>
          </ns3:TrackPointExtension>
        </extensions>
      </trkpt>
      <trkpt lat="30.43744043447077274322509765625" lon="120.2697397582232952117919921875">
        <ele>5.19999980926513671875</ele>
        <time>2026-04-01T14:21:23.000Z</time>
        <extensions>
          <ns3:TrackPointExtension>
            <ns3:hr>133</ns3:hr>
            <ns3:cad>94</ns3:cad>
          </ns3:TrackPointExtension>
        </extensions>
      </trkpt>
      <trkpt lat="30.43742685578763484954833984375" lon="120.26972073130309581756591796875">
        <ele>5.400000095367431640625</ele>
        <time>2026-04-01T14:21:24.000Z</time>
        <extensions>
          <ns3:TrackPointExtension>
            <ns3:hr>133</ns3:hr>
            <ns3:cad>94</ns3:cad>
          </ns3:TrackPointExtension>
        </extensions>
      </trkpt>
      <trkpt lat="30.43741780333220958709716796875" lon="120.26969969272613525390625">
        <ele>5.599999904632568359375</ele>
        <time>2026-04-01T14:21:25.000Z</time>
        <extensions>
          <ns3:TrackPointExtension>
            <ns3:hr>133</ns3:hr>
            <ns3:cad>95</ns3:cad>
          </ns3:TrackPointExtension>
        </extensions>
      </trkpt>
      <trkpt lat="30.43741093017160892486572265625" lon="120.26967530138790607452392578125">
        <ele>5.80000019073486328125</ele>
        <time>2026-04-01T14:21:26.000Z</time>
        <extensions>
          <ns3:TrackPointExtension>
            <ns3:hr>133</ns3:hr>
            <ns3:cad>95</ns3:cad>
          </ns3:TrackPointExtension>
        </extensions>
      </trkpt>
      <trkpt lat="30.43740472756326198577880859375" lon="120.2696581184864044189453125">
        <ele>5.80000019073486328125</ele>
        <time>2026-04-01T14:21:27.000Z</time>
        <extensions>
          <ns3:TrackPointExtension>
            <ns3:hr>133</ns3:hr>
            <ns3:cad>93</ns3:cad>
          </ns3:TrackPointExtension>
        </extensions>
      </trkpt>
      <trkpt lat="30.43739584274590015411376953125" lon="120.2696385048329830169677734375">
        <ele>6</ele>
        <time>2026-04-01T14:21:28.000Z</time>
        <extensions>
          <ns3:TrackPointExtension>
            <ns3:hr>133</ns3:hr>
            <ns3:cad>93</ns3:cad>
          </ns3:TrackPointExtension>
        </extensions>
      </trkpt>
      <trkpt lat="30.43738762848079204559326171875" lon="120.26962417177855968475341796875">
        <ele>6</ele>
        <time>2026-04-01T14:21:29.000Z</time>
        <extensions>
          <ns3:TrackPointExtension>
            <ns3:hr>133</ns3:hr>
            <ns3:cad>93</ns3:cad>
          </ns3:TrackPointExtension>
        </extensions>
      </trkpt>
      <trkpt lat="30.43737857602536678314208984375" lon="120.2696113474667072296142578125">
        <ele>6</ele>
        <time>2026-04-01T14:21:30.000Z</time>
        <extensions>
          <ns3:TrackPointExtension>
            <ns3:hr>133</ns3:hr>
            <ns3:cad>93</ns3:cad>
          </ns3:TrackPointExtension>
        </extensions>
      </trkpt>
      <trkpt lat="30.43737589381635189056396484375" lon="120.26959600858390331268310546875">
        <ele>6</ele>
        <time>2026-04-01T14:21:31.000Z</time>
        <extensions>
          <ns3:TrackPointExtension>
            <ns3:hr>134</ns3:hr>
            <ns3:cad>93</ns3:cad>
          </ns3:TrackPointExtension>
        </extensions>
      </trkpt>
      <trkpt lat="30.437367595732212066650390625" lon="120.2695784904062747955322265625">
        <ele>6</ele>
        <time>2026-04-01T14:21:32.000Z</time>
        <extensions>
          <ns3:TrackPointExtension>
            <ns3:hr>135</ns3:hr>
            <ns3:cad>66</ns3:cad>
          </ns3:TrackPointExtension>
        </extensions>
      </trkpt>
      <trkpt lat="30.437359549105167388916015625" lon="120.26956130750477313995361328125">
        <ele>6</ele>
        <time>2026-04-01T14:21:33.000Z</time>
        <extensions>
          <ns3:TrackPointExtension>
            <ns3:hr>135</ns3:hr>
            <ns3:cad>66</ns3:cad>
          </ns3:TrackPointExtension>
        </extensions>
      </trkpt>
      <trkpt lat="30.43734781444072723388671875" lon="120.2695476450026035308837890625">
        <ele>6</ele>
        <time>2026-04-01T14:21:34.000Z</time>
        <extensions>
          <ns3:TrackPointExtension>
            <ns3:hr>135</ns3:hr>
            <ns3:cad>66</ns3:cad>
          </ns3:TrackPointExtension>
        </extensions>
      </trkpt>
      <trkpt lat="30.43733968399465084075927734375" lon="120.2695295400917530059814453125">
        <ele>6</ele>
        <time>2026-04-01T14:21:35.000Z</time>
        <extensions>
          <ns3:TrackPointExtension>
            <ns3:hr>135</ns3:hr>
            <ns3:cad>65</ns3:cad>
          </ns3:TrackPointExtension>
        </extensions>
      </trkpt>
      <trkpt lat="30.43732979334890842437744140625" lon="120.26951587758958339691162109375">
        <ele>6</ele>
        <time>2026-04-01T14:21:36.000Z</time>
        <extensions>
          <ns3:TrackPointExtension>
            <ns3:hr>135</ns3:hr>
            <ns3:cad>65</ns3:cad>
          </ns3:TrackPointExtension>
        </extensions>
      </trkpt>
      <trkpt lat="30.43732308782637119293212890625" lon="120.26950380764901638031005859375">
        <ele>6</ele>
        <time>2026-04-01T14:21:37.000Z</time>
        <extensions>
          <ns3:TrackPointExtension>
            <ns3:hr>134</ns3:hr>
            <ns3:cad>65</ns3:cad>
          </ns3:TrackPointExtension>
        </extensions>
      </trkpt>
      <trkpt lat="30.43731990270316600799560546875" lon="120.26948771439492702484130859375">
        <ele>6</ele>
        <time>2026-04-01T14:21:38.000Z</time>
        <extensions>
          <ns3:TrackPointExtension>
            <ns3:hr>134</ns3:hr>
            <ns3:cad>65</ns3:cad>
          </ns3:TrackPointExtension>
        </extensions>
      </trkpt>
      <trkpt lat="30.4373168013989925384521484375" lon="120.26947363279759883880615234375">
        <ele>6</ele>
        <time>2026-04-01T14:21:39.000Z</time>
        <extensions>
          <ns3:TrackPointExtension>
            <ns3:hr>134</ns3:hr>
            <ns3:cad>65</ns3:cad>
          </ns3:TrackPointExtension>
        </extensions>
      </trkpt>
      <trkpt lat="30.4373168013989925384521484375" lon="120.2694608084857463836669921875">
        <ele>6</ele>
        <time>2026-04-01T14:21:40.000Z</time>
        <extensions>
          <ns3:TrackPointExtension>
            <ns3:hr>133</ns3:hr>
            <ns3:cad>65</ns3:cad>
          </ns3:TrackPointExtension>
        </extensions>
      </trkpt>
      <trkpt lat="30.43731235899031162261962890625" lon="120.269447900354862213134765625">
        <ele>6</ele>
        <time>2026-04-01T14:21:41.000Z</time>
        <extensions>
          <ns3:TrackPointExtension>
            <ns3:hr>133</ns3:hr>
            <ns3:cad>65</ns3:cad>
          </ns3:TrackPointExtension>
        </extensions>
      </trkpt>
      <trkpt lat="30.4373094253242015838623046875" lon="120.26942602358758449554443359375">
        <ele>6</ele>
        <time>2026-04-01T14:21:42.000Z</time>
        <extensions>
          <ns3:TrackPointExtension>
            <ns3:hr>133</ns3:hr>
            <ns3:cad>65</ns3:cad>
          </ns3:TrackPointExtension>
        </extensions>
      </trkpt>
      <trkpt lat="30.43730665929615497589111328125" lon="120.269415043294429779052734375">
        <ele>6</ele>
        <time>2026-04-01T14:21:43.000Z</time>
        <extensions>
          <ns3:TrackPointExtension>
            <ns3:hr>132</ns3:hr>
            <ns3:cad>65</ns3:cad>
          </ns3:TrackPointExtension>
        </extensions>
      </trkpt>
      <trkpt lat="30.4373030550777912139892578125" lon="120.26940138079226016998291015625">
        <ele>6</ele>
        <time>2026-04-01T14:21:44.000Z</time>
        <extensions>
          <ns3:TrackPointExtension>
            <ns3:hr>132</ns3:hr>
            <ns3:cad>64</ns3:cad>
          </ns3:TrackPointExtension>
        </extensions>
      </trkpt>
      <trkpt lat="30.437285117805004119873046875" lon="120.26939501054584980010986328125">
        <ele>6</ele>
        <time>2026-04-01T14:21:45.000Z</time>
        <extensions>
          <ns3:TrackPointExtension>
            <ns3:hr>132</ns3:hr>
            <ns3:cad>64</ns3:cad>
          </ns3:TrackPointExtension>
        </extensions>
      </trkpt>
      <trkpt lat="30.4372712038457393646240234375" lon="120.26938243769109249114990234375">
        <ele>6</ele>
        <time>2026-04-01T14:21:46.000Z</time>
        <extensions>
          <ns3:TrackPointExtension>
            <ns3:hr>131</ns3:hr>
            <ns3:cad>64</ns3:cad>
          </ns3:TrackPointExtension>
        </extensions>
      </trkpt>
      <trkpt lat="30.4372587986290454864501953125" lon="120.2693733014166355133056640625">
        <ele>6</ele>
        <time>2026-04-01T14:21:47.000Z</time>
        <extensions>
          <ns3:TrackPointExtension>
            <ns3:hr>131</ns3:hr>
            <ns3:cad>64</ns3:cad>
          </ns3:TrackPointExtension>
        </extensions>
      </trkpt>
      <trkpt lat="30.43725385330617427825927734375" lon="120.26935544796288013458251953125">
        <ele>6</ele>
        <time>2026-04-01T14:21:48.000Z</time>
        <extensions>
          <ns3:TrackPointExtension>
            <ns3:hr>130</ns3:hr>
            <ns3:cad>64</ns3:cad>
          </ns3:TrackPointExtension>
        </extensions>
      </trkpt>
      <trkpt lat="30.43724429793655872344970703125" lon="120.26934538967907428741455078125">
        <ele>6</ele>
        <time>2026-04-01T14:21:49.000Z</time>
        <extensions>
          <ns3:TrackPointExtension>
            <ns3:hr>130</ns3:hr>
            <ns3:cad>65</ns3:cad>
          </ns3:TrackPointExtension>
        </extensions>
      </trkpt>
      <trkpt lat="30.43722954578697681427001953125" lon="120.2693340741097927093505859375">
        <ele>6.19999980926513671875</ele>
        <time>2026-04-01T14:21:50.000Z</time>
        <extensions>
          <ns3:TrackPointExtension>
            <ns3:hr>129</ns3:hr>
            <ns3:cad>65</ns3:cad>
          </ns3:TrackPointExtension>
        </extensions>
      </trkpt>
      <trkpt lat="30.43722200207412242889404296875" lon="120.26931772939860820770263671875">
        <ele>6.19999980926513671875</ele>
        <time>2026-04-01T14:21:51.000Z</time>
        <extensions>
          <ns3:TrackPointExtension>
            <ns3:hr>128</ns3:hr>
            <ns3:cad>64</ns3:cad>
          </ns3:TrackPointExtension>
        </extensions>
      </trkpt>
      <trkpt lat="30.43721093796193599700927734375" lon="120.26930834166705608367919921875">
        <ele>6.19999980926513671875</ele>
        <time>2026-04-01T14:21:52.000Z</time>
        <extensions>
          <ns3:TrackPointExtension>
            <ns3:hr>127</ns3:hr>
            <ns3:cad>64</ns3:cad>
          </ns3:TrackPointExtension>
        </extensions>
      </trkpt>
      <trkpt lat="30.43719652108848094940185546875" lon="120.269298367202281951904296875">
        <ele>6.19999980926513671875</ele>
        <time>2026-04-01T14:21:53.000Z</time>
        <extensions>
          <ns3:TrackPointExtension>
            <ns3:hr>126</ns3:hr>
            <ns3:cad>64</ns3:cad>
          </ns3:TrackPointExtension>
        </extensions>
      </trkpt>
      <trkpt lat="30.4371823556721210479736328125" lon="120.26929543353617191314697265625">
        <ele>6.19999980926513671875</ele>
        <time>2026-04-01T14:21:54.000Z</time>
        <extensions>
          <ns3:TrackPointExtension>
            <ns3:hr>127</ns3:hr>
            <ns3:cad>64</ns3:cad>
          </ns3:TrackPointExtension>
        </extensions>
      </trkpt>
      <trkpt lat="30.437165088951587677001953125" lon="120.2692921645939350128173828125">
        <ele>6.19999980926513671875</ele>
        <time>2026-04-01T14:21:55.000Z</time>
        <extensions>
          <ns3:TrackPointExtension>
            <ns3:hr>127</ns3:hr>
            <ns3:cad>64</ns3:cad>
          </ns3:TrackPointExtension>
        </extensions>
      </trkpt>
      <trkpt lat="30.43715603649616241455078125" lon="120.26928336359560489654541015625">
        <ele>6.19999980926513671875</ele>
        <time>2026-04-01T14:21:56.000Z</time>
        <extensions>
          <ns3:TrackPointExtension>
            <ns3:hr>128</ns3:hr>
            <ns3:cad>64</ns3:cad>
          </ns3:TrackPointExtension>
        </extensions>
      </trkpt>
      <trkpt lat="30.43715343810617923736572265625" lon="120.26926995255053043365478515625">
        <ele>6.400000095367431640625</ele>
        <time>2026-04-01T14:21:57.000Z</time>
        <extensions>
          <ns3:TrackPointExtension>
            <ns3:hr>129</ns3:hr>
            <ns3:cad>64</ns3:cad>
          </ns3:TrackPointExtension>
        </extensions>
      </trkpt>
      <trkpt lat="30.43714405037462711334228515625" lon="120.26925779879093170166015625">
        <ele>6.400000095367431640625</ele>
        <time>2026-04-01T14:21:58.000Z</time>
        <extensions>
          <ns3:TrackPointExtension>
            <ns3:hr>129</ns3:hr>
            <ns3:cad>64</ns3:cad>
          </ns3:TrackPointExtension>
        </extensions>
      </trkpt>
      <trkpt lat="30.4371347464621067047119140625" lon="120.26925017125904560089111328125">
        <ele>6.400000095367431640625</ele>
        <time>2026-04-01T14:21:59.000Z</time>
        <extensions>
          <ns3:TrackPointExtension>
            <ns3:hr>129</ns3:hr>
            <ns3:cad>64</ns3:cad>
          </ns3:TrackPointExtension>
        </extensions>
      </trkpt>
      <trkpt lat="30.43711806647479534149169921875" lon="120.269237346947193145751953125">
        <ele>6.400000095367431640625</ele>
        <time>2026-04-01T14:22:00.000Z</time>
        <extensions>
          <ns3:TrackPointExtension>
            <ns3:hr>129</ns3:hr>
            <ns3:cad>64</ns3:cad>
          </ns3:TrackPointExtension>
        </extensions>
      </trkpt>
      <trkpt lat="30.43710784055292606353759765625" lon="120.2692200802266597747802734375">
        <ele>6.599999904632568359375</ele>
        <time>2026-04-01T14:22:01.000Z</time>
        <extensions>
          <ns3:TrackPointExtension>
            <ns3:hr>129</ns3:hr>
            <ns3:cad>64</ns3:cad>
          </ns3:TrackPointExtension>
        </extensions>
      </trkpt>
      <trkpt lat="30.43709845282137393951416015625" lon="120.26920775882899761199951171875">
        <ele>6.599999904632568359375</ele>
        <time>2026-04-01T14:22:02.000Z</time>
        <extensions>
          <ns3:TrackPointExtension>
            <ns3:hr>128</ns3:hr>
            <ns3:cad>64</ns3:cad>
          </ns3:TrackPointExtension>
        </extensions>
      </trkpt>
      <trkpt lat="30.43709040619432926177978515625" lon="120.26919250376522541046142578125">
        <ele>6.599999904632568359375</ele>
        <time>2026-04-01T14:22:03.000Z</time>
        <extensions>
          <ns3:TrackPointExtension>
            <ns3:hr>126</ns3:hr>
            <ns3:cad>64</ns3:cad>
          </ns3:TrackPointExtension>
        </extensions>
      </trkpt>
      <trkpt lat="30.43708470650017261505126953125" lon="120.2691780030727386474609375">
        <ele>6.599999904632568359375</ele>
        <time>2026-04-01T14:22:04.000Z</time>
        <extensions>
          <ns3:TrackPointExtension>
            <ns3:hr>126</ns3:hr>
            <ns3:cad>64</ns3:cad>
          </ns3:TrackPointExtension>
        </extensions>
      </trkpt>
      <trkpt lat="30.437081940472126007080078125" lon="120.26916383765637874603271484375">
        <ele>6.80000019073486328125</ele>
        <time>2026-04-01T14:22:05.000Z</time>
        <extensions>
          <ns3:TrackPointExtension>
            <ns3:hr>125</ns3:hr>
            <ns3:cad>63</ns3:cad>
          </ns3:TrackPointExtension>
        </extensions>
      </trkpt>
      <trkpt lat="30.43707582168281078338623046875" lon="120.2691540308296680450439453125">
        <ele>6.80000019073486328125</ele>
        <time>2026-04-01T14:22:06.000Z</time>
        <extensions>
          <ns3:TrackPointExtension>
            <ns3:hr>125</ns3:hr>
            <ns3:cad>63</ns3:cad>
          </ns3:TrackPointExtension>
        </extensions>
      </trkpt>
      <trkpt lat="30.43706945143640041351318359375" lon="120.26914724148809909820556640625">
        <ele>6.80000019073486328125</ele>
        <time>2026-04-01T14:22:07.000Z</time>
        <extensions>
          <ns3:TrackPointExtension>
            <ns3:hr>124</ns3:hr>
            <ns3:cad>63</ns3:cad>
          </ns3:TrackPointExtension>
        </extensions>
      </trkpt>
      <trkpt lat="30.437063835561275482177734375" lon="120.26913617737591266632080078125">
        <ele>6.80000019073486328125</ele>
        <time>2026-04-01T14:22:08.000Z</time>
        <extensions>
          <ns3:TrackPointExtension>
            <ns3:hr>124</ns3:hr>
            <ns3:cad>62</ns3:cad>
          </ns3:TrackPointExtension>
        </extensions>
      </trkpt>
      <trkpt lat="30.43705972842872142791748046875" lon="120.26912662200629711151123046875">
        <ele>6.80000019073486328125</ele>
        <time>2026-04-01T14:22:09.000Z</time>
        <extensions>
          <ns3:TrackPointExtension>
            <ns3:hr>124</ns3:hr>
            <ns3:cad>62</ns3:cad>
          </ns3:TrackPointExtension>
        </extensions>
      </trkpt>
      <trkpt lat="30.43705813586711883544921875" lon="120.26911354623734951019287109375">
        <ele>7</ele>
        <time>2026-04-01T14:22:10.000Z</time>
        <extensions>
          <ns3:TrackPointExtension>
            <ns3:hr>124</ns3:hr>
            <ns3:cad>65</ns3:cad>
          </ns3:TrackPointExtension>
        </extensions>
      </trkpt>
      <trkpt lat="30.4370479099452495574951171875" lon="120.26910868473351001739501953125">
        <ele>7</ele>
        <time>2026-04-01T14:22:11.000Z</time>
        <extensions>
          <ns3:TrackPointExtension>
            <ns3:hr>125</ns3:hr>
            <ns3:cad>65</ns3:cad>
          </ns3:TrackPointExtension>
        </extensions>
      </trkpt>
      <trkpt lat="30.43704397045075893402099609375" lon="120.26910080574452877044677734375">
        <ele>7</ele>
        <time>2026-04-01T14:22:12.000Z</time>
        <extensions>
          <ns3:TrackPointExtension>
            <ns3:hr>125</ns3:hr>
            <ns3:cad>65</ns3:cad>
          </ns3:TrackPointExtension>
        </extensions>
      </trkpt>
      <trkpt lat="30.43704279698431491851806640625" lon="120.26908806525170803070068359375">
        <ele>7</ele>
        <time>2026-04-01T14:22:13.000Z</time>
        <extensions>
          <ns3:TrackPointExtension>
            <ns3:hr>124</ns3:hr>
            <ns3:cad>62</ns3:cad>
          </ns3:TrackPointExtension>
        </extensions>
      </trkpt>
      <trkpt lat="30.43702955357730388641357421875" lon="120.26908471249043941497802734375">
        <ele>7</ele>
        <time>2026-04-01T14:22:14.000Z</time>
        <extensions>
          <ns3:TrackPointExtension>
            <ns3:hr>123</ns3:hr>
            <ns3:cad>62</ns3:cad>
          </ns3:TrackPointExtension>
        </extensions>
      </trkpt>
      <trkpt lat="30.43702536262571811676025390625" lon="120.26907272636890411376953125">
        <ele>7</ele>
        <time>2026-04-01T14:22:15.000Z</time>
        <extensions>
          <ns3:TrackPointExtension>
            <ns3:hr>123</ns3:hr>
            <ns3:cad>64</ns3:cad>
          </ns3:TrackPointExtension>
        </extensions>
      </trkpt>
      <trkpt lat="30.43703131377696990966796875" lon="120.269052945077419281005859375">
        <ele>7.19999980926513671875</ele>
        <time>2026-04-01T14:22:16.000Z</time>
        <extensions>
          <ns3:TrackPointExtension>
            <ns3:hr>123</ns3:hr>
            <ns3:cad>64</ns3:cad>
          </ns3:TrackPointExtension>
        </extensions>
      </trkpt>
      <trkpt lat="30.43703692965209484100341796875" lon="120.26903006248176097869873046875">
        <ele>7.19999980926513671875</ele>
        <time>2026-04-01T14:22:17.000Z</time>
        <extensions>
          <ns3:TrackPointExtension>
            <ns3:hr>123</ns3:hr>
            <ns3:cad>64</ns3:cad>
          </ns3:TrackPointExtension>
        </extensions>
      </trkpt>
      <trkpt lat="30.4370341636240482330322265625" lon="120.2690117061138153076171875">
        <ele>7.19999980926513671875</ele>
        <time>2026-04-01T14:22:18.000Z</time>
        <extensions>
          <ns3:TrackPointExtension>
            <ns3:hr>123</ns3:hr>
            <ns3:cad>64</ns3:cad>
          </ns3:TrackPointExtension>
        </extensions>
      </trkpt>
      <trkpt lat="30.43702603317797183990478515625" lon="120.26899888180196285247802734375">
        <ele>7.400000095367431640625</ele>
        <time>2026-04-01T14:22:19.000Z</time>
        <extensions>
          <ns3:TrackPointExtension>
            <ns3:hr>123</ns3:hr>
            <ns3:cad>63</ns3:cad>
          </ns3:TrackPointExtension>
        </extensions>
      </trkpt>
      <trkpt lat="30.43701396323740482330322265625" lon="120.26899150572717189788818359375">
        <ele>7.400000095367431640625</ele>
        <time>2026-04-01T14:22:20.000Z</time>
        <extensions>
          <ns3:TrackPointExtension>
            <ns3:hr>123</ns3:hr>
            <ns3:cad>63</ns3:cad>
          </ns3:TrackPointExtension>
        </extensions>
      </trkpt>
      <trkpt lat="30.43700491078197956085205078125" lon="120.26898077689111232757568359375">
        <ele>7.400000095367431640625</ele>
        <time>2026-04-01T14:22:21.000Z</time>
        <extensions>
          <ns3:TrackPointExtension>
            <ns3:hr>124</ns3:hr>
            <ns3:cad>63</ns3:cad>
          </ns3:TrackPointExtension>
        </extensions>
      </trkpt>
      <trkpt lat="30.43699108064174652099609375" lon="120.26897155679762363433837890625">
        <ele>7.400000095367431640625</ele>
        <time>2026-04-01T14:22:22.000Z</time>
        <extensions>
          <ns3:TrackPointExtension>
            <ns3:hr>125</ns3:hr>
            <ns3:cad>64</ns3:cad>
          </ns3:TrackPointExtension>
        </extensions>
      </trkpt>
      <trkpt lat="30.43697859160602092742919921875" lon="120.26896736584603786468505859375">
        <ele>7.400000095367431640625</ele>
        <time>2026-04-01T14:22:23.000Z</time>
        <extensions>
          <ns3:TrackPointExtension>
            <ns3:hr>125</ns3:hr>
            <ns3:cad>64</ns3:cad>
          </ns3:TrackPointExtension>
        </extensions>
      </trkpt>
      <trkpt lat="30.43696467764675617218017578125" lon="120.2689572237432003021240234375">
        <ele>7.400000095367431640625</ele>
        <time>2026-04-01T14:22:24.000Z</time>
        <extensions>
          <ns3:TrackPointExtension>
            <ns3:hr>126</ns3:hr>
            <ns3:cad>63</ns3:cad>
          </ns3:TrackPointExtension>
        </extensions>
      </trkpt>
      <trkpt lat="30.43695361353456974029541015625" lon="120.26894926093518733978271484375">
        <ele>7.400000095367431640625</ele>
        <time>2026-04-01T14:22:25.000Z</time>
        <extensions>
          <ns3:TrackPointExtension>
            <ns3:hr>126</ns3:hr>
            <ns3:cad>63</ns3:cad>
          </ns3:TrackPointExtension>
        </extensions>
      </trkpt>
      <trkpt lat="30.4369479976594448089599609375" lon="120.26893995702266693115234375">
        <ele>7.599999904632568359375</ele>
        <time>2026-04-01T14:22:26.000Z</time>
        <extensions>
          <ns3:TrackPointExtension>
            <ns3:hr>126</ns3:hr>
            <ns3:cad>63</ns3:cad>
          </ns3:TrackPointExtension>
        </extensions>
      </trkpt>
      <trkpt lat="30.43694254942238330841064453125" lon="120.26893115602433681488037109375">
        <ele>7.599999904632568359375</ele>
        <time>2026-04-01T14:22:27.000Z</time>
        <extensions>
          <ns3:TrackPointExtension>
            <ns3:hr>126</ns3:hr>
            <ns3:cad>66</ns3:cad>
          </ns3:TrackPointExtension>
        </extensions>
      </trkpt>
      <trkpt lat="30.43693433515727519989013671875" lon="120.2689183317124843597412109375">
        <ele>7.599999904632568359375</ele>
        <time>2026-04-01T14:22:28.000Z</time>
        <extensions>
          <ns3:TrackPointExtension>
            <ns3:hr>126</ns3:hr>
            <ns3:cad>66</ns3:cad>
          </ns3:TrackPointExtension>
        </extensions>
      </trkpt>
      <trkpt lat="30.43692796491086483001708984375" lon="120.268912129104137420654296875">
        <ele>7.599999904632568359375</ele>
        <time>2026-04-01T14:22:29.000Z</time>
        <extensions>
          <ns3:TrackPointExtension>
            <ns3:hr>126</ns3:hr>
            <ns3:cad>64</ns3:cad>
          </ns3:TrackPointExtension>
        </extensions>
      </trkpt>
      <trkpt lat="30.4369206726551055908203125" lon="120.2689025737345218658447265625">
        <ele>7.599999904632568359375</ele>
        <time>2026-04-01T14:22:30.000Z</time>
        <extensions>
          <ns3:TrackPointExtension>
            <ns3:hr>125</ns3:hr>
            <ns3:cad>63</ns3:cad>
          </ns3:TrackPointExtension>
        </extensions>
      </trkpt>
      <trkpt lat="30.4369171522557735443115234375" lon="120.2688844688236713409423828125">
        <ele>7.80000019073486328125</ele>
        <time>2026-04-01T14:22:31.000Z</time>
        <extensions>
          <ns3:TrackPointExtension>
            <ns3:hr>124</ns3:hr>
            <ns3:cad>63</ns3:cad>
          </ns3:TrackPointExtension>
        </extensions>
      </trkpt>
      <trkpt lat="30.43691438622772693634033203125" lon="120.26886879466474056243896484375">
        <ele>7.80000019073486328125</ele>
        <time>2026-04-01T14:22:32.000Z</time>
        <extensions>
          <ns3:TrackPointExtension>
            <ns3:hr>124</ns3:hr>
            <ns3:cad>63</ns3:cad>
          </ns3:TrackPointExtension>
        </extensions>
      </trkpt>
      <trkpt lat="30.43690902180969715118408203125" lon="120.26885144412517547607421875">
        <ele>7.80000019073486328125</ele>
        <time>2026-04-01T14:22:33.000Z</time>
        <extensions>
          <ns3:TrackPointExtension>
            <ns3:hr>123</ns3:hr>
            <ns3:cad>63</ns3:cad>
          </ns3:TrackPointExtension>
        </extensions>
      </trkpt>
      <trkpt lat="30.4369020648300647735595703125" lon="120.26883677579462528228759765625">
        <ele>7.80000019073486328125</ele>
        <time>2026-04-01T14:22:34.000Z</time>
        <extensions>
          <ns3:TrackPointExtension>
            <ns3:hr>123</ns3:hr>
            <ns3:cad>64</ns3:cad>
          </ns3:TrackPointExtension>
        </extensions>
      </trkpt>
      <trkpt lat="30.43689494021236896514892578125" lon="120.2688190899789333343505859375">
        <ele>8</ele>
        <time>2026-04-01T14:22:35.000Z</time>
        <extensions>
          <ns3:TrackPointExtension>
            <ns3:hr>123</ns3:hr>
            <ns3:cad>65</ns3:cad>
          </ns3:TrackPointExtension>
        </extensions>
      </trkpt>
      <trkpt lat="30.43688789941370487213134765625" lon="120.268801152706146240234375">
        <ele>8</ele>
        <time>2026-04-01T14:22:36.000Z</time>
        <extensions>
          <ns3:TrackPointExtension>
            <ns3:hr>124</ns3:hr>
            <ns3:cad>65</ns3:cad>
          </ns3:TrackPointExtension>
        </extensions>
      </trkpt>
      <trkpt lat="30.43688605539500713348388671875" lon="120.26878128759562969207763671875">
        <ele>7.80000019073486328125</ele>
        <time>2026-04-01T14:22:37.000Z</time>
        <extensions>
          <ns3:TrackPointExtension>
            <ns3:hr>125</ns3:hr>
            <ns3:cad>63</ns3:cad>
          </ns3:TrackPointExtension>
        </extensions>
      </trkpt>
      <trkpt lat="30.436882115900516510009765625" lon="120.26875815354287624359130859375">
        <ele>7.599999904632568359375</ele>
        <time>2026-04-01T14:22:38.000Z</time>
        <extensions>
          <ns3:TrackPointExtension>
            <ns3:hr>125</ns3:hr>
            <ns3:cad>63</ns3:cad>
          </ns3:TrackPointExtension>
        </extensions>
      </trkpt>
      <trkpt lat="30.43687599711120128631591796875" lon="120.26874507777392864227294921875">
        <ele>7.599999904632568359375</ele>
        <time>2026-04-01T14:22:39.000Z</time>
        <extensions>
          <ns3:TrackPointExtension>
            <ns3:hr>124</ns3:hr>
            <ns3:cad>65</ns3:cad>
          </ns3:TrackPointExtension>
        </extensions>
      </trkpt>
      <trkpt lat="30.436866022646427154541015625" lon="120.2687329240143299102783203125">
        <ele>7.400000095367431640625</ele>
        <time>2026-04-01T14:22:40.000Z</time>
        <extensions>
          <ns3:TrackPointExtension>
            <ns3:hr>122</ns3:hr>
            <ns3:cad>65</ns3:cad>
          </ns3:TrackPointExtension>
        </extensions>
      </trkpt>
      <trkpt lat="30.43685588054358959197998046875" lon="120.2687248773872852325439453125">
        <ele>7.400000095367431640625</ele>
        <time>2026-04-01T14:22:41.000Z</time>
        <extensions>
          <ns3:TrackPointExtension>
            <ns3:hr>121</ns3:hr>
            <ns3:cad>65</ns3:cad>
          </ns3:TrackPointExtension>
        </extensions>
      </trkpt>
      <trkpt lat="30.43684883974492549896240234375" lon="120.2687151543796062469482421875">
        <ele>7.400000095367431640625</ele>
        <time>2026-04-01T14:22:42.000Z</time>
        <extensions>
          <ns3:TrackPointExtension>
            <ns3:hr>121</ns3:hr>
            <ns3:cad>65</ns3:cad>
          </ns3:TrackPointExtension>
        </extensions>
      </trkpt>
      <trkpt lat="30.43684314005076885223388671875" lon="120.2687037549912929534912109375">
        <ele>7.19999980926513671875</ele>
        <time>2026-04-01T14:22:43.000Z</time>
        <extensions>
          <ns3:TrackPointExtension>
            <ns3:hr>121</ns3:hr>
            <ns3:cad>64</ns3:cad>
          </ns3:TrackPointExtension>
        </extensions>
      </trkpt>
      <trkpt lat="30.436835177242755889892578125" lon="120.26869411580264568328857421875">
        <ele>7.19999980926513671875</ele>
        <time>2026-04-01T14:22:44.000Z</time>
        <extensions>
          <ns3:TrackPointExtension>
            <ns3:hr>120</ns3:hr>
            <ns3:cad>64</ns3:cad>
          </ns3:TrackPointExtension>
        </extensions>
      </trkpt>
      <trkpt lat="30.436829812824726104736328125" lon="120.26868388988077640533447265625">
        <ele>7.19999980926513671875</ele>
        <time>2026-04-01T14:22:45.000Z</time>
        <extensions>
          <ns3:TrackPointExtension>
            <ns3:hr>120</ns3:hr>
            <ns3:cad>64</ns3:cad>
          </ns3:TrackPointExtension>
        </extensions>
      </trkpt>
      <trkpt lat="30.43682537041604518890380859375" lon="120.26867031119763851165771484375">
        <ele>7</ele>
        <time>2026-04-01T14:22:46.000Z</time>
        <extensions>
          <ns3:TrackPointExtension>
            <ns3:hr>119</ns3:hr>
            <ns3:cad>62</ns3:cad>
          </ns3:TrackPointExtension>
        </extensions>
      </trkpt>
      <trkpt lat="30.43682537041604518890380859375" lon="120.26865187101066112518310546875">
        <ele>6.80000019073486328125</ele>
        <time>2026-04-01T14:22:47.000Z</time>
        <extensions>
          <ns3:TrackPointExtension>
            <ns3:hr>119</ns3:hr>
            <ns3:cad>62</ns3:cad>
          </ns3:TrackPointExtension>
        </extensions>
      </trkpt>
      <trkpt lat="30.43682076036930084228515625" lon="120.268634855747222900390625">
        <ele>6.80000019073486328125</ele>
        <time>2026-04-01T14:22:48.000Z</time>
        <extensions>
          <ns3:TrackPointExtension>
            <ns3:hr>119</ns3:hr>
            <ns3:cad>63</ns3:cad>
          </ns3:TrackPointExtension>
        </extensions>
      </trkpt>
      <trkpt lat="30.4368182457983493804931640625" lon="120.26861851103603839874267578125">
        <ele>6.599999904632568359375</ele>
        <time>2026-04-01T14:22:49.000Z</time>
        <extensions>
          <ns3:TrackPointExtension>
            <ns3:hr>120</ns3:hr>
            <ns3:cad>63</ns3:cad>
          </ns3:TrackPointExtension>
        </extensions>
      </trkpt>
      <trkpt lat="30.4368172399699687957763671875" lon="120.268601663410663604736328125">
        <ele>6.599999904632568359375</ele>
        <time>2026-04-01T14:22:50.000Z</time>
        <extensions>
          <ns3:TrackPointExtension>
            <ns3:hr>120</ns3:hr>
            <ns3:cad>64</ns3:cad>
          </ns3:TrackPointExtension>
        </extensions>
      </trkpt>
      <trkpt lat="30.4368051700294017791748046875" lon="120.26858992874622344970703125">
        <ele>6.400000095367431640625</ele>
        <time>2026-04-01T14:22:51.000Z</time>
        <extensions>
          <ns3:TrackPointExtension>
            <ns3:hr>121</ns3:hr>
            <ns3:cad>64</ns3:cad>
          </ns3:TrackPointExtension>
        </extensions>
      </trkpt>
      <trkpt lat="30.43679720722138881683349609375" lon="120.26857257820665836334228515625">
        <ele>6.400000095367431640625</ele>
        <time>2026-04-01T14:22:52.000Z</time>
        <extensions>
          <ns3:TrackPointExtension>
            <ns3:hr>122</ns3:hr>
            <ns3:cad>64</ns3:cad>
          </ns3:TrackPointExtension>
        </extensions>
      </trkpt>
      <trkpt lat="30.43678597547113895416259765625" lon="120.268562100827693939208984375">
        <ele>6.19999980926513671875</ele>
        <time>2026-04-01T14:22:53.000Z</time>
        <extensions>
          <ns3:TrackPointExtension>
            <ns3:hr>122</ns3:hr>
            <ns3:cad>64</ns3:cad>
          </ns3:TrackPointExtension>
        </extensions>
      </trkpt>
      <trkpt lat="30.43677306734025478363037109375" lon="120.26855279691517353057861328125">
        <ele>6.19999980926513671875</ele>
        <time>2026-04-01T14:22:54.000Z</time>
        <extensions>
          <ns3:TrackPointExtension>
            <ns3:hr>122</ns3:hr>
            <ns3:cad>64</ns3:cad>
          </ns3:TrackPointExtension>
        </extensions>
      </trkpt>
      <trkpt lat="30.43676099739968776702880859375" lon="120.268534608185291290283203125">
        <ele>6</ele>
        <time>2026-04-01T14:22:55.000Z</time>
        <extensions>
          <ns3:TrackPointExtension>
            <ns3:hr>122</ns3:hr>
            <ns3:cad>64</ns3:cad>
          </ns3:TrackPointExtension>
        </extensions>
      </trkpt>
      <trkpt lat="30.43674507178366184234619140625" lon="120.26852932758629322052001953125">
        <ele>6</ele>
        <time>2026-04-01T14:22:56.000Z</time>
        <extensions>
          <ns3:TrackPointExtension>
            <ns3:hr>123</ns3:hr>
            <ns3:cad>64</ns3:cad>
          </ns3:TrackPointExtension>
        </extensions>
      </trkpt>
      <trkpt lat="30.43673702515661716461181640625" lon="120.26852329261600971221923828125">
        <ele>6</ele>
        <time>2026-04-01T14:22:57.000Z</time>
        <extensions>
          <ns3:TrackPointExtension>
            <ns3:hr>122</ns3:hr>
            <ns3:cad>64</ns3:cad>
          </ns3:TrackPointExtension>
        </extensions>
      </trkpt>
      <trkpt lat="30.4367300681769847869873046875" lon="120.2685153298079967498779296875">
        <ele>5.80000019073486328125</ele>
        <time>2026-04-01T14:22:58.000Z</time>
        <extensions>
          <ns3:TrackPointExtension>
            <ns3:hr>121</ns3:hr>
            <ns3:cad>64</ns3:cad>
          </ns3:TrackPointExtension>
        </extensions>
      </trkpt>
      <trkpt lat="30.43671556748449802398681640625" lon="120.2685089595615863800048828125">
        <ele>5.80000019073486328125</ele>
        <time>2026-04-01T14:22:59.000Z</time>
        <extensions>
          <ns3:TrackPointExtension>
            <ns3:hr>121</ns3:hr>
            <ns3:cad>64</ns3:cad>
          </ns3:TrackPointExtension>
        </extensions>
      </trkpt>
      <trkpt lat="30.4366918466985225677490234375" lon="120.26851558126509189605712890625">
        <ele>5.80000019073486328125</ele>
        <time>2026-04-01T14:23:00.000Z</time>
        <extensions>
          <ns3:TrackPointExtension>
            <ns3:hr>120</ns3:hr>
            <ns3:cad>64</ns3:cad>
          </ns3:TrackPointExtension>
        </extensions>
      </trkpt>
      <trkpt lat="30.43668664991855621337890625" lon="120.268506444990634918212890625">
        <ele>5.80000019073486328125</ele>
        <time>2026-04-01T14:23:01.000Z</time>
        <extensions>
          <ns3:TrackPointExtension>
            <ns3:hr>120</ns3:hr>
            <ns3:cad>64</ns3:cad>
          </ns3:TrackPointExtension>
        </extensions>
      </trkpt>
      <trkpt lat="30.4366779327392578125" lon="120.26849881745874881744384765625">
        <ele>5.80000019073486328125</ele>
        <time>2026-04-01T14:23:02.000Z</time>
        <extensions>
          <ns3:TrackPointExtension>
            <ns3:hr>120</ns3:hr>
            <ns3:cad>63</ns3:cad>
          </ns3:TrackPointExtension>
        </extensions>
      </trkpt>
      <trkpt lat="30.43667667545378208160400390625" lon="120.268485657870769500732421875">
        <ele>5.599999904632568359375</ele>
        <time>2026-04-01T14:23:03.000Z</time>
        <extensions>
          <ns3:TrackPointExtension>
            <ns3:hr>120</ns3:hr>
            <ns3:cad>63</ns3:cad>
          </ns3:TrackPointExtension>
        </extensions>
      </trkpt>
      <trkpt lat="30.436688326299190521240234375" lon="120.26846093125641345977783203125">
        <ele>5.400000095367431640625</ele>
        <time>2026-04-01T14:23:04.000Z</time>
        <extensions>
          <ns3:TrackPointExtension>
            <ns3:hr>119</ns3:hr>
            <ns3:cad>61</ns3:cad>
          </ns3:TrackPointExtension>
        </extensions>
      </trkpt>
      <trkpt lat="30.4366955347359180450439453125" lon="120.26844064705073833465576171875">
        <ele>5.400000095367431640625</ele>
        <time>2026-04-01T14:23:05.000Z</time>
        <extensions>
          <ns3:TrackPointExtension>
            <ns3:hr>119</ns3:hr>
            <ns3:cad>61</ns3:cad>
          </ns3:TrackPointExtension>
        </extensions>
      </trkpt>
      <trkpt lat="30.4366953670978546142578125" lon="120.26842924766242504119873046875">
        <ele>5.19999980926513671875</ele>
        <time>2026-04-01T14:23:06.000Z</time>
        <extensions>
          <ns3:TrackPointExtension>
            <ns3:hr>119</ns3:hr>
            <ns3:cad>63</ns3:cad>
          </ns3:TrackPointExtension>
        </extensions>
      </trkpt>
      <trkpt lat="30.43668857775628566741943359375" lon="120.2684144116938114166259765625">
        <ele>5.19999980926513671875</ele>
        <time>2026-04-01T14:23:07.000Z</time>
        <extensions>
          <ns3:TrackPointExtension>
            <ns3:hr>118</ns3:hr>
            <ns3:cad>63</ns3:cad>
          </ns3:TrackPointExtension>
        </extensions>
      </trkpt>
      <trkpt lat="30.4366827942430973052978515625" lon="120.268404185771942138671875">
        <ele>5</ele>
        <time>2026-04-01T14:23:08.000Z</time>
        <extensions>
          <ns3:TrackPointExtension>
            <ns3:hr>118</ns3:hr>
            <ns3:cad>63</ns3:cad>
          </ns3:TrackPointExtension>
        </extensions>
      </trkpt>
      <trkpt lat="30.43667432852089405059814453125" lon="120.26839186437427997589111328125">
        <ele>5</ele>
        <time>2026-04-01T14:23:09.000Z</time>
        <extensions>
          <ns3:TrackPointExtension>
            <ns3:hr>119</ns3:hr>
            <ns3:cad>63</ns3:cad>
          </ns3:TrackPointExtension>
        </extensions>
      </trkpt>
      <trkpt lat="30.43667131103575229644775390625" lon="120.26837979443371295928955078125">
        <ele>5</ele>
        <time>2026-04-01T14:23:10.000Z</time>
        <extensions>
          <ns3:TrackPointExtension>
            <ns3:hr>119</ns3:hr>
            <ns3:cad>63</ns3:cad>
          </ns3:TrackPointExtension>
        </extensions>
      </trkpt>
      <trkpt lat="30.4366606660187244415283203125" lon="120.26836336590349674224853515625">
        <ele>4.80000019073486328125</ele>
        <time>2026-04-01T14:23:11.000Z</time>
        <extensions>
          <ns3:TrackPointExtension>
            <ns3:hr>120</ns3:hr>
            <ns3:cad>63</ns3:cad>
          </ns3:TrackPointExtension>
        </extensions>
      </trkpt>
      <trkpt lat="30.4366489313542842864990234375" lon="120.26834878139197826385498046875">
        <ele>4.599999904632568359375</ele>
        <time>2026-04-01T14:23:12.000Z</time>
        <extensions>
          <ns3:TrackPointExtension>
            <ns3:hr>119</ns3:hr>
            <ns3:cad>64</ns3:cad>
          </ns3:TrackPointExtension>
        </extensions>
      </trkpt>
      <trkpt lat="30.43664230965077877044677734375" lon="120.26833017356693744659423828125">
        <ele>4.599999904632568359375</ele>
        <time>2026-04-01T14:23:13.000Z</time>
        <extensions>
          <ns3:TrackPointExtension>
            <ns3:hr>118</ns3:hr>
            <ns3:cad>64</ns3:cad>
          </ns3:TrackPointExtension>
        </extensions>
      </trkpt>
      <trkpt lat="30.43663728050887584686279296875" lon="120.26832128874957561492919921875">
        <ele>4.400000095367431640625</ele>
        <time>2026-04-01T14:23:14.000Z</time>
        <extensions>
          <ns3:TrackPointExtension>
            <ns3:hr>118</ns3:hr>
            <ns3:cad>64</ns3:cad>
          </ns3:TrackPointExtension>
        </extensions>
      </trkpt>
      <trkpt lat="30.4366325028240680694580078125" lon="120.26831232011318206787109375">
        <ele>4.400000095367431640625</ele>
        <time>2026-04-01T14:23:15.000Z</time>
        <extensions>
          <ns3:TrackPointExtension>
            <ns3:hr>118</ns3:hr>
            <ns3:cad>64</ns3:cad>
          </ns3:TrackPointExtension>
        </extensions>
      </trkpt>
      <trkpt lat="30.436629317700862884521484375" lon="120.2682955563068389892578125">
        <ele>4.400000095367431640625</ele>
        <time>2026-04-01T14:23:16.000Z</time>
        <extensions>
          <ns3:TrackPointExtension>
            <ns3:hr>118</ns3:hr>
            <ns3:cad>64</ns3:cad>
          </ns3:TrackPointExtension>
        </extensions>
      </trkpt>
      <trkpt lat="30.436623282730579376220703125" lon="120.268278457224369049072265625">
        <ele>4.19999980926513671875</ele>
        <time>2026-04-01T14:23:17.000Z</time>
        <extensions>
          <ns3:TrackPointExtension>
            <ns3:hr>119</ns3:hr>
            <ns3:cad>64</ns3:cad>
          </ns3:TrackPointExtension>
        </extensions>
      </trkpt>
      <trkpt lat="30.4366194270551204681396484375" lon="120.26825599372386932373046875">
        <ele>4</ele>
        <time>2026-04-01T14:23:18.000Z</time>
        <extensions>
          <ns3:TrackPointExtension>
            <ns3:hr>119</ns3:hr>
            <ns3:cad>64</ns3:cad>
          </ns3:TrackPointExtension>
        </extensions>
      </trkpt>
      <trkpt lat="30.43661079369485378265380859375" lon="120.26824233122169971466064453125">
        <ele>4</ele>
        <time>2026-04-01T14:23:19.000Z</time>
        <extensions>
          <ns3:TrackPointExtension>
            <ns3:hr>119</ns3:hr>
            <ns3:cad>64</ns3:cad>
          </ns3:TrackPointExtension>
        </extensions>
      </trkpt>
      <trkpt lat="30.43660207651555538177490234375" lon="120.268225483596324920654296875">
        <ele>4</ele>
        <time>2026-04-01T14:23:20.000Z</time>
        <extensions>
          <ns3:TrackPointExtension>
            <ns3:hr>118</ns3:hr>
            <ns3:cad>64</ns3:cad>
          </ns3:TrackPointExtension>
        </extensions>
      </trkpt>
      <trkpt lat="30.43659319169819355010986328125" lon="120.26820997707545757293701171875">
        <ele>4</ele>
        <time>2026-04-01T14:23:21.000Z</time>
        <extensions>
          <ns3:TrackPointExtension>
            <ns3:hr>118</ns3:hr>
            <ns3:cad>64</ns3:cad>
          </ns3:TrackPointExtension>
        </extensions>
      </trkpt>
      <trkpt lat="30.43658740818500518798828125" lon="120.26819103397428989410400390625">
        <ele>4</ele>
        <time>2026-04-01T14:23:22.000Z</time>
        <extensions>
          <ns3:TrackPointExtension>
            <ns3:hr>117</ns3:hr>
            <ns3:cad>64</ns3:cad>
          </ns3:TrackPointExtension>
        </extensions>
      </trkpt>
      <trkpt lat="30.436583049595355987548828125" lon="120.2681689895689487457275390625">
        <ele>4.19999980926513671875</ele>
        <time>2026-04-01T14:23:23.000Z</time>
        <extensions>
          <ns3:TrackPointExtension>
            <ns3:hr>118</ns3:hr>
            <ns3:cad>63</ns3:cad>
          </ns3:TrackPointExtension>
        </extensions>
      </trkpt>
      <trkpt lat="30.43657709844410419464111328125" lon="120.26814711280167102813720703125">
        <ele>4.19999980926513671875</ele>
        <time>2026-04-01T14:23:24.000Z</time>
        <extensions>
          <ns3:TrackPointExtension>
            <ns3:hr>118</ns3:hr>
            <ns3:cad>63</ns3:cad>
          </ns3:TrackPointExtension>
        </extensions>
      </trkpt>
    </trkseg>
  </trk>
</gpx>
