<gpx xmlns:ns3="http://www.garmin.com/xmlschemas/TrackPointExtension/v1" xmlns="http://www.topografix.com/GPX/1/1" xmlns:xsi="http://www.w3.org/2001/XMLSchema-instance" xmlns:ns2="http://www.garmin.com/xmlschemas/GpxExtensions/v3" creator="Garmin Connect" version="1.1" xsi:schemaLocation="http://www.topografix.com/GPX/1/1 http://www.topografix.com/GPX/11.xsd">
  <extensions>
<distance>2084.85</distance>
<average_hr>154.0</average_hr>
<average_speed>2.5490000247955322</average_speed>
<start_time>2026-04-02T13:18:34+00:00</start_time>
<end_time>2026-04-02T13:32:12.026000+00:00</end_time>
<moving_time>811.0</moving_time>
<elapsed_time>833.024</elapsed_time>
</extensions>
<metadata>
    <link href="connect.garmin.com">
      <text>Garmin Connect</text>
    </link>
    <time>2026-04-02T13:18:34.000Z</time>
  </metadata>
  <trk>
    <name>跑步</name>
    <type>running</type>
    <trkseg/>
  </trk>
</gpx>
